[
  {
    "code": "001",
    "name": "Quận Ba Đình",
    "unit": "Quận",
    "province_code": "01",
    "province_name": "Thành phố Hà Nội",
    "area_code": "01",
    "area_name": "Miền Bắc",
    "full_name": "Quận Ba Đình, Thành phố Hà Nội, Miền Bắc"
  },
  {
    "code": "002",
    "name": "Quận Hoàn Kiếm",
    "unit": "Quận",
    "province_code": "01",
    "province_name": "Thành phố Hà Nội",
    "area_code": "01",
    "area_name": "Miền Bắc",
    "full_name": "Quận Hoàn Kiếm, Thành phố Hà Nội, Miền Bắc"
  },
  {
    "code": "003",
    "name": "Quận Tây Hồ",
    "unit": "Quận",
    "province_code": "01",
    "province_name": "Thành phố Hà Nội",
    "area_code": "01",
    "area_name": "Miền Bắc",
    "full_name": "Quận Tây Hồ, Thành phố Hà Nội, Miền Bắc"
  },
  {
    "code": "004",
    "name": "Quận Long Biên",
    "unit": "Quận",
    "province_code": "01",
    "province_name": "Thành phố Hà Nội",
    "area_code": "01",
    "area_name": "Miền Bắc",
    "full_name": "Quận Long Biên, Thành phố Hà Nội, Miền Bắc"
  },
  {
    "code": "005",
    "name": "Quận Cầu Giấy",
    "unit": "Quận",
    "province_code": "01",
    "province_name": "Thành phố Hà Nội",
    "area_code": "01",
    "area_name": "Miền Bắc",
    "full_name": "Quận Cầu Giấy, Thành phố Hà Nội, Miền Bắc"
  },
  {
    "code": "006",
    "name": "Quận Đống Đa",
    "unit": "Quận",
    "province_code": "01",
    "province_name": "Thành phố Hà Nội",
    "area_code": "01",
    "area_name": "Miền Bắc",
    "full_name": "Quận Đống Đa, Thành phố Hà Nội, Miền Bắc"
  },
  {
    "code": "007",
    "name": "Quận Hai Bà Trưng",
    "unit": "Quận",
    "province_code": "01",
    "province_name": "Thành phố Hà Nội",
    "area_code": "01",
    "area_name": "Miền Bắc",
    "full_name": "Quận Hai Bà Trưng, Thành phố Hà Nội, Miền Bắc"
  },
  {
    "code": "008",
    "name": "Quận Hoàng Mai",
    "unit": "Quận",
    "province_code": "01",
    "province_name": "Thành phố Hà Nội",
    "area_code": "01",
    "area_name": "Miền Bắc",
    "full_name": "Quận Hoàng Mai, Thành phố Hà Nội, Miền Bắc"
  },
  {
    "code": "009",
    "name": "Quận Thanh Xuân",
    "unit": "Quận",
    "province_code": "01",
    "province_name": "Thành phố Hà Nội",
    "area_code": "01",
    "area_name": "Miền Bắc",
    "full_name": "Quận Thanh Xuân, Thành phố Hà Nội, Miền Bắc"
  },
  {
    "code": "016",
    "name": "Huyện Sóc Sơn",
    "unit": "Huyện",
    "province_code": "01",
    "province_name": "Thành phố Hà Nội",
    "area_code": "01",
    "area_name": "Miền Bắc",
    "full_name": "Huyện Sóc Sơn, Thành phố Hà Nội, Miền Bắc"
  },
  {
    "code": "017",
    "name": "Huyện Đông Anh",
    "unit": "Huyện",
    "province_code": "01",
    "province_name": "Thành phố Hà Nội",
    "area_code": "01",
    "area_name": "Miền Bắc",
    "full_name": "Huyện Đông Anh, Thành phố Hà Nội, Miền Bắc"
  },
  {
    "code": "018",
    "name": "Huyện Gia Lâm",
    "unit": "Huyện",
    "province_code": "01",
    "province_name": "Thành phố Hà Nội",
    "area_code": "01",
    "area_name": "Miền Bắc",
    "full_name": "Huyện Gia Lâm, Thành phố Hà Nội, Miền Bắc"
  },
  {
    "code": "019",
    "name": "Quận Nam Từ Liêm",
    "unit": "Quận",
    "province_code": "01",
    "province_name": "Thành phố Hà Nội",
    "area_code": "01",
    "area_name": "Miền Bắc",
    "full_name": "Quận Nam Từ Liêm, Thành phố Hà Nội, Miền Bắc"
  },
  {
    "code": "020",
    "name": "Huyện Thanh Trì",
    "unit": "Huyện",
    "province_code": "01",
    "province_name": "Thành phố Hà Nội",
    "area_code": "01",
    "area_name": "Miền Bắc",
    "full_name": "Huyện Thanh Trì, Thành phố Hà Nội, Miền Bắc"
  },
  {
    "code": "021",
    "name": "Quận Bắc Từ Liêm",
    "unit": "Quận",
    "province_code": "01",
    "province_name": "Thành phố Hà Nội",
    "area_code": "01",
    "area_name": "Miền Bắc",
    "full_name": "Quận Bắc Từ Liêm, Thành phố Hà Nội, Miền Bắc"
  },
  {
    "code": "250",
    "name": "Huyện Mê Linh",
    "unit": "Huyện",
    "province_code": "01",
    "province_name": "Thành phố Hà Nội",
    "area_code": "01",
    "area_name": "Miền Bắc",
    "full_name": "Huyện Mê Linh, Thành phố Hà Nội, Miền Bắc"
  },
  {
    "code": "268",
    "name": "Quận Hà Đông",
    "unit": "Quận",
    "province_code": "01",
    "province_name": "Thành phố Hà Nội",
    "area_code": "01",
    "area_name": "Miền Bắc",
    "full_name": "Quận Hà Đông, Thành phố Hà Nội, Miền Bắc"
  },
  {
    "code": "269",
    "name": "Thị xã Sơn Tây",
    "unit": "Thị xã",
    "province_code": "01",
    "province_name": "Thành phố Hà Nội",
    "area_code": "01",
    "area_name": "Miền Bắc",
    "full_name": "Thị xã Sơn Tây, Thành phố Hà Nội, Miền Bắc"
  },
  {
    "code": "271",
    "name": "Huyện Ba Vì",
    "unit": "Huyện",
    "province_code": "01",
    "province_name": "Thành phố Hà Nội",
    "area_code": "01",
    "area_name": "Miền Bắc",
    "full_name": "Huyện Ba Vì, Thành phố Hà Nội, Miền Bắc"
  },
  {
    "code": "272",
    "name": "Huyện Phúc Thọ",
    "unit": "Huyện",
    "province_code": "01",
    "province_name": "Thành phố Hà Nội",
    "area_code": "01",
    "area_name": "Miền Bắc",
    "full_name": "Huyện Phúc Thọ, Thành phố Hà Nội, Miền Bắc"
  },
  {
    "code": "273",
    "name": "Huyện Đan Phượng",
    "unit": "Huyện",
    "province_code": "01",
    "province_name": "Thành phố Hà Nội",
    "area_code": "01",
    "area_name": "Miền Bắc",
    "full_name": "Huyện Đan Phượng, Thành phố Hà Nội, Miền Bắc"
  },
  {
    "code": "274",
    "name": "Huyện Hoài Đức",
    "unit": "Huyện",
    "province_code": "01",
    "province_name": "Thành phố Hà Nội",
    "area_code": "01",
    "area_name": "Miền Bắc",
    "full_name": "Huyện Hoài Đức, Thành phố Hà Nội, Miền Bắc"
  },
  {
    "code": "275",
    "name": "Huyện Quốc Oai",
    "unit": "Huyện",
    "province_code": "01",
    "province_name": "Thành phố Hà Nội",
    "area_code": "01",
    "area_name": "Miền Bắc",
    "full_name": "Huyện Quốc Oai, Thành phố Hà Nội, Miền Bắc"
  },
  {
    "code": "276",
    "name": "Huyện Thạch Thất",
    "unit": "Huyện",
    "province_code": "01",
    "province_name": "Thành phố Hà Nội",
    "area_code": "01",
    "area_name": "Miền Bắc",
    "full_name": "Huyện Thạch Thất, Thành phố Hà Nội, Miền Bắc"
  },
  {
    "code": "277",
    "name": "Huyện Chương Mỹ",
    "unit": "Huyện",
    "province_code": "01",
    "province_name": "Thành phố Hà Nội",
    "area_code": "01",
    "area_name": "Miền Bắc",
    "full_name": "Huyện Chương Mỹ, Thành phố Hà Nội, Miền Bắc"
  },
  {
    "code": "278",
    "name": "Huyện Thanh Oai",
    "unit": "Huyện",
    "province_code": "01",
    "province_name": "Thành phố Hà Nội",
    "area_code": "01",
    "area_name": "Miền Bắc",
    "full_name": "Huyện Thanh Oai, Thành phố Hà Nội, Miền Bắc"
  },
  {
    "code": "279",
    "name": "Huyện Thường Tín",
    "unit": "Huyện",
    "province_code": "01",
    "province_name": "Thành phố Hà Nội",
    "area_code": "01",
    "area_name": "Miền Bắc",
    "full_name": "Huyện Thường Tín, Thành phố Hà Nội, Miền Bắc"
  },
  {
    "code": "280",
    "name": "Huyện Phú Xuyên",
    "unit": "Huyện",
    "province_code": "01",
    "province_name": "Thành phố Hà Nội",
    "area_code": "01",
    "area_name": "Miền Bắc",
    "full_name": "Huyện Phú Xuyên, Thành phố Hà Nội, Miền Bắc"
  },
  {
    "code": "281",
    "name": "Huyện Ứng Hòa",
    "unit": "Huyện",
    "province_code": "01",
    "province_name": "Thành phố Hà Nội",
    "area_code": "01",
    "area_name": "Miền Bắc",
    "full_name": "Huyện Ứng Hòa, Thành phố Hà Nội, Miền Bắc"
  },
  {
    "code": "282",
    "name": "Huyện Mỹ Đức",
    "unit": "Huyện",
    "province_code": "01",
    "province_name": "Thành phố Hà Nội",
    "area_code": "01",
    "area_name": "Miền Bắc",
    "full_name": "Huyện Mỹ Đức, Thành phố Hà Nội, Miền Bắc"
  },
  {
    "code": "024",
    "name": "Thành phố Hà Giang",
    "unit": "Thành phố",
    "province_code": "02",
    "province_name": "Tỉnh Hà Giang",
    "area_code": "01",
    "area_name": "Miền Bắc",
    "full_name": "Thành phố Hà Giang, Tỉnh Hà Giang, Miền Bắc"
  },
  {
    "code": "026",
    "name": "Huyện Đồng Văn",
    "unit": "Huyện",
    "province_code": "02",
    "province_name": "Tỉnh Hà Giang",
    "area_code": "01",
    "area_name": "Miền Bắc",
    "full_name": "Huyện Đồng Văn, Tỉnh Hà Giang, Miền Bắc"
  },
  {
    "code": "027",
    "name": "Huyện Mèo Vạc",
    "unit": "Huyện",
    "province_code": "02",
    "province_name": "Tỉnh Hà Giang",
    "area_code": "01",
    "area_name": "Miền Bắc",
    "full_name": "Huyện Mèo Vạc, Tỉnh Hà Giang, Miền Bắc"
  },
  {
    "code": "028",
    "name": "Huyện Yên Minh",
    "unit": "Huyện",
    "province_code": "02",
    "province_name": "Tỉnh Hà Giang",
    "area_code": "01",
    "area_name": "Miền Bắc",
    "full_name": "Huyện Yên Minh, Tỉnh Hà Giang, Miền Bắc"
  },
  {
    "code": "029",
    "name": "Huyện Quản Bạ",
    "unit": "Huyện",
    "province_code": "02",
    "province_name": "Tỉnh Hà Giang",
    "area_code": "01",
    "area_name": "Miền Bắc",
    "full_name": "Huyện Quản Bạ, Tỉnh Hà Giang, Miền Bắc"
  },
  {
    "code": "030",
    "name": "Huyện Vị Xuyên",
    "unit": "Huyện",
    "province_code": "02",
    "province_name": "Tỉnh Hà Giang",
    "area_code": "01",
    "area_name": "Miền Bắc",
    "full_name": "Huyện Vị Xuyên, Tỉnh Hà Giang, Miền Bắc"
  },
  {
    "code": "031",
    "name": "Huyện Bắc Mê",
    "unit": "Huyện",
    "province_code": "02",
    "province_name": "Tỉnh Hà Giang",
    "area_code": "01",
    "area_name": "Miền Bắc",
    "full_name": "Huyện Bắc Mê, Tỉnh Hà Giang, Miền Bắc"
  },
  {
    "code": "032",
    "name": "Huyện Hoàng Su Phì",
    "unit": "Huyện",
    "province_code": "02",
    "province_name": "Tỉnh Hà Giang",
    "area_code": "01",
    "area_name": "Miền Bắc",
    "full_name": "Huyện Hoàng Su Phì, Tỉnh Hà Giang, Miền Bắc"
  },
  {
    "code": "033",
    "name": "Huyện Xín Mần",
    "unit": "Huyện",
    "province_code": "02",
    "province_name": "Tỉnh Hà Giang",
    "area_code": "01",
    "area_name": "Miền Bắc",
    "full_name": "Huyện Xín Mần, Tỉnh Hà Giang, Miền Bắc"
  },
  {
    "code": "034",
    "name": "Huyện Bắc Quang",
    "unit": "Huyện",
    "province_code": "02",
    "province_name": "Tỉnh Hà Giang",
    "area_code": "01",
    "area_name": "Miền Bắc",
    "full_name": "Huyện Bắc Quang, Tỉnh Hà Giang, Miền Bắc"
  },
  {
    "code": "035",
    "name": "Huyện Quang Bình",
    "unit": "Huyện",
    "province_code": "02",
    "province_name": "Tỉnh Hà Giang",
    "area_code": "01",
    "area_name": "Miền Bắc",
    "full_name": "Huyện Quang Bình, Tỉnh Hà Giang, Miền Bắc"
  },
  {
    "code": "040",
    "name": "Thành phố Cao Bằng",
    "unit": "Thành phố",
    "province_code": "04",
    "province_name": "Tỉnh Cao Bằng",
    "area_code": "01",
    "area_name": "Miền Bắc",
    "full_name": "Thành phố Cao Bằng, Tỉnh Cao Bằng, Miền Bắc"
  },
  {
    "code": "042",
    "name": "Huyện Bảo Lâm",
    "unit": "Huyện",
    "province_code": "04",
    "province_name": "Tỉnh Cao Bằng",
    "area_code": "01",
    "area_name": "Miền Bắc",
    "full_name": "Huyện Bảo Lâm, Tỉnh Cao Bằng, Miền Bắc"
  },
  {
    "code": "043",
    "name": "Huyện Bảo Lạc",
    "unit": "Huyện",
    "province_code": "04",
    "province_name": "Tỉnh Cao Bằng",
    "area_code": "01",
    "area_name": "Miền Bắc",
    "full_name": "Huyện Bảo Lạc, Tỉnh Cao Bằng, Miền Bắc"
  },
  {
    "code": "044",
    "name": "Huyện Thông Nông",
    "unit": "Huyện",
    "province_code": "04",
    "province_name": "Tỉnh Cao Bằng",
    "area_code": "01",
    "area_name": "Miền Bắc",
    "full_name": "Huyện Thông Nông, Tỉnh Cao Bằng, Miền Bắc"
  },
  {
    "code": "045",
    "name": "Huyện Hà Quảng",
    "unit": "Huyện",
    "province_code": "04",
    "province_name": "Tỉnh Cao Bằng",
    "area_code": "01",
    "area_name": "Miền Bắc",
    "full_name": "Huyện Hà Quảng, Tỉnh Cao Bằng, Miền Bắc"
  },
  {
    "code": "046",
    "name": "Huyện Trà Lĩnh",
    "unit": "Huyện",
    "province_code": "04",
    "province_name": "Tỉnh Cao Bằng",
    "area_code": "01",
    "area_name": "Miền Bắc",
    "full_name": "Huyện Trà Lĩnh, Tỉnh Cao Bằng, Miền Bắc"
  },
  {
    "code": "047",
    "name": "Huyện Trùng Khánh",
    "unit": "Huyện",
    "province_code": "04",
    "province_name": "Tỉnh Cao Bằng",
    "area_code": "01",
    "area_name": "Miền Bắc",
    "full_name": "Huyện Trùng Khánh, Tỉnh Cao Bằng, Miền Bắc"
  },
  {
    "code": "048",
    "name": "Huyện Hạ Lang",
    "unit": "Huyện",
    "province_code": "04",
    "province_name": "Tỉnh Cao Bằng",
    "area_code": "01",
    "area_name": "Miền Bắc",
    "full_name": "Huyện Hạ Lang, Tỉnh Cao Bằng, Miền Bắc"
  },
  {
    "code": "049",
    "name": "Huyện Quảng Uyên",
    "unit": "Huyện",
    "province_code": "04",
    "province_name": "Tỉnh Cao Bằng",
    "area_code": "01",
    "area_name": "Miền Bắc",
    "full_name": "Huyện Quảng Uyên, Tỉnh Cao Bằng, Miền Bắc"
  },
  {
    "code": "050",
    "name": "Huyện Phục Hoà",
    "unit": "Huyện",
    "province_code": "04",
    "province_name": "Tỉnh Cao Bằng",
    "area_code": "01",
    "area_name": "Miền Bắc",
    "full_name": "Huyện Phục Hoà, Tỉnh Cao Bằng, Miền Bắc"
  },
  {
    "code": "051",
    "name": "Huyện Hoà An",
    "unit": "Huyện",
    "province_code": "04",
    "province_name": "Tỉnh Cao Bằng",
    "area_code": "01",
    "area_name": "Miền Bắc",
    "full_name": "Huyện Hoà An, Tỉnh Cao Bằng, Miền Bắc"
  },
  {
    "code": "052",
    "name": "Huyện Nguyên Bình",
    "unit": "Huyện",
    "province_code": "04",
    "province_name": "Tỉnh Cao Bằng",
    "area_code": "01",
    "area_name": "Miền Bắc",
    "full_name": "Huyện Nguyên Bình, Tỉnh Cao Bằng, Miền Bắc"
  },
  {
    "code": "053",
    "name": "Huyện Thạch An",
    "unit": "Huyện",
    "province_code": "04",
    "province_name": "Tỉnh Cao Bằng",
    "area_code": "01",
    "area_name": "Miền Bắc",
    "full_name": "Huyện Thạch An, Tỉnh Cao Bằng, Miền Bắc"
  },
  {
    "code": "058",
    "name": "Thành Phố Bắc Kạn",
    "unit": "Thành phố",
    "province_code": "06",
    "province_name": "Tỉnh Bắc Kạn",
    "area_code": "01",
    "area_name": "Miền Bắc",
    "full_name": "Thành Phố Bắc Kạn, Tỉnh Bắc Kạn, Miền Bắc"
  },
  {
    "code": "060",
    "name": "Huyện Pác Nặm",
    "unit": "Huyện",
    "province_code": "06",
    "province_name": "Tỉnh Bắc Kạn",
    "area_code": "01",
    "area_name": "Miền Bắc",
    "full_name": "Huyện Pác Nặm, Tỉnh Bắc Kạn, Miền Bắc"
  },
  {
    "code": "061",
    "name": "Huyện Ba Bể",
    "unit": "Huyện",
    "province_code": "06",
    "province_name": "Tỉnh Bắc Kạn",
    "area_code": "01",
    "area_name": "Miền Bắc",
    "full_name": "Huyện Ba Bể, Tỉnh Bắc Kạn, Miền Bắc"
  },
  {
    "code": "062",
    "name": "Huyện Ngân Sơn",
    "unit": "Huyện",
    "province_code": "06",
    "province_name": "Tỉnh Bắc Kạn",
    "area_code": "01",
    "area_name": "Miền Bắc",
    "full_name": "Huyện Ngân Sơn, Tỉnh Bắc Kạn, Miền Bắc"
  },
  {
    "code": "063",
    "name": "Huyện Bạch Thông",
    "unit": "Huyện",
    "province_code": "06",
    "province_name": "Tỉnh Bắc Kạn",
    "area_code": "01",
    "area_name": "Miền Bắc",
    "full_name": "Huyện Bạch Thông, Tỉnh Bắc Kạn, Miền Bắc"
  },
  {
    "code": "064",
    "name": "Huyện Chợ Đồn",
    "unit": "Huyện",
    "province_code": "06",
    "province_name": "Tỉnh Bắc Kạn",
    "area_code": "01",
    "area_name": "Miền Bắc",
    "full_name": "Huyện Chợ Đồn, Tỉnh Bắc Kạn, Miền Bắc"
  },
  {
    "code": "065",
    "name": "Huyện Chợ Mới",
    "unit": "Huyện",
    "province_code": "06",
    "province_name": "Tỉnh Bắc Kạn",
    "area_code": "01",
    "area_name": "Miền Bắc",
    "full_name": "Huyện Chợ Mới, Tỉnh Bắc Kạn, Miền Bắc"
  },
  {
    "code": "066",
    "name": "Huyện Na Rì",
    "unit": "Huyện",
    "province_code": "06",
    "province_name": "Tỉnh Bắc Kạn",
    "area_code": "01",
    "area_name": "Miền Bắc",
    "full_name": "Huyện Na Rì, Tỉnh Bắc Kạn, Miền Bắc"
  },
  {
    "code": "070",
    "name": "Thành phố Tuyên Quang",
    "unit": "Thành phố",
    "province_code": "08",
    "province_name": "Tỉnh Tuyên Quang",
    "area_code": "01",
    "area_name": "Miền Bắc",
    "full_name": "Thành phố Tuyên Quang, Tỉnh Tuyên Quang, Miền Bắc"
  },
  {
    "code": "071",
    "name": "Huyện Lâm Bình",
    "unit": "Huyện",
    "province_code": "08",
    "province_name": "Tỉnh Tuyên Quang",
    "area_code": "01",
    "area_name": "Miền Bắc",
    "full_name": "Huyện Lâm Bình, Tỉnh Tuyên Quang, Miền Bắc"
  },
  {
    "code": "072",
    "name": "Huyện Na Hang",
    "unit": "Huyện",
    "province_code": "08",
    "province_name": "Tỉnh Tuyên Quang",
    "area_code": "01",
    "area_name": "Miền Bắc",
    "full_name": "Huyện Na Hang, Tỉnh Tuyên Quang, Miền Bắc"
  },
  {
    "code": "073",
    "name": "Huyện Chiêm Hóa",
    "unit": "Huyện",
    "province_code": "08",
    "province_name": "Tỉnh Tuyên Quang",
    "area_code": "01",
    "area_name": "Miền Bắc",
    "full_name": "Huyện Chiêm Hóa, Tỉnh Tuyên Quang, Miền Bắc"
  },
  {
    "code": "074",
    "name": "Huyện Hàm Yên",
    "unit": "Huyện",
    "province_code": "08",
    "province_name": "Tỉnh Tuyên Quang",
    "area_code": "01",
    "area_name": "Miền Bắc",
    "full_name": "Huyện Hàm Yên, Tỉnh Tuyên Quang, Miền Bắc"
  },
  {
    "code": "075",
    "name": "Huyện Yên Sơn",
    "unit": "Huyện",
    "province_code": "08",
    "province_name": "Tỉnh Tuyên Quang",
    "area_code": "01",
    "area_name": "Miền Bắc",
    "full_name": "Huyện Yên Sơn, Tỉnh Tuyên Quang, Miền Bắc"
  },
  {
    "code": "076",
    "name": "Huyện Sơn Dương",
    "unit": "Huyện",
    "province_code": "08",
    "province_name": "Tỉnh Tuyên Quang",
    "area_code": "01",
    "area_name": "Miền Bắc",
    "full_name": "Huyện Sơn Dương, Tỉnh Tuyên Quang, Miền Bắc"
  },
  {
    "code": "080",
    "name": "Thành phố Lào Cai",
    "unit": "Thành phố",
    "province_code": "10",
    "province_name": "Tỉnh Lào Cai",
    "area_code": "01",
    "area_name": "Miền Bắc",
    "full_name": "Thành phố Lào Cai, Tỉnh Lào Cai, Miền Bắc"
  },
  {
    "code": "082",
    "name": "Huyện Bát Xát",
    "unit": "Huyện",
    "province_code": "10",
    "province_name": "Tỉnh Lào Cai",
    "area_code": "01",
    "area_name": "Miền Bắc",
    "full_name": "Huyện Bát Xát, Tỉnh Lào Cai, Miền Bắc"
  },
  {
    "code": "083",
    "name": "Huyện Mường Khương",
    "unit": "Huyện",
    "province_code": "10",
    "province_name": "Tỉnh Lào Cai",
    "area_code": "01",
    "area_name": "Miền Bắc",
    "full_name": "Huyện Mường Khương, Tỉnh Lào Cai, Miền Bắc"
  },
  {
    "code": "084",
    "name": "Huyện Si Ma Cai",
    "unit": "Huyện",
    "province_code": "10",
    "province_name": "Tỉnh Lào Cai",
    "area_code": "01",
    "area_name": "Miền Bắc",
    "full_name": "Huyện Si Ma Cai, Tỉnh Lào Cai, Miền Bắc"
  },
  {
    "code": "085",
    "name": "Huyện Bắc Hà",
    "unit": "Huyện",
    "province_code": "10",
    "province_name": "Tỉnh Lào Cai",
    "area_code": "01",
    "area_name": "Miền Bắc",
    "full_name": "Huyện Bắc Hà, Tỉnh Lào Cai, Miền Bắc"
  },
  {
    "code": "086",
    "name": "Huyện Bảo Thắng",
    "unit": "Huyện",
    "province_code": "10",
    "province_name": "Tỉnh Lào Cai",
    "area_code": "01",
    "area_name": "Miền Bắc",
    "full_name": "Huyện Bảo Thắng, Tỉnh Lào Cai, Miền Bắc"
  },
  {
    "code": "087",
    "name": "Huyện Bảo Yên",
    "unit": "Huyện",
    "province_code": "10",
    "province_name": "Tỉnh Lào Cai",
    "area_code": "01",
    "area_name": "Miền Bắc",
    "full_name": "Huyện Bảo Yên, Tỉnh Lào Cai, Miền Bắc"
  },
  {
    "code": "088",
    "name": "Huyện Sa Pa",
    "unit": "Huyện",
    "province_code": "10",
    "province_name": "Tỉnh Lào Cai",
    "area_code": "01",
    "area_name": "Miền Bắc",
    "full_name": "Huyện Sa Pa, Tỉnh Lào Cai, Miền Bắc"
  },
  {
    "code": "089",
    "name": "Huyện Văn Bàn",
    "unit": "Huyện",
    "province_code": "10",
    "province_name": "Tỉnh Lào Cai",
    "area_code": "01",
    "area_name": "Miền Bắc",
    "full_name": "Huyện Văn Bàn, Tỉnh Lào Cai, Miền Bắc"
  },
  {
    "code": "094",
    "name": "Thành phố Điện Biên Phủ",
    "unit": "Thành phố",
    "province_code": "11",
    "province_name": "Tỉnh Điện Biên",
    "area_code": "01",
    "area_name": "Miền Bắc",
    "full_name": "Thành phố Điện Biên Phủ, Tỉnh Điện Biên, Miền Bắc"
  },
  {
    "code": "095",
    "name": "Thị Xã Mường Lay",
    "unit": "Thị xã",
    "province_code": "11",
    "province_name": "Tỉnh Điện Biên",
    "area_code": "01",
    "area_name": "Miền Bắc",
    "full_name": "Thị Xã Mường Lay, Tỉnh Điện Biên, Miền Bắc"
  },
  {
    "code": "096",
    "name": "Huyện Mường Nhé",
    "unit": "Huyện",
    "province_code": "11",
    "province_name": "Tỉnh Điện Biên",
    "area_code": "01",
    "area_name": "Miền Bắc",
    "full_name": "Huyện Mường Nhé, Tỉnh Điện Biên, Miền Bắc"
  },
  {
    "code": "097",
    "name": "Huyện Mường Chà",
    "unit": "Huyện",
    "province_code": "11",
    "province_name": "Tỉnh Điện Biên",
    "area_code": "01",
    "area_name": "Miền Bắc",
    "full_name": "Huyện Mường Chà, Tỉnh Điện Biên, Miền Bắc"
  },
  {
    "code": "098",
    "name": "Huyện Tủa Chùa",
    "unit": "Huyện",
    "province_code": "11",
    "province_name": "Tỉnh Điện Biên",
    "area_code": "01",
    "area_name": "Miền Bắc",
    "full_name": "Huyện Tủa Chùa, Tỉnh Điện Biên, Miền Bắc"
  },
  {
    "code": "099",
    "name": "Huyện Tuần Giáo",
    "unit": "Huyện",
    "province_code": "11",
    "province_name": "Tỉnh Điện Biên",
    "area_code": "01",
    "area_name": "Miền Bắc",
    "full_name": "Huyện Tuần Giáo, Tỉnh Điện Biên, Miền Bắc"
  },
  {
    "code": "100",
    "name": "Huyện Điện Biên",
    "unit": "Huyện",
    "province_code": "11",
    "province_name": "Tỉnh Điện Biên",
    "area_code": "01",
    "area_name": "Miền Bắc",
    "full_name": "Huyện Điện Biên, Tỉnh Điện Biên, Miền Bắc"
  },
  {
    "code": "101",
    "name": "Huyện Điện Biên Đông",
    "unit": "Huyện",
    "province_code": "11",
    "province_name": "Tỉnh Điện Biên",
    "area_code": "01",
    "area_name": "Miền Bắc",
    "full_name": "Huyện Điện Biên Đông, Tỉnh Điện Biên, Miền Bắc"
  },
  {
    "code": "102",
    "name": "Huyện Mường Ảng",
    "unit": "Huyện",
    "province_code": "11",
    "province_name": "Tỉnh Điện Biên",
    "area_code": "01",
    "area_name": "Miền Bắc",
    "full_name": "Huyện Mường Ảng, Tỉnh Điện Biên, Miền Bắc"
  },
  {
    "code": "103",
    "name": "Huyện Nậm Pồ",
    "unit": "Huyện",
    "province_code": "11",
    "province_name": "Tỉnh Điện Biên",
    "area_code": "01",
    "area_name": "Miền Bắc",
    "full_name": "Huyện Nậm Pồ, Tỉnh Điện Biên, Miền Bắc"
  },
  {
    "code": "105",
    "name": "Thành phố Lai Châu",
    "unit": "Thành phố",
    "province_code": "12",
    "province_name": "Tỉnh Lai Châu",
    "area_code": "01",
    "area_name": "Miền Bắc",
    "full_name": "Thành phố Lai Châu, Tỉnh Lai Châu, Miền Bắc"
  },
  {
    "code": "106",
    "name": "Huyện Tam Đường",
    "unit": "Huyện",
    "province_code": "12",
    "province_name": "Tỉnh Lai Châu",
    "area_code": "01",
    "area_name": "Miền Bắc",
    "full_name": "Huyện Tam Đường, Tỉnh Lai Châu, Miền Bắc"
  },
  {
    "code": "107",
    "name": "Huyện Mường Tè",
    "unit": "Huyện",
    "province_code": "12",
    "province_name": "Tỉnh Lai Châu",
    "area_code": "01",
    "area_name": "Miền Bắc",
    "full_name": "Huyện Mường Tè, Tỉnh Lai Châu, Miền Bắc"
  },
  {
    "code": "108",
    "name": "Huyện Sìn Hồ",
    "unit": "Huyện",
    "province_code": "12",
    "province_name": "Tỉnh Lai Châu",
    "area_code": "01",
    "area_name": "Miền Bắc",
    "full_name": "Huyện Sìn Hồ, Tỉnh Lai Châu, Miền Bắc"
  },
  {
    "code": "109",
    "name": "Huyện Phong Thổ",
    "unit": "Huyện",
    "province_code": "12",
    "province_name": "Tỉnh Lai Châu",
    "area_code": "01",
    "area_name": "Miền Bắc",
    "full_name": "Huyện Phong Thổ, Tỉnh Lai Châu, Miền Bắc"
  },
  {
    "code": "110",
    "name": "Huyện Than Uyên",
    "unit": "Huyện",
    "province_code": "12",
    "province_name": "Tỉnh Lai Châu",
    "area_code": "01",
    "area_name": "Miền Bắc",
    "full_name": "Huyện Than Uyên, Tỉnh Lai Châu, Miền Bắc"
  },
  {
    "code": "111",
    "name": "Huyện Tân Uyên",
    "unit": "Huyện",
    "province_code": "12",
    "province_name": "Tỉnh Lai Châu",
    "area_code": "01",
    "area_name": "Miền Bắc",
    "full_name": "Huyện Tân Uyên, Tỉnh Lai Châu, Miền Bắc"
  },
  {
    "code": "112",
    "name": "Huyện Nậm Nhùn",
    "unit": "Huyện",
    "province_code": "12",
    "province_name": "Tỉnh Lai Châu",
    "area_code": "01",
    "area_name": "Miền Bắc",
    "full_name": "Huyện Nậm Nhùn, Tỉnh Lai Châu, Miền Bắc"
  },
  {
    "code": "116",
    "name": "Thành phố Sơn La",
    "unit": "Thành phố",
    "province_code": "14",
    "province_name": "Tỉnh Sơn La",
    "area_code": "01",
    "area_name": "Miền Bắc",
    "full_name": "Thành phố Sơn La, Tỉnh Sơn La, Miền Bắc"
  },
  {
    "code": "118",
    "name": "Huyện Quỳnh Nhai",
    "unit": "Huyện",
    "province_code": "14",
    "province_name": "Tỉnh Sơn La",
    "area_code": "01",
    "area_name": "Miền Bắc",
    "full_name": "Huyện Quỳnh Nhai, Tỉnh Sơn La, Miền Bắc"
  },
  {
    "code": "119",
    "name": "Huyện Thuận Châu",
    "unit": "Huyện",
    "province_code": "14",
    "province_name": "Tỉnh Sơn La",
    "area_code": "01",
    "area_name": "Miền Bắc",
    "full_name": "Huyện Thuận Châu, Tỉnh Sơn La, Miền Bắc"
  },
  {
    "code": "120",
    "name": "Huyện Mường La",
    "unit": "Huyện",
    "province_code": "14",
    "province_name": "Tỉnh Sơn La",
    "area_code": "01",
    "area_name": "Miền Bắc",
    "full_name": "Huyện Mường La, Tỉnh Sơn La, Miền Bắc"
  },
  {
    "code": "121",
    "name": "Huyện Bắc Yên",
    "unit": "Huyện",
    "province_code": "14",
    "province_name": "Tỉnh Sơn La",
    "area_code": "01",
    "area_name": "Miền Bắc",
    "full_name": "Huyện Bắc Yên, Tỉnh Sơn La, Miền Bắc"
  },
  {
    "code": "122",
    "name": "Huyện Phù Yên",
    "unit": "Huyện",
    "province_code": "14",
    "province_name": "Tỉnh Sơn La",
    "area_code": "01",
    "area_name": "Miền Bắc",
    "full_name": "Huyện Phù Yên, Tỉnh Sơn La, Miền Bắc"
  },
  {
    "code": "123",
    "name": "Huyện Mộc Châu",
    "unit": "Huyện",
    "province_code": "14",
    "province_name": "Tỉnh Sơn La",
    "area_code": "01",
    "area_name": "Miền Bắc",
    "full_name": "Huyện Mộc Châu, Tỉnh Sơn La, Miền Bắc"
  },
  {
    "code": "124",
    "name": "Huyện Yên Châu",
    "unit": "Huyện",
    "province_code": "14",
    "province_name": "Tỉnh Sơn La",
    "area_code": "01",
    "area_name": "Miền Bắc",
    "full_name": "Huyện Yên Châu, Tỉnh Sơn La, Miền Bắc"
  },
  {
    "code": "125",
    "name": "Huyện Mai Sơn",
    "unit": "Huyện",
    "province_code": "14",
    "province_name": "Tỉnh Sơn La",
    "area_code": "01",
    "area_name": "Miền Bắc",
    "full_name": "Huyện Mai Sơn, Tỉnh Sơn La, Miền Bắc"
  },
  {
    "code": "126",
    "name": "Huyện Sông Mã",
    "unit": "Huyện",
    "province_code": "14",
    "province_name": "Tỉnh Sơn La",
    "area_code": "01",
    "area_name": "Miền Bắc",
    "full_name": "Huyện Sông Mã, Tỉnh Sơn La, Miền Bắc"
  },
  {
    "code": "127",
    "name": "Huyện Sốp Cộp",
    "unit": "Huyện",
    "province_code": "14",
    "province_name": "Tỉnh Sơn La",
    "area_code": "01",
    "area_name": "Miền Bắc",
    "full_name": "Huyện Sốp Cộp, Tỉnh Sơn La, Miền Bắc"
  },
  {
    "code": "128",
    "name": "Huyện Vân Hồ",
    "unit": "Huyện",
    "province_code": "14",
    "province_name": "Tỉnh Sơn La",
    "area_code": "01",
    "area_name": "Miền Bắc",
    "full_name": "Huyện Vân Hồ, Tỉnh Sơn La, Miền Bắc"
  },
  {
    "code": "132",
    "name": "Thành phố Yên Bái",
    "unit": "Thành phố",
    "province_code": "15",
    "province_name": "Tỉnh Yên Bái",
    "area_code": "01",
    "area_name": "Miền Bắc",
    "full_name": "Thành phố Yên Bái, Tỉnh Yên Bái, Miền Bắc"
  },
  {
    "code": "133",
    "name": "Thị xã Nghĩa Lộ",
    "unit": "Thị xã",
    "province_code": "15",
    "province_name": "Tỉnh Yên Bái",
    "area_code": "01",
    "area_name": "Miền Bắc",
    "full_name": "Thị xã Nghĩa Lộ, Tỉnh Yên Bái, Miền Bắc"
  },
  {
    "code": "135",
    "name": "Huyện Lục Yên",
    "unit": "Huyện",
    "province_code": "15",
    "province_name": "Tỉnh Yên Bái",
    "area_code": "01",
    "area_name": "Miền Bắc",
    "full_name": "Huyện Lục Yên, Tỉnh Yên Bái, Miền Bắc"
  },
  {
    "code": "136",
    "name": "Huyện Văn Yên",
    "unit": "Huyện",
    "province_code": "15",
    "province_name": "Tỉnh Yên Bái",
    "area_code": "01",
    "area_name": "Miền Bắc",
    "full_name": "Huyện Văn Yên, Tỉnh Yên Bái, Miền Bắc"
  },
  {
    "code": "137",
    "name": "Huyện Mù Căng Chải",
    "unit": "Huyện",
    "province_code": "15",
    "province_name": "Tỉnh Yên Bái",
    "area_code": "01",
    "area_name": "Miền Bắc",
    "full_name": "Huyện Mù Căng Chải, Tỉnh Yên Bái, Miền Bắc"
  },
  {
    "code": "138",
    "name": "Huyện Trấn Yên",
    "unit": "Huyện",
    "province_code": "15",
    "province_name": "Tỉnh Yên Bái",
    "area_code": "01",
    "area_name": "Miền Bắc",
    "full_name": "Huyện Trấn Yên, Tỉnh Yên Bái, Miền Bắc"
  },
  {
    "code": "139",
    "name": "Huyện Trạm Tấu",
    "unit": "Huyện",
    "province_code": "15",
    "province_name": "Tỉnh Yên Bái",
    "area_code": "01",
    "area_name": "Miền Bắc",
    "full_name": "Huyện Trạm Tấu, Tỉnh Yên Bái, Miền Bắc"
  },
  {
    "code": "140",
    "name": "Huyện Văn Chấn",
    "unit": "Huyện",
    "province_code": "15",
    "province_name": "Tỉnh Yên Bái",
    "area_code": "01",
    "area_name": "Miền Bắc",
    "full_name": "Huyện Văn Chấn, Tỉnh Yên Bái, Miền Bắc"
  },
  {
    "code": "141",
    "name": "Huyện Yên Bình",
    "unit": "Huyện",
    "province_code": "15",
    "province_name": "Tỉnh Yên Bái",
    "area_code": "01",
    "area_name": "Miền Bắc",
    "full_name": "Huyện Yên Bình, Tỉnh Yên Bái, Miền Bắc"
  },
  {
    "code": "148",
    "name": "Thành phố Hòa Bình",
    "unit": "Thành phố",
    "province_code": "17",
    "province_name": "Tỉnh Hoà Bình",
    "area_code": "01",
    "area_name": "Miền Bắc",
    "full_name": "Thành phố Hòa Bình, Tỉnh Hoà Bình, Miền Bắc"
  },
  {
    "code": "150",
    "name": "Huyện Đà Bắc",
    "unit": "Huyện",
    "province_code": "17",
    "province_name": "Tỉnh Hoà Bình",
    "area_code": "01",
    "area_name": "Miền Bắc",
    "full_name": "Huyện Đà Bắc, Tỉnh Hoà Bình, Miền Bắc"
  },
  {
    "code": "151",
    "name": "Huyện Kỳ Sơn",
    "unit": "Huyện",
    "province_code": "17",
    "province_name": "Tỉnh Hoà Bình",
    "area_code": "01",
    "area_name": "Miền Bắc",
    "full_name": "Huyện Kỳ Sơn, Tỉnh Hoà Bình, Miền Bắc"
  },
  {
    "code": "152",
    "name": "Huyện Lương Sơn",
    "unit": "Huyện",
    "province_code": "17",
    "province_name": "Tỉnh Hoà Bình",
    "area_code": "01",
    "area_name": "Miền Bắc",
    "full_name": "Huyện Lương Sơn, Tỉnh Hoà Bình, Miền Bắc"
  },
  {
    "code": "153",
    "name": "Huyện Kim Bôi",
    "unit": "Huyện",
    "province_code": "17",
    "province_name": "Tỉnh Hoà Bình",
    "area_code": "01",
    "area_name": "Miền Bắc",
    "full_name": "Huyện Kim Bôi, Tỉnh Hoà Bình, Miền Bắc"
  },
  {
    "code": "154",
    "name": "Huyện Cao Phong",
    "unit": "Huyện",
    "province_code": "17",
    "province_name": "Tỉnh Hoà Bình",
    "area_code": "01",
    "area_name": "Miền Bắc",
    "full_name": "Huyện Cao Phong, Tỉnh Hoà Bình, Miền Bắc"
  },
  {
    "code": "155",
    "name": "Huyện Tân Lạc",
    "unit": "Huyện",
    "province_code": "17",
    "province_name": "Tỉnh Hoà Bình",
    "area_code": "01",
    "area_name": "Miền Bắc",
    "full_name": "Huyện Tân Lạc, Tỉnh Hoà Bình, Miền Bắc"
  },
  {
    "code": "156",
    "name": "Huyện Mai Châu",
    "unit": "Huyện",
    "province_code": "17",
    "province_name": "Tỉnh Hoà Bình",
    "area_code": "01",
    "area_name": "Miền Bắc",
    "full_name": "Huyện Mai Châu, Tỉnh Hoà Bình, Miền Bắc"
  },
  {
    "code": "157",
    "name": "Huyện Lạc Sơn",
    "unit": "Huyện",
    "province_code": "17",
    "province_name": "Tỉnh Hoà Bình",
    "area_code": "01",
    "area_name": "Miền Bắc",
    "full_name": "Huyện Lạc Sơn, Tỉnh Hoà Bình, Miền Bắc"
  },
  {
    "code": "158",
    "name": "Huyện Yên Thủy",
    "unit": "Huyện",
    "province_code": "17",
    "province_name": "Tỉnh Hoà Bình",
    "area_code": "01",
    "area_name": "Miền Bắc",
    "full_name": "Huyện Yên Thủy, Tỉnh Hoà Bình, Miền Bắc"
  },
  {
    "code": "159",
    "name": "Huyện Lạc Thủy",
    "unit": "Huyện",
    "province_code": "17",
    "province_name": "Tỉnh Hoà Bình",
    "area_code": "01",
    "area_name": "Miền Bắc",
    "full_name": "Huyện Lạc Thủy, Tỉnh Hoà Bình, Miền Bắc"
  },
  {
    "code": "164",
    "name": "Thành phố Thái Nguyên",
    "unit": "Thành phố",
    "province_code": "19",
    "province_name": "Tỉnh Thái Nguyên",
    "area_code": "01",
    "area_name": "Miền Bắc",
    "full_name": "Thành phố Thái Nguyên, Tỉnh Thái Nguyên, Miền Bắc"
  },
  {
    "code": "165",
    "name": "Thành phố Sông Công",
    "unit": "Thành phố",
    "province_code": "19",
    "province_name": "Tỉnh Thái Nguyên",
    "area_code": "01",
    "area_name": "Miền Bắc",
    "full_name": "Thành phố Sông Công, Tỉnh Thái Nguyên, Miền Bắc"
  },
  {
    "code": "167",
    "name": "Huyện Định Hóa",
    "unit": "Huyện",
    "province_code": "19",
    "province_name": "Tỉnh Thái Nguyên",
    "area_code": "01",
    "area_name": "Miền Bắc",
    "full_name": "Huyện Định Hóa, Tỉnh Thái Nguyên, Miền Bắc"
  },
  {
    "code": "168",
    "name": "Huyện Phú Lương",
    "unit": "Huyện",
    "province_code": "19",
    "province_name": "Tỉnh Thái Nguyên",
    "area_code": "01",
    "area_name": "Miền Bắc",
    "full_name": "Huyện Phú Lương, Tỉnh Thái Nguyên, Miền Bắc"
  },
  {
    "code": "169",
    "name": "Huyện Đồng Hỷ",
    "unit": "Huyện",
    "province_code": "19",
    "province_name": "Tỉnh Thái Nguyên",
    "area_code": "01",
    "area_name": "Miền Bắc",
    "full_name": "Huyện Đồng Hỷ, Tỉnh Thái Nguyên, Miền Bắc"
  },
  {
    "code": "170",
    "name": "Huyện Võ Nhai",
    "unit": "Huyện",
    "province_code": "19",
    "province_name": "Tỉnh Thái Nguyên",
    "area_code": "01",
    "area_name": "Miền Bắc",
    "full_name": "Huyện Võ Nhai, Tỉnh Thái Nguyên, Miền Bắc"
  },
  {
    "code": "171",
    "name": "Huyện Đại Từ",
    "unit": "Huyện",
    "province_code": "19",
    "province_name": "Tỉnh Thái Nguyên",
    "area_code": "01",
    "area_name": "Miền Bắc",
    "full_name": "Huyện Đại Từ, Tỉnh Thái Nguyên, Miền Bắc"
  },
  {
    "code": "172",
    "name": "Thị xã Phổ Yên",
    "unit": "Thị xã",
    "province_code": "19",
    "province_name": "Tỉnh Thái Nguyên",
    "area_code": "01",
    "area_name": "Miền Bắc",
    "full_name": "Thị xã Phổ Yên, Tỉnh Thái Nguyên, Miền Bắc"
  },
  {
    "code": "173",
    "name": "Huyện Phú Bình",
    "unit": "Huyện",
    "province_code": "19",
    "province_name": "Tỉnh Thái Nguyên",
    "area_code": "01",
    "area_name": "Miền Bắc",
    "full_name": "Huyện Phú Bình, Tỉnh Thái Nguyên, Miền Bắc"
  },
  {
    "code": "178",
    "name": "Thành phố Lạng Sơn",
    "unit": "Thành phố",
    "province_code": "20",
    "province_name": "Tỉnh Lạng Sơn",
    "area_code": "01",
    "area_name": "Miền Bắc",
    "full_name": "Thành phố Lạng Sơn, Tỉnh Lạng Sơn, Miền Bắc"
  },
  {
    "code": "180",
    "name": "Huyện Tràng Định",
    "unit": "Huyện",
    "province_code": "20",
    "province_name": "Tỉnh Lạng Sơn",
    "area_code": "01",
    "area_name": "Miền Bắc",
    "full_name": "Huyện Tràng Định, Tỉnh Lạng Sơn, Miền Bắc"
  },
  {
    "code": "181",
    "name": "Huyện Bình Gia",
    "unit": "Huyện",
    "province_code": "20",
    "province_name": "Tỉnh Lạng Sơn",
    "area_code": "01",
    "area_name": "Miền Bắc",
    "full_name": "Huyện Bình Gia, Tỉnh Lạng Sơn, Miền Bắc"
  },
  {
    "code": "182",
    "name": "Huyện Văn Lãng",
    "unit": "Huyện",
    "province_code": "20",
    "province_name": "Tỉnh Lạng Sơn",
    "area_code": "01",
    "area_name": "Miền Bắc",
    "full_name": "Huyện Văn Lãng, Tỉnh Lạng Sơn, Miền Bắc"
  },
  {
    "code": "183",
    "name": "Huyện Cao Lộc",
    "unit": "Huyện",
    "province_code": "20",
    "province_name": "Tỉnh Lạng Sơn",
    "area_code": "01",
    "area_name": "Miền Bắc",
    "full_name": "Huyện Cao Lộc, Tỉnh Lạng Sơn, Miền Bắc"
  },
  {
    "code": "184",
    "name": "Huyện Văn Quan",
    "unit": "Huyện",
    "province_code": "20",
    "province_name": "Tỉnh Lạng Sơn",
    "area_code": "01",
    "area_name": "Miền Bắc",
    "full_name": "Huyện Văn Quan, Tỉnh Lạng Sơn, Miền Bắc"
  },
  {
    "code": "185",
    "name": "Huyện Bắc Sơn",
    "unit": "Huyện",
    "province_code": "20",
    "province_name": "Tỉnh Lạng Sơn",
    "area_code": "01",
    "area_name": "Miền Bắc",
    "full_name": "Huyện Bắc Sơn, Tỉnh Lạng Sơn, Miền Bắc"
  },
  {
    "code": "186",
    "name": "Huyện Hữu Lũng",
    "unit": "Huyện",
    "province_code": "20",
    "province_name": "Tỉnh Lạng Sơn",
    "area_code": "01",
    "area_name": "Miền Bắc",
    "full_name": "Huyện Hữu Lũng, Tỉnh Lạng Sơn, Miền Bắc"
  },
  {
    "code": "187",
    "name": "Huyện Chi Lăng",
    "unit": "Huyện",
    "province_code": "20",
    "province_name": "Tỉnh Lạng Sơn",
    "area_code": "01",
    "area_name": "Miền Bắc",
    "full_name": "Huyện Chi Lăng, Tỉnh Lạng Sơn, Miền Bắc"
  },
  {
    "code": "188",
    "name": "Huyện Lộc Bình",
    "unit": "Huyện",
    "province_code": "20",
    "province_name": "Tỉnh Lạng Sơn",
    "area_code": "01",
    "area_name": "Miền Bắc",
    "full_name": "Huyện Lộc Bình, Tỉnh Lạng Sơn, Miền Bắc"
  },
  {
    "code": "189",
    "name": "Huyện Đình Lập",
    "unit": "Huyện",
    "province_code": "20",
    "province_name": "Tỉnh Lạng Sơn",
    "area_code": "01",
    "area_name": "Miền Bắc",
    "full_name": "Huyện Đình Lập, Tỉnh Lạng Sơn, Miền Bắc"
  },
  {
    "code": "193",
    "name": "Thành phố Hạ Long",
    "unit": "Thành phố",
    "province_code": "22",
    "province_name": "Tỉnh Quảng Ninh",
    "area_code": "01",
    "area_name": "Miền Bắc",
    "full_name": "Thành phố Hạ Long, Tỉnh Quảng Ninh, Miền Bắc"
  },
  {
    "code": "194",
    "name": "Thành phố Móng Cái",
    "unit": "Thành phố",
    "province_code": "22",
    "province_name": "Tỉnh Quảng Ninh",
    "area_code": "01",
    "area_name": "Miền Bắc",
    "full_name": "Thành phố Móng Cái, Tỉnh Quảng Ninh, Miền Bắc"
  },
  {
    "code": "195",
    "name": "Thành phố Cẩm Phả",
    "unit": "Thành phố",
    "province_code": "22",
    "province_name": "Tỉnh Quảng Ninh",
    "area_code": "01",
    "area_name": "Miền Bắc",
    "full_name": "Thành phố Cẩm Phả, Tỉnh Quảng Ninh, Miền Bắc"
  },
  {
    "code": "196",
    "name": "Thành phố Uông Bí",
    "unit": "Thành phố",
    "province_code": "22",
    "province_name": "Tỉnh Quảng Ninh",
    "area_code": "01",
    "area_name": "Miền Bắc",
    "full_name": "Thành phố Uông Bí, Tỉnh Quảng Ninh, Miền Bắc"
  },
  {
    "code": "198",
    "name": "Huyện Bình Liêu",
    "unit": "Huyện",
    "province_code": "22",
    "province_name": "Tỉnh Quảng Ninh",
    "area_code": "01",
    "area_name": "Miền Bắc",
    "full_name": "Huyện Bình Liêu, Tỉnh Quảng Ninh, Miền Bắc"
  },
  {
    "code": "199",
    "name": "Huyện Tiên Yên",
    "unit": "Huyện",
    "province_code": "22",
    "province_name": "Tỉnh Quảng Ninh",
    "area_code": "01",
    "area_name": "Miền Bắc",
    "full_name": "Huyện Tiên Yên, Tỉnh Quảng Ninh, Miền Bắc"
  },
  {
    "code": "200",
    "name": "Huyện Đầm Hà",
    "unit": "Huyện",
    "province_code": "22",
    "province_name": "Tỉnh Quảng Ninh",
    "area_code": "01",
    "area_name": "Miền Bắc",
    "full_name": "Huyện Đầm Hà, Tỉnh Quảng Ninh, Miền Bắc"
  },
  {
    "code": "201",
    "name": "Huyện Hải Hà",
    "unit": "Huyện",
    "province_code": "22",
    "province_name": "Tỉnh Quảng Ninh",
    "area_code": "01",
    "area_name": "Miền Bắc",
    "full_name": "Huyện Hải Hà, Tỉnh Quảng Ninh, Miền Bắc"
  },
  {
    "code": "202",
    "name": "Huyện Ba Chẽ",
    "unit": "Huyện",
    "province_code": "22",
    "province_name": "Tỉnh Quảng Ninh",
    "area_code": "01",
    "area_name": "Miền Bắc",
    "full_name": "Huyện Ba Chẽ, Tỉnh Quảng Ninh, Miền Bắc"
  },
  {
    "code": "203",
    "name": "Huyện Vân Đồn",
    "unit": "Huyện",
    "province_code": "22",
    "province_name": "Tỉnh Quảng Ninh",
    "area_code": "01",
    "area_name": "Miền Bắc",
    "full_name": "Huyện Vân Đồn, Tỉnh Quảng Ninh, Miền Bắc"
  },
  {
    "code": "204",
    "name": "Huyện Hoành Bồ",
    "unit": "Huyện",
    "province_code": "22",
    "province_name": "Tỉnh Quảng Ninh",
    "area_code": "01",
    "area_name": "Miền Bắc",
    "full_name": "Huyện Hoành Bồ, Tỉnh Quảng Ninh, Miền Bắc"
  },
  {
    "code": "205",
    "name": "Thị xã Đông Triều",
    "unit": "Thị xã",
    "province_code": "22",
    "province_name": "Tỉnh Quảng Ninh",
    "area_code": "01",
    "area_name": "Miền Bắc",
    "full_name": "Thị xã Đông Triều, Tỉnh Quảng Ninh, Miền Bắc"
  },
  {
    "code": "206",
    "name": "Thị xã Quảng Yên",
    "unit": "Thị xã",
    "province_code": "22",
    "province_name": "Tỉnh Quảng Ninh",
    "area_code": "01",
    "area_name": "Miền Bắc",
    "full_name": "Thị xã Quảng Yên, Tỉnh Quảng Ninh, Miền Bắc"
  },
  {
    "code": "207",
    "name": "Huyện Cô Tô",
    "unit": "Huyện",
    "province_code": "22",
    "province_name": "Tỉnh Quảng Ninh",
    "area_code": "01",
    "area_name": "Miền Bắc",
    "full_name": "Huyện Cô Tô, Tỉnh Quảng Ninh, Miền Bắc"
  },
  {
    "code": "213",
    "name": "Thành phố Bắc Giang",
    "unit": "Thành phố",
    "province_code": "24",
    "province_name": "Tỉnh Bắc Giang",
    "area_code": "01",
    "area_name": "Miền Bắc",
    "full_name": "Thành phố Bắc Giang, Tỉnh Bắc Giang, Miền Bắc"
  },
  {
    "code": "215",
    "name": "Huyện Yên Thế",
    "unit": "Huyện",
    "province_code": "24",
    "province_name": "Tỉnh Bắc Giang",
    "area_code": "01",
    "area_name": "Miền Bắc",
    "full_name": "Huyện Yên Thế, Tỉnh Bắc Giang, Miền Bắc"
  },
  {
    "code": "216",
    "name": "Huyện Tân Yên",
    "unit": "Huyện",
    "province_code": "24",
    "province_name": "Tỉnh Bắc Giang",
    "area_code": "01",
    "area_name": "Miền Bắc",
    "full_name": "Huyện Tân Yên, Tỉnh Bắc Giang, Miền Bắc"
  },
  {
    "code": "217",
    "name": "Huyện Lạng Giang",
    "unit": "Huyện",
    "province_code": "24",
    "province_name": "Tỉnh Bắc Giang",
    "area_code": "01",
    "area_name": "Miền Bắc",
    "full_name": "Huyện Lạng Giang, Tỉnh Bắc Giang, Miền Bắc"
  },
  {
    "code": "218",
    "name": "Huyện Lục Nam",
    "unit": "Huyện",
    "province_code": "24",
    "province_name": "Tỉnh Bắc Giang",
    "area_code": "01",
    "area_name": "Miền Bắc",
    "full_name": "Huyện Lục Nam, Tỉnh Bắc Giang, Miền Bắc"
  },
  {
    "code": "219",
    "name": "Huyện Lục Ngạn",
    "unit": "Huyện",
    "province_code": "24",
    "province_name": "Tỉnh Bắc Giang",
    "area_code": "01",
    "area_name": "Miền Bắc",
    "full_name": "Huyện Lục Ngạn, Tỉnh Bắc Giang, Miền Bắc"
  },
  {
    "code": "220",
    "name": "Huyện Sơn Động",
    "unit": "Huyện",
    "province_code": "24",
    "province_name": "Tỉnh Bắc Giang",
    "area_code": "01",
    "area_name": "Miền Bắc",
    "full_name": "Huyện Sơn Động, Tỉnh Bắc Giang, Miền Bắc"
  },
  {
    "code": "221",
    "name": "Huyện Yên Dũng",
    "unit": "Huyện",
    "province_code": "24",
    "province_name": "Tỉnh Bắc Giang",
    "area_code": "01",
    "area_name": "Miền Bắc",
    "full_name": "Huyện Yên Dũng, Tỉnh Bắc Giang, Miền Bắc"
  },
  {
    "code": "222",
    "name": "Huyện Việt Yên",
    "unit": "Huyện",
    "province_code": "24",
    "province_name": "Tỉnh Bắc Giang",
    "area_code": "01",
    "area_name": "Miền Bắc",
    "full_name": "Huyện Việt Yên, Tỉnh Bắc Giang, Miền Bắc"
  },
  {
    "code": "223",
    "name": "Huyện Hiệp Hòa",
    "unit": "Huyện",
    "province_code": "24",
    "province_name": "Tỉnh Bắc Giang",
    "area_code": "01",
    "area_name": "Miền Bắc",
    "full_name": "Huyện Hiệp Hòa, Tỉnh Bắc Giang, Miền Bắc"
  },
  {
    "code": "227",
    "name": "Thành phố Việt Trì",
    "unit": "Thành phố",
    "province_code": "25",
    "province_name": "Tỉnh Phú Thọ",
    "area_code": "01",
    "area_name": "Miền Bắc",
    "full_name": "Thành phố Việt Trì, Tỉnh Phú Thọ, Miền Bắc"
  },
  {
    "code": "228",
    "name": "Thị xã Phú Thọ",
    "unit": "Thị xã",
    "province_code": "25",
    "province_name": "Tỉnh Phú Thọ",
    "area_code": "01",
    "area_name": "Miền Bắc",
    "full_name": "Thị xã Phú Thọ, Tỉnh Phú Thọ, Miền Bắc"
  },
  {
    "code": "230",
    "name": "Huyện Đoan Hùng",
    "unit": "Huyện",
    "province_code": "25",
    "province_name": "Tỉnh Phú Thọ",
    "area_code": "01",
    "area_name": "Miền Bắc",
    "full_name": "Huyện Đoan Hùng, Tỉnh Phú Thọ, Miền Bắc"
  },
  {
    "code": "231",
    "name": "Huyện Hạ Hoà",
    "unit": "Huyện",
    "province_code": "25",
    "province_name": "Tỉnh Phú Thọ",
    "area_code": "01",
    "area_name": "Miền Bắc",
    "full_name": "Huyện Hạ Hoà, Tỉnh Phú Thọ, Miền Bắc"
  },
  {
    "code": "232",
    "name": "Huyện Thanh Ba",
    "unit": "Huyện",
    "province_code": "25",
    "province_name": "Tỉnh Phú Thọ",
    "area_code": "01",
    "area_name": "Miền Bắc",
    "full_name": "Huyện Thanh Ba, Tỉnh Phú Thọ, Miền Bắc"
  },
  {
    "code": "233",
    "name": "Huyện Phù Ninh",
    "unit": "Huyện",
    "province_code": "25",
    "province_name": "Tỉnh Phú Thọ",
    "area_code": "01",
    "area_name": "Miền Bắc",
    "full_name": "Huyện Phù Ninh, Tỉnh Phú Thọ, Miền Bắc"
  },
  {
    "code": "234",
    "name": "Huyện Yên Lập",
    "unit": "Huyện",
    "province_code": "25",
    "province_name": "Tỉnh Phú Thọ",
    "area_code": "01",
    "area_name": "Miền Bắc",
    "full_name": "Huyện Yên Lập, Tỉnh Phú Thọ, Miền Bắc"
  },
  {
    "code": "235",
    "name": "Huyện Cẩm Khê",
    "unit": "Huyện",
    "province_code": "25",
    "province_name": "Tỉnh Phú Thọ",
    "area_code": "01",
    "area_name": "Miền Bắc",
    "full_name": "Huyện Cẩm Khê, Tỉnh Phú Thọ, Miền Bắc"
  },
  {
    "code": "236",
    "name": "Huyện Tam Nông",
    "unit": "Huyện",
    "province_code": "25",
    "province_name": "Tỉnh Phú Thọ",
    "area_code": "01",
    "area_name": "Miền Bắc",
    "full_name": "Huyện Tam Nông, Tỉnh Phú Thọ, Miền Bắc"
  },
  {
    "code": "237",
    "name": "Huyện Lâm Thao",
    "unit": "Huyện",
    "province_code": "25",
    "province_name": "Tỉnh Phú Thọ",
    "area_code": "01",
    "area_name": "Miền Bắc",
    "full_name": "Huyện Lâm Thao, Tỉnh Phú Thọ, Miền Bắc"
  },
  {
    "code": "238",
    "name": "Huyện Thanh Sơn",
    "unit": "Huyện",
    "province_code": "25",
    "province_name": "Tỉnh Phú Thọ",
    "area_code": "01",
    "area_name": "Miền Bắc",
    "full_name": "Huyện Thanh Sơn, Tỉnh Phú Thọ, Miền Bắc"
  },
  {
    "code": "239",
    "name": "Huyện Thanh Thuỷ",
    "unit": "Huyện",
    "province_code": "25",
    "province_name": "Tỉnh Phú Thọ",
    "area_code": "01",
    "area_name": "Miền Bắc",
    "full_name": "Huyện Thanh Thuỷ, Tỉnh Phú Thọ, Miền Bắc"
  },
  {
    "code": "240",
    "name": "Huyện Tân Sơn",
    "unit": "Huyện",
    "province_code": "25",
    "province_name": "Tỉnh Phú Thọ",
    "area_code": "01",
    "area_name": "Miền Bắc",
    "full_name": "Huyện Tân Sơn, Tỉnh Phú Thọ, Miền Bắc"
  },
  {
    "code": "243",
    "name": "Thành phố Vĩnh Yên",
    "unit": "Thành phố",
    "province_code": "26",
    "province_name": "Tỉnh Vĩnh Phúc",
    "area_code": "01",
    "area_name": "Miền Bắc",
    "full_name": "Thành phố Vĩnh Yên, Tỉnh Vĩnh Phúc, Miền Bắc"
  },
  {
    "code": "244",
    "name": "Thành phố Phúc Yên",
    "unit": "Thành phố",
    "province_code": "26",
    "province_name": "Tỉnh Vĩnh Phúc",
    "area_code": "01",
    "area_name": "Miền Bắc",
    "full_name": "Thành phố Phúc Yên, Tỉnh Vĩnh Phúc, Miền Bắc"
  },
  {
    "code": "246",
    "name": "Huyện Lập Thạch",
    "unit": "Huyện",
    "province_code": "26",
    "province_name": "Tỉnh Vĩnh Phúc",
    "area_code": "01",
    "area_name": "Miền Bắc",
    "full_name": "Huyện Lập Thạch, Tỉnh Vĩnh Phúc, Miền Bắc"
  },
  {
    "code": "247",
    "name": "Huyện Tam Dương",
    "unit": "Huyện",
    "province_code": "26",
    "province_name": "Tỉnh Vĩnh Phúc",
    "area_code": "01",
    "area_name": "Miền Bắc",
    "full_name": "Huyện Tam Dương, Tỉnh Vĩnh Phúc, Miền Bắc"
  },
  {
    "code": "248",
    "name": "Huyện Tam Đảo",
    "unit": "Huyện",
    "province_code": "26",
    "province_name": "Tỉnh Vĩnh Phúc",
    "area_code": "01",
    "area_name": "Miền Bắc",
    "full_name": "Huyện Tam Đảo, Tỉnh Vĩnh Phúc, Miền Bắc"
  },
  {
    "code": "249",
    "name": "Huyện Bình Xuyên",
    "unit": "Huyện",
    "province_code": "26",
    "province_name": "Tỉnh Vĩnh Phúc",
    "area_code": "01",
    "area_name": "Miền Bắc",
    "full_name": "Huyện Bình Xuyên, Tỉnh Vĩnh Phúc, Miền Bắc"
  },
  {
    "code": "251",
    "name": "Huyện Yên Lạc",
    "unit": "Huyện",
    "province_code": "26",
    "province_name": "Tỉnh Vĩnh Phúc",
    "area_code": "01",
    "area_name": "Miền Bắc",
    "full_name": "Huyện Yên Lạc, Tỉnh Vĩnh Phúc, Miền Bắc"
  },
  {
    "code": "252",
    "name": "Huyện Vĩnh Tường",
    "unit": "Huyện",
    "province_code": "26",
    "province_name": "Tỉnh Vĩnh Phúc",
    "area_code": "01",
    "area_name": "Miền Bắc",
    "full_name": "Huyện Vĩnh Tường, Tỉnh Vĩnh Phúc, Miền Bắc"
  },
  {
    "code": "253",
    "name": "Huyện Sông Lô",
    "unit": "Huyện",
    "province_code": "26",
    "province_name": "Tỉnh Vĩnh Phúc",
    "area_code": "01",
    "area_name": "Miền Bắc",
    "full_name": "Huyện Sông Lô, Tỉnh Vĩnh Phúc, Miền Bắc"
  },
  {
    "code": "256",
    "name": "Thành phố Bắc Ninh",
    "unit": "Thành phố",
    "province_code": "27",
    "province_name": "Tỉnh Bắc Ninh",
    "area_code": "01",
    "area_name": "Miền Bắc",
    "full_name": "Thành phố Bắc Ninh, Tỉnh Bắc Ninh, Miền Bắc"
  },
  {
    "code": "258",
    "name": "Huyện Yên Phong",
    "unit": "Huyện",
    "province_code": "27",
    "province_name": "Tỉnh Bắc Ninh",
    "area_code": "01",
    "area_name": "Miền Bắc",
    "full_name": "Huyện Yên Phong, Tỉnh Bắc Ninh, Miền Bắc"
  },
  {
    "code": "259",
    "name": "Huyện Quế Võ",
    "unit": "Huyện",
    "province_code": "27",
    "province_name": "Tỉnh Bắc Ninh",
    "area_code": "01",
    "area_name": "Miền Bắc",
    "full_name": "Huyện Quế Võ, Tỉnh Bắc Ninh, Miền Bắc"
  },
  {
    "code": "260",
    "name": "Huyện Tiên Du",
    "unit": "Huyện",
    "province_code": "27",
    "province_name": "Tỉnh Bắc Ninh",
    "area_code": "01",
    "area_name": "Miền Bắc",
    "full_name": "Huyện Tiên Du, Tỉnh Bắc Ninh, Miền Bắc"
  },
  {
    "code": "261",
    "name": "Thị xã Từ Sơn",
    "unit": "Thị xã",
    "province_code": "27",
    "province_name": "Tỉnh Bắc Ninh",
    "area_code": "01",
    "area_name": "Miền Bắc",
    "full_name": "Thị xã Từ Sơn, Tỉnh Bắc Ninh, Miền Bắc"
  },
  {
    "code": "262",
    "name": "Huyện Thuận Thành",
    "unit": "Huyện",
    "province_code": "27",
    "province_name": "Tỉnh Bắc Ninh",
    "area_code": "01",
    "area_name": "Miền Bắc",
    "full_name": "Huyện Thuận Thành, Tỉnh Bắc Ninh, Miền Bắc"
  },
  {
    "code": "263",
    "name": "Huyện Gia Bình",
    "unit": "Huyện",
    "province_code": "27",
    "province_name": "Tỉnh Bắc Ninh",
    "area_code": "01",
    "area_name": "Miền Bắc",
    "full_name": "Huyện Gia Bình, Tỉnh Bắc Ninh, Miền Bắc"
  },
  {
    "code": "264",
    "name": "Huyện Lương Tài",
    "unit": "Huyện",
    "province_code": "27",
    "province_name": "Tỉnh Bắc Ninh",
    "area_code": "01",
    "area_name": "Miền Bắc",
    "full_name": "Huyện Lương Tài, Tỉnh Bắc Ninh, Miền Bắc"
  },
  {
    "code": "288",
    "name": "Thành phố Hải Dương",
    "unit": "Thành phố",
    "province_code": "30",
    "province_name": "Tỉnh Hải Dương",
    "area_code": "01",
    "area_name": "Miền Bắc",
    "full_name": "Thành phố Hải Dương, Tỉnh Hải Dương, Miền Bắc"
  },
  {
    "code": "290",
    "name": "Thành phố Chí Linh",
    "unit": "Thành phố",
    "province_code": "30",
    "province_name": "Tỉnh Hải Dương",
    "area_code": "01",
    "area_name": "Miền Bắc",
    "full_name": "Thành phố Chí Linh, Tỉnh Hải Dương, Miền Bắc"
  },
  {
    "code": "291",
    "name": "Huyện Nam Sách",
    "unit": "Huyện",
    "province_code": "30",
    "province_name": "Tỉnh Hải Dương",
    "area_code": "01",
    "area_name": "Miền Bắc",
    "full_name": "Huyện Nam Sách, Tỉnh Hải Dương, Miền Bắc"
  },
  {
    "code": "292",
    "name": "Huyện Kinh Môn",
    "unit": "Huyện",
    "province_code": "30",
    "province_name": "Tỉnh Hải Dương",
    "area_code": "01",
    "area_name": "Miền Bắc",
    "full_name": "Huyện Kinh Môn, Tỉnh Hải Dương, Miền Bắc"
  },
  {
    "code": "293",
    "name": "Huyện Kim Thành",
    "unit": "Huyện",
    "province_code": "30",
    "province_name": "Tỉnh Hải Dương",
    "area_code": "01",
    "area_name": "Miền Bắc",
    "full_name": "Huyện Kim Thành, Tỉnh Hải Dương, Miền Bắc"
  },
  {
    "code": "294",
    "name": "Huyện Thanh Hà",
    "unit": "Huyện",
    "province_code": "30",
    "province_name": "Tỉnh Hải Dương",
    "area_code": "01",
    "area_name": "Miền Bắc",
    "full_name": "Huyện Thanh Hà, Tỉnh Hải Dương, Miền Bắc"
  },
  {
    "code": "295",
    "name": "Huyện Cẩm Giàng",
    "unit": "Huyện",
    "province_code": "30",
    "province_name": "Tỉnh Hải Dương",
    "area_code": "01",
    "area_name": "Miền Bắc",
    "full_name": "Huyện Cẩm Giàng, Tỉnh Hải Dương, Miền Bắc"
  },
  {
    "code": "296",
    "name": "Huyện Bình Giang",
    "unit": "Huyện",
    "province_code": "30",
    "province_name": "Tỉnh Hải Dương",
    "area_code": "01",
    "area_name": "Miền Bắc",
    "full_name": "Huyện Bình Giang, Tỉnh Hải Dương, Miền Bắc"
  },
  {
    "code": "297",
    "name": "Huyện Gia Lộc",
    "unit": "Huyện",
    "province_code": "30",
    "province_name": "Tỉnh Hải Dương",
    "area_code": "01",
    "area_name": "Miền Bắc",
    "full_name": "Huyện Gia Lộc, Tỉnh Hải Dương, Miền Bắc"
  },
  {
    "code": "298",
    "name": "Huyện Tứ Kỳ",
    "unit": "Huyện",
    "province_code": "30",
    "province_name": "Tỉnh Hải Dương",
    "area_code": "01",
    "area_name": "Miền Bắc",
    "full_name": "Huyện Tứ Kỳ, Tỉnh Hải Dương, Miền Bắc"
  },
  {
    "code": "299",
    "name": "Huyện Ninh Giang",
    "unit": "Huyện",
    "province_code": "30",
    "province_name": "Tỉnh Hải Dương",
    "area_code": "01",
    "area_name": "Miền Bắc",
    "full_name": "Huyện Ninh Giang, Tỉnh Hải Dương, Miền Bắc"
  },
  {
    "code": "300",
    "name": "Huyện Thanh Miện",
    "unit": "Huyện",
    "province_code": "30",
    "province_name": "Tỉnh Hải Dương",
    "area_code": "01",
    "area_name": "Miền Bắc",
    "full_name": "Huyện Thanh Miện, Tỉnh Hải Dương, Miền Bắc"
  },
  {
    "code": "303",
    "name": "Quận Hồng Bàng",
    "unit": "Quận",
    "province_code": "31",
    "province_name": "Thành phố Hải Phòng",
    "area_code": "01",
    "area_name": "Miền Bắc",
    "full_name": "Quận Hồng Bàng, Thành phố Hải Phòng, Miền Bắc"
  },
  {
    "code": "304",
    "name": "Quận Ngô Quyền",
    "unit": "Quận",
    "province_code": "31",
    "province_name": "Thành phố Hải Phòng",
    "area_code": "01",
    "area_name": "Miền Bắc",
    "full_name": "Quận Ngô Quyền, Thành phố Hải Phòng, Miền Bắc"
  },
  {
    "code": "305",
    "name": "Quận Lê Chân",
    "unit": "Quận",
    "province_code": "31",
    "province_name": "Thành phố Hải Phòng",
    "area_code": "01",
    "area_name": "Miền Bắc",
    "full_name": "Quận Lê Chân, Thành phố Hải Phòng, Miền Bắc"
  },
  {
    "code": "306",
    "name": "Quận Hải An",
    "unit": "Quận",
    "province_code": "31",
    "province_name": "Thành phố Hải Phòng",
    "area_code": "01",
    "area_name": "Miền Bắc",
    "full_name": "Quận Hải An, Thành phố Hải Phòng, Miền Bắc"
  },
  {
    "code": "307",
    "name": "Quận Kiến An",
    "unit": "Quận",
    "province_code": "31",
    "province_name": "Thành phố Hải Phòng",
    "area_code": "01",
    "area_name": "Miền Bắc",
    "full_name": "Quận Kiến An, Thành phố Hải Phòng, Miền Bắc"
  },
  {
    "code": "308",
    "name": "Quận Đồ Sơn",
    "unit": "Quận",
    "province_code": "31",
    "province_name": "Thành phố Hải Phòng",
    "area_code": "01",
    "area_name": "Miền Bắc",
    "full_name": "Quận Đồ Sơn, Thành phố Hải Phòng, Miền Bắc"
  },
  {
    "code": "309",
    "name": "Quận Dương Kinh",
    "unit": "Quận",
    "province_code": "31",
    "province_name": "Thành phố Hải Phòng",
    "area_code": "01",
    "area_name": "Miền Bắc",
    "full_name": "Quận Dương Kinh, Thành phố Hải Phòng, Miền Bắc"
  },
  {
    "code": "311",
    "name": "Huyện Thuỷ Nguyên",
    "unit": "Huyện",
    "province_code": "31",
    "province_name": "Thành phố Hải Phòng",
    "area_code": "01",
    "area_name": "Miền Bắc",
    "full_name": "Huyện Thuỷ Nguyên, Thành phố Hải Phòng, Miền Bắc"
  },
  {
    "code": "312",
    "name": "Huyện An Dương",
    "unit": "Huyện",
    "province_code": "31",
    "province_name": "Thành phố Hải Phòng",
    "area_code": "01",
    "area_name": "Miền Bắc",
    "full_name": "Huyện An Dương, Thành phố Hải Phòng, Miền Bắc"
  },
  {
    "code": "313",
    "name": "Huyện An Lão",
    "unit": "Huyện",
    "province_code": "31",
    "province_name": "Thành phố Hải Phòng",
    "area_code": "01",
    "area_name": "Miền Bắc",
    "full_name": "Huyện An Lão, Thành phố Hải Phòng, Miền Bắc"
  },
  {
    "code": "314",
    "name": "Huyện Kiến Thuỵ",
    "unit": "Huyện",
    "province_code": "31",
    "province_name": "Thành phố Hải Phòng",
    "area_code": "01",
    "area_name": "Miền Bắc",
    "full_name": "Huyện Kiến Thuỵ, Thành phố Hải Phòng, Miền Bắc"
  },
  {
    "code": "315",
    "name": "Huyện Tiên Lãng",
    "unit": "Huyện",
    "province_code": "31",
    "province_name": "Thành phố Hải Phòng",
    "area_code": "01",
    "area_name": "Miền Bắc",
    "full_name": "Huyện Tiên Lãng, Thành phố Hải Phòng, Miền Bắc"
  },
  {
    "code": "316",
    "name": "Huyện Vĩnh Bảo",
    "unit": "Huyện",
    "province_code": "31",
    "province_name": "Thành phố Hải Phòng",
    "area_code": "01",
    "area_name": "Miền Bắc",
    "full_name": "Huyện Vĩnh Bảo, Thành phố Hải Phòng, Miền Bắc"
  },
  {
    "code": "317",
    "name": "Huyện Cát Hải",
    "unit": "Huyện",
    "province_code": "31",
    "province_name": "Thành phố Hải Phòng",
    "area_code": "01",
    "area_name": "Miền Bắc",
    "full_name": "Huyện Cát Hải, Thành phố Hải Phòng, Miền Bắc"
  },
  {
    "code": "318",
    "name": "Huyện Bạch Long Vĩ",
    "unit": "Huyện",
    "province_code": "31",
    "province_name": "Thành phố Hải Phòng",
    "area_code": "01",
    "area_name": "Miền Bắc",
    "full_name": "Huyện Bạch Long Vĩ, Thành phố Hải Phòng, Miền Bắc"
  },
  {
    "code": "323",
    "name": "Thành phố Hưng Yên",
    "unit": "Thành phố",
    "province_code": "33",
    "province_name": "Tỉnh Hưng Yên",
    "area_code": "01",
    "area_name": "Miền Bắc",
    "full_name": "Thành phố Hưng Yên, Tỉnh Hưng Yên, Miền Bắc"
  },
  {
    "code": "325",
    "name": "Huyện Văn Lâm",
    "unit": "Huyện",
    "province_code": "33",
    "province_name": "Tỉnh Hưng Yên",
    "area_code": "01",
    "area_name": "Miền Bắc",
    "full_name": "Huyện Văn Lâm, Tỉnh Hưng Yên, Miền Bắc"
  },
  {
    "code": "326",
    "name": "Huyện Văn Giang",
    "unit": "Huyện",
    "province_code": "33",
    "province_name": "Tỉnh Hưng Yên",
    "area_code": "01",
    "area_name": "Miền Bắc",
    "full_name": "Huyện Văn Giang, Tỉnh Hưng Yên, Miền Bắc"
  },
  {
    "code": "327",
    "name": "Huyện Yên Mỹ",
    "unit": "Huyện",
    "province_code": "33",
    "province_name": "Tỉnh Hưng Yên",
    "area_code": "01",
    "area_name": "Miền Bắc",
    "full_name": "Huyện Yên Mỹ, Tỉnh Hưng Yên, Miền Bắc"
  },
  {
    "code": "328",
    "name": "Thị xã Mỹ Hào",
    "unit": "Thị xã",
    "province_code": "33",
    "province_name": "Tỉnh Hưng Yên",
    "area_code": "01",
    "area_name": "Miền Bắc",
    "full_name": "Thị xã Mỹ Hào, Tỉnh Hưng Yên, Miền Bắc"
  },
  {
    "code": "329",
    "name": "Huyện Ân Thi",
    "unit": "Huyện",
    "province_code": "33",
    "province_name": "Tỉnh Hưng Yên",
    "area_code": "01",
    "area_name": "Miền Bắc",
    "full_name": "Huyện Ân Thi, Tỉnh Hưng Yên, Miền Bắc"
  },
  {
    "code": "330",
    "name": "Huyện Khoái Châu",
    "unit": "Huyện",
    "province_code": "33",
    "province_name": "Tỉnh Hưng Yên",
    "area_code": "01",
    "area_name": "Miền Bắc",
    "full_name": "Huyện Khoái Châu, Tỉnh Hưng Yên, Miền Bắc"
  },
  {
    "code": "331",
    "name": "Huyện Kim Động",
    "unit": "Huyện",
    "province_code": "33",
    "province_name": "Tỉnh Hưng Yên",
    "area_code": "01",
    "area_name": "Miền Bắc",
    "full_name": "Huyện Kim Động, Tỉnh Hưng Yên, Miền Bắc"
  },
  {
    "code": "332",
    "name": "Huyện Tiên Lữ",
    "unit": "Huyện",
    "province_code": "33",
    "province_name": "Tỉnh Hưng Yên",
    "area_code": "01",
    "area_name": "Miền Bắc",
    "full_name": "Huyện Tiên Lữ, Tỉnh Hưng Yên, Miền Bắc"
  },
  {
    "code": "333",
    "name": "Huyện Phù Cừ",
    "unit": "Huyện",
    "province_code": "33",
    "province_name": "Tỉnh Hưng Yên",
    "area_code": "01",
    "area_name": "Miền Bắc",
    "full_name": "Huyện Phù Cừ, Tỉnh Hưng Yên, Miền Bắc"
  },
  {
    "code": "336",
    "name": "Thành phố Thái Bình",
    "unit": "Thành phố",
    "province_code": "34",
    "province_name": "Tỉnh Thái Bình",
    "area_code": "01",
    "area_name": "Miền Bắc",
    "full_name": "Thành phố Thái Bình, Tỉnh Thái Bình, Miền Bắc"
  },
  {
    "code": "338",
    "name": "Huyện Quỳnh Phụ",
    "unit": "Huyện",
    "province_code": "34",
    "province_name": "Tỉnh Thái Bình",
    "area_code": "01",
    "area_name": "Miền Bắc",
    "full_name": "Huyện Quỳnh Phụ, Tỉnh Thái Bình, Miền Bắc"
  },
  {
    "code": "339",
    "name": "Huyện Hưng Hà",
    "unit": "Huyện",
    "province_code": "34",
    "province_name": "Tỉnh Thái Bình",
    "area_code": "01",
    "area_name": "Miền Bắc",
    "full_name": "Huyện Hưng Hà, Tỉnh Thái Bình, Miền Bắc"
  },
  {
    "code": "340",
    "name": "Huyện Đông Hưng",
    "unit": "Huyện",
    "province_code": "34",
    "province_name": "Tỉnh Thái Bình",
    "area_code": "01",
    "area_name": "Miền Bắc",
    "full_name": "Huyện Đông Hưng, Tỉnh Thái Bình, Miền Bắc"
  },
  {
    "code": "341",
    "name": "Huyện Thái Thụy",
    "unit": "Huyện",
    "province_code": "34",
    "province_name": "Tỉnh Thái Bình",
    "area_code": "01",
    "area_name": "Miền Bắc",
    "full_name": "Huyện Thái Thụy, Tỉnh Thái Bình, Miền Bắc"
  },
  {
    "code": "342",
    "name": "Huyện Tiền Hải",
    "unit": "Huyện",
    "province_code": "34",
    "province_name": "Tỉnh Thái Bình",
    "area_code": "01",
    "area_name": "Miền Bắc",
    "full_name": "Huyện Tiền Hải, Tỉnh Thái Bình, Miền Bắc"
  },
  {
    "code": "343",
    "name": "Huyện Kiến Xương",
    "unit": "Huyện",
    "province_code": "34",
    "province_name": "Tỉnh Thái Bình",
    "area_code": "01",
    "area_name": "Miền Bắc",
    "full_name": "Huyện Kiến Xương, Tỉnh Thái Bình, Miền Bắc"
  },
  {
    "code": "344",
    "name": "Huyện Vũ Thư",
    "unit": "Huyện",
    "province_code": "34",
    "province_name": "Tỉnh Thái Bình",
    "area_code": "01",
    "area_name": "Miền Bắc",
    "full_name": "Huyện Vũ Thư, Tỉnh Thái Bình, Miền Bắc"
  },
  {
    "code": "347",
    "name": "Thành phố Phủ Lý",
    "unit": "Thành phố",
    "province_code": "35",
    "province_name": "Tỉnh Hà Nam",
    "area_code": "01",
    "area_name": "Miền Bắc",
    "full_name": "Thành phố Phủ Lý, Tỉnh Hà Nam, Miền Bắc"
  },
  {
    "code": "349",
    "name": "Huyện Duy Tiên",
    "unit": "Huyện",
    "province_code": "35",
    "province_name": "Tỉnh Hà Nam",
    "area_code": "01",
    "area_name": "Miền Bắc",
    "full_name": "Huyện Duy Tiên, Tỉnh Hà Nam, Miền Bắc"
  },
  {
    "code": "350",
    "name": "Huyện Kim Bảng",
    "unit": "Huyện",
    "province_code": "35",
    "province_name": "Tỉnh Hà Nam",
    "area_code": "01",
    "area_name": "Miền Bắc",
    "full_name": "Huyện Kim Bảng, Tỉnh Hà Nam, Miền Bắc"
  },
  {
    "code": "351",
    "name": "Huyện Thanh Liêm",
    "unit": "Huyện",
    "province_code": "35",
    "province_name": "Tỉnh Hà Nam",
    "area_code": "01",
    "area_name": "Miền Bắc",
    "full_name": "Huyện Thanh Liêm, Tỉnh Hà Nam, Miền Bắc"
  },
  {
    "code": "352",
    "name": "Huyện Bình Lục",
    "unit": "Huyện",
    "province_code": "35",
    "province_name": "Tỉnh Hà Nam",
    "area_code": "01",
    "area_name": "Miền Bắc",
    "full_name": "Huyện Bình Lục, Tỉnh Hà Nam, Miền Bắc"
  },
  {
    "code": "353",
    "name": "Huyện Lý Nhân",
    "unit": "Huyện",
    "province_code": "35",
    "province_name": "Tỉnh Hà Nam",
    "area_code": "01",
    "area_name": "Miền Bắc",
    "full_name": "Huyện Lý Nhân, Tỉnh Hà Nam, Miền Bắc"
  },
  {
    "code": "356",
    "name": "Thành phố Nam Định",
    "unit": "Thành phố",
    "province_code": "36",
    "province_name": "Tỉnh Nam Định",
    "area_code": "01",
    "area_name": "Miền Bắc",
    "full_name": "Thành phố Nam Định, Tỉnh Nam Định, Miền Bắc"
  },
  {
    "code": "358",
    "name": "Huyện Mỹ Lộc",
    "unit": "Huyện",
    "province_code": "36",
    "province_name": "Tỉnh Nam Định",
    "area_code": "01",
    "area_name": "Miền Bắc",
    "full_name": "Huyện Mỹ Lộc, Tỉnh Nam Định, Miền Bắc"
  },
  {
    "code": "359",
    "name": "Huyện Vụ Bản",
    "unit": "Huyện",
    "province_code": "36",
    "province_name": "Tỉnh Nam Định",
    "area_code": "01",
    "area_name": "Miền Bắc",
    "full_name": "Huyện Vụ Bản, Tỉnh Nam Định, Miền Bắc"
  },
  {
    "code": "360",
    "name": "Huyện Ý Yên",
    "unit": "Huyện",
    "province_code": "36",
    "province_name": "Tỉnh Nam Định",
    "area_code": "01",
    "area_name": "Miền Bắc",
    "full_name": "Huyện Ý Yên, Tỉnh Nam Định, Miền Bắc"
  },
  {
    "code": "361",
    "name": "Huyện Nghĩa Hưng",
    "unit": "Huyện",
    "province_code": "36",
    "province_name": "Tỉnh Nam Định",
    "area_code": "01",
    "area_name": "Miền Bắc",
    "full_name": "Huyện Nghĩa Hưng, Tỉnh Nam Định, Miền Bắc"
  },
  {
    "code": "362",
    "name": "Huyện Nam Trực",
    "unit": "Huyện",
    "province_code": "36",
    "province_name": "Tỉnh Nam Định",
    "area_code": "01",
    "area_name": "Miền Bắc",
    "full_name": "Huyện Nam Trực, Tỉnh Nam Định, Miền Bắc"
  },
  {
    "code": "363",
    "name": "Huyện Trực Ninh",
    "unit": "Huyện",
    "province_code": "36",
    "province_name": "Tỉnh Nam Định",
    "area_code": "01",
    "area_name": "Miền Bắc",
    "full_name": "Huyện Trực Ninh, Tỉnh Nam Định, Miền Bắc"
  },
  {
    "code": "364",
    "name": "Huyện Xuân Trường",
    "unit": "Huyện",
    "province_code": "36",
    "province_name": "Tỉnh Nam Định",
    "area_code": "01",
    "area_name": "Miền Bắc",
    "full_name": "Huyện Xuân Trường, Tỉnh Nam Định, Miền Bắc"
  },
  {
    "code": "365",
    "name": "Huyện Giao Thủy",
    "unit": "Huyện",
    "province_code": "36",
    "province_name": "Tỉnh Nam Định",
    "area_code": "01",
    "area_name": "Miền Bắc",
    "full_name": "Huyện Giao Thủy, Tỉnh Nam Định, Miền Bắc"
  },
  {
    "code": "366",
    "name": "Huyện Hải Hậu",
    "unit": "Huyện",
    "province_code": "36",
    "province_name": "Tỉnh Nam Định",
    "area_code": "01",
    "area_name": "Miền Bắc",
    "full_name": "Huyện Hải Hậu, Tỉnh Nam Định, Miền Bắc"
  },
  {
    "code": "369",
    "name": "Thành phố Ninh Bình",
    "unit": "Thành phố",
    "province_code": "37",
    "province_name": "Tỉnh Ninh Bình",
    "area_code": "01",
    "area_name": "Miền Bắc",
    "full_name": "Thành phố Ninh Bình, Tỉnh Ninh Bình, Miền Bắc"
  },
  {
    "code": "370",
    "name": "Thành phố Tam Điệp",
    "unit": "Thành phố",
    "province_code": "37",
    "province_name": "Tỉnh Ninh Bình",
    "area_code": "01",
    "area_name": "Miền Bắc",
    "full_name": "Thành phố Tam Điệp, Tỉnh Ninh Bình, Miền Bắc"
  },
  {
    "code": "372",
    "name": "Huyện Nho Quan",
    "unit": "Huyện",
    "province_code": "37",
    "province_name": "Tỉnh Ninh Bình",
    "area_code": "01",
    "area_name": "Miền Bắc",
    "full_name": "Huyện Nho Quan, Tỉnh Ninh Bình, Miền Bắc"
  },
  {
    "code": "373",
    "name": "Huyện Gia Viễn",
    "unit": "Huyện",
    "province_code": "37",
    "province_name": "Tỉnh Ninh Bình",
    "area_code": "01",
    "area_name": "Miền Bắc",
    "full_name": "Huyện Gia Viễn, Tỉnh Ninh Bình, Miền Bắc"
  },
  {
    "code": "374",
    "name": "Huyện Hoa Lư",
    "unit": "Huyện",
    "province_code": "37",
    "province_name": "Tỉnh Ninh Bình",
    "area_code": "01",
    "area_name": "Miền Bắc",
    "full_name": "Huyện Hoa Lư, Tỉnh Ninh Bình, Miền Bắc"
  },
  {
    "code": "375",
    "name": "Huyện Yên Khánh",
    "unit": "Huyện",
    "province_code": "37",
    "province_name": "Tỉnh Ninh Bình",
    "area_code": "01",
    "area_name": "Miền Bắc",
    "full_name": "Huyện Yên Khánh, Tỉnh Ninh Bình, Miền Bắc"
  },
  {
    "code": "376",
    "name": "Huyện Kim Sơn",
    "unit": "Huyện",
    "province_code": "37",
    "province_name": "Tỉnh Ninh Bình",
    "area_code": "01",
    "area_name": "Miền Bắc",
    "full_name": "Huyện Kim Sơn, Tỉnh Ninh Bình, Miền Bắc"
  },
  {
    "code": "377",
    "name": "Huyện Yên Mô",
    "unit": "Huyện",
    "province_code": "37",
    "province_name": "Tỉnh Ninh Bình",
    "area_code": "01",
    "area_name": "Miền Bắc",
    "full_name": "Huyện Yên Mô, Tỉnh Ninh Bình, Miền Bắc"
  },
  {
    "code": "380",
    "name": "Thành phố Thanh Hóa",
    "unit": "Thành phố",
    "province_code": "38",
    "province_name": "Tỉnh Thanh Hóa",
    "area_code": "02",
    "area_name": "Miền Trung",
    "full_name": "Thành phố Thanh Hóa, Tỉnh Thanh Hóa, Miền Trung"
  },
  {
    "code": "381",
    "name": "Thị xã Bỉm Sơn",
    "unit": "Thị xã",
    "province_code": "38",
    "province_name": "Tỉnh Thanh Hóa",
    "area_code": "02",
    "area_name": "Miền Trung",
    "full_name": "Thị xã Bỉm Sơn, Tỉnh Thanh Hóa, Miền Trung"
  },
  {
    "code": "382",
    "name": "Thành phố Sầm Sơn",
    "unit": "Thành phố",
    "province_code": "38",
    "province_name": "Tỉnh Thanh Hóa",
    "area_code": "02",
    "area_name": "Miền Trung",
    "full_name": "Thành phố Sầm Sơn, Tỉnh Thanh Hóa, Miền Trung"
  },
  {
    "code": "384",
    "name": "Huyện Mường Lát",
    "unit": "Huyện",
    "province_code": "38",
    "province_name": "Tỉnh Thanh Hóa",
    "area_code": "02",
    "area_name": "Miền Trung",
    "full_name": "Huyện Mường Lát, Tỉnh Thanh Hóa, Miền Trung"
  },
  {
    "code": "385",
    "name": "Huyện Quan Hóa",
    "unit": "Huyện",
    "province_code": "38",
    "province_name": "Tỉnh Thanh Hóa",
    "area_code": "02",
    "area_name": "Miền Trung",
    "full_name": "Huyện Quan Hóa, Tỉnh Thanh Hóa, Miền Trung"
  },
  {
    "code": "386",
    "name": "Huyện Bá Thước",
    "unit": "Huyện",
    "province_code": "38",
    "province_name": "Tỉnh Thanh Hóa",
    "area_code": "02",
    "area_name": "Miền Trung",
    "full_name": "Huyện Bá Thước, Tỉnh Thanh Hóa, Miền Trung"
  },
  {
    "code": "387",
    "name": "Huyện Quan Sơn",
    "unit": "Huyện",
    "province_code": "38",
    "province_name": "Tỉnh Thanh Hóa",
    "area_code": "02",
    "area_name": "Miền Trung",
    "full_name": "Huyện Quan Sơn, Tỉnh Thanh Hóa, Miền Trung"
  },
  {
    "code": "388",
    "name": "Huyện Lang Chánh",
    "unit": "Huyện",
    "province_code": "38",
    "province_name": "Tỉnh Thanh Hóa",
    "area_code": "02",
    "area_name": "Miền Trung",
    "full_name": "Huyện Lang Chánh, Tỉnh Thanh Hóa, Miền Trung"
  },
  {
    "code": "389",
    "name": "Huyện Ngọc Lặc",
    "unit": "Huyện",
    "province_code": "38",
    "province_name": "Tỉnh Thanh Hóa",
    "area_code": "02",
    "area_name": "Miền Trung",
    "full_name": "Huyện Ngọc Lặc, Tỉnh Thanh Hóa, Miền Trung"
  },
  {
    "code": "390",
    "name": "Huyện Cẩm Thủy",
    "unit": "Huyện",
    "province_code": "38",
    "province_name": "Tỉnh Thanh Hóa",
    "area_code": "02",
    "area_name": "Miền Trung",
    "full_name": "Huyện Cẩm Thủy, Tỉnh Thanh Hóa, Miền Trung"
  },
  {
    "code": "391",
    "name": "Huyện Thạch Thành",
    "unit": "Huyện",
    "province_code": "38",
    "province_name": "Tỉnh Thanh Hóa",
    "area_code": "02",
    "area_name": "Miền Trung",
    "full_name": "Huyện Thạch Thành, Tỉnh Thanh Hóa, Miền Trung"
  },
  {
    "code": "392",
    "name": "Huyện Hà Trung",
    "unit": "Huyện",
    "province_code": "38",
    "province_name": "Tỉnh Thanh Hóa",
    "area_code": "02",
    "area_name": "Miền Trung",
    "full_name": "Huyện Hà Trung, Tỉnh Thanh Hóa, Miền Trung"
  },
  {
    "code": "393",
    "name": "Huyện Vĩnh Lộc",
    "unit": "Huyện",
    "province_code": "38",
    "province_name": "Tỉnh Thanh Hóa",
    "area_code": "02",
    "area_name": "Miền Trung",
    "full_name": "Huyện Vĩnh Lộc, Tỉnh Thanh Hóa, Miền Trung"
  },
  {
    "code": "394",
    "name": "Huyện Yên Định",
    "unit": "Huyện",
    "province_code": "38",
    "province_name": "Tỉnh Thanh Hóa",
    "area_code": "02",
    "area_name": "Miền Trung",
    "full_name": "Huyện Yên Định, Tỉnh Thanh Hóa, Miền Trung"
  },
  {
    "code": "395",
    "name": "Huyện Thọ Xuân",
    "unit": "Huyện",
    "province_code": "38",
    "province_name": "Tỉnh Thanh Hóa",
    "area_code": "02",
    "area_name": "Miền Trung",
    "full_name": "Huyện Thọ Xuân, Tỉnh Thanh Hóa, Miền Trung"
  },
  {
    "code": "396",
    "name": "Huyện Thường Xuân",
    "unit": "Huyện",
    "province_code": "38",
    "province_name": "Tỉnh Thanh Hóa",
    "area_code": "02",
    "area_name": "Miền Trung",
    "full_name": "Huyện Thường Xuân, Tỉnh Thanh Hóa, Miền Trung"
  },
  {
    "code": "397",
    "name": "Huyện Triệu Sơn",
    "unit": "Huyện",
    "province_code": "38",
    "province_name": "Tỉnh Thanh Hóa",
    "area_code": "02",
    "area_name": "Miền Trung",
    "full_name": "Huyện Triệu Sơn, Tỉnh Thanh Hóa, Miền Trung"
  },
  {
    "code": "398",
    "name": "Huyện Thiệu Hóa",
    "unit": "Huyện",
    "province_code": "38",
    "province_name": "Tỉnh Thanh Hóa",
    "area_code": "02",
    "area_name": "Miền Trung",
    "full_name": "Huyện Thiệu Hóa, Tỉnh Thanh Hóa, Miền Trung"
  },
  {
    "code": "399",
    "name": "Huyện Hoằng Hóa",
    "unit": "Huyện",
    "province_code": "38",
    "province_name": "Tỉnh Thanh Hóa",
    "area_code": "02",
    "area_name": "Miền Trung",
    "full_name": "Huyện Hoằng Hóa, Tỉnh Thanh Hóa, Miền Trung"
  },
  {
    "code": "400",
    "name": "Huyện Hậu Lộc",
    "unit": "Huyện",
    "province_code": "38",
    "province_name": "Tỉnh Thanh Hóa",
    "area_code": "02",
    "area_name": "Miền Trung",
    "full_name": "Huyện Hậu Lộc, Tỉnh Thanh Hóa, Miền Trung"
  },
  {
    "code": "401",
    "name": "Huyện Nga Sơn",
    "unit": "Huyện",
    "province_code": "38",
    "province_name": "Tỉnh Thanh Hóa",
    "area_code": "02",
    "area_name": "Miền Trung",
    "full_name": "Huyện Nga Sơn, Tỉnh Thanh Hóa, Miền Trung"
  },
  {
    "code": "402",
    "name": "Huyện Như Xuân",
    "unit": "Huyện",
    "province_code": "38",
    "province_name": "Tỉnh Thanh Hóa",
    "area_code": "02",
    "area_name": "Miền Trung",
    "full_name": "Huyện Như Xuân, Tỉnh Thanh Hóa, Miền Trung"
  },
  {
    "code": "403",
    "name": "Huyện Như Thanh",
    "unit": "Huyện",
    "province_code": "38",
    "province_name": "Tỉnh Thanh Hóa",
    "area_code": "02",
    "area_name": "Miền Trung",
    "full_name": "Huyện Như Thanh, Tỉnh Thanh Hóa, Miền Trung"
  },
  {
    "code": "404",
    "name": "Huyện Nông Cống",
    "unit": "Huyện",
    "province_code": "38",
    "province_name": "Tỉnh Thanh Hóa",
    "area_code": "02",
    "area_name": "Miền Trung",
    "full_name": "Huyện Nông Cống, Tỉnh Thanh Hóa, Miền Trung"
  },
  {
    "code": "405",
    "name": "Huyện Đông Sơn",
    "unit": "Huyện",
    "province_code": "38",
    "province_name": "Tỉnh Thanh Hóa",
    "area_code": "02",
    "area_name": "Miền Trung",
    "full_name": "Huyện Đông Sơn, Tỉnh Thanh Hóa, Miền Trung"
  },
  {
    "code": "406",
    "name": "Huyện Quảng Xương",
    "unit": "Huyện",
    "province_code": "38",
    "province_name": "Tỉnh Thanh Hóa",
    "area_code": "02",
    "area_name": "Miền Trung",
    "full_name": "Huyện Quảng Xương, Tỉnh Thanh Hóa, Miền Trung"
  },
  {
    "code": "407",
    "name": "Huyện Tĩnh Gia",
    "unit": "Huyện",
    "province_code": "38",
    "province_name": "Tỉnh Thanh Hóa",
    "area_code": "02",
    "area_name": "Miền Trung",
    "full_name": "Huyện Tĩnh Gia, Tỉnh Thanh Hóa, Miền Trung"
  },
  {
    "code": "412",
    "name": "Thành phố Vinh",
    "unit": "Thành phố",
    "province_code": "40",
    "province_name": "Tỉnh Nghệ An",
    "area_code": "02",
    "area_name": "Miền Trung",
    "full_name": "Thành phố Vinh, Tỉnh Nghệ An, Miền Trung"
  },
  {
    "code": "413",
    "name": "Thị xã Cửa Lò",
    "unit": "Thị xã",
    "province_code": "40",
    "province_name": "Tỉnh Nghệ An",
    "area_code": "02",
    "area_name": "Miền Trung",
    "full_name": "Thị xã Cửa Lò, Tỉnh Nghệ An, Miền Trung"
  },
  {
    "code": "414",
    "name": "Thị xã Thái Hoà",
    "unit": "Thị xã",
    "province_code": "40",
    "province_name": "Tỉnh Nghệ An",
    "area_code": "02",
    "area_name": "Miền Trung",
    "full_name": "Thị xã Thái Hoà, Tỉnh Nghệ An, Miền Trung"
  },
  {
    "code": "415",
    "name": "Huyện Quế Phong",
    "unit": "Huyện",
    "province_code": "40",
    "province_name": "Tỉnh Nghệ An",
    "area_code": "02",
    "area_name": "Miền Trung",
    "full_name": "Huyện Quế Phong, Tỉnh Nghệ An, Miền Trung"
  },
  {
    "code": "416",
    "name": "Huyện Quỳ Châu",
    "unit": "Huyện",
    "province_code": "40",
    "province_name": "Tỉnh Nghệ An",
    "area_code": "02",
    "area_name": "Miền Trung",
    "full_name": "Huyện Quỳ Châu, Tỉnh Nghệ An, Miền Trung"
  },
  {
    "code": "417",
    "name": "Huyện Kỳ Sơn",
    "unit": "Huyện",
    "province_code": "40",
    "province_name": "Tỉnh Nghệ An",
    "area_code": "02",
    "area_name": "Miền Trung",
    "full_name": "Huyện Kỳ Sơn, Tỉnh Nghệ An, Miền Trung"
  },
  {
    "code": "418",
    "name": "Huyện Tương Dương",
    "unit": "Huyện",
    "province_code": "40",
    "province_name": "Tỉnh Nghệ An",
    "area_code": "02",
    "area_name": "Miền Trung",
    "full_name": "Huyện Tương Dương, Tỉnh Nghệ An, Miền Trung"
  },
  {
    "code": "419",
    "name": "Huyện Nghĩa Đàn",
    "unit": "Huyện",
    "province_code": "40",
    "province_name": "Tỉnh Nghệ An",
    "area_code": "02",
    "area_name": "Miền Trung",
    "full_name": "Huyện Nghĩa Đàn, Tỉnh Nghệ An, Miền Trung"
  },
  {
    "code": "420",
    "name": "Huyện Quỳ Hợp",
    "unit": "Huyện",
    "province_code": "40",
    "province_name": "Tỉnh Nghệ An",
    "area_code": "02",
    "area_name": "Miền Trung",
    "full_name": "Huyện Quỳ Hợp, Tỉnh Nghệ An, Miền Trung"
  },
  {
    "code": "421",
    "name": "Huyện Quỳnh Lưu",
    "unit": "Huyện",
    "province_code": "40",
    "province_name": "Tỉnh Nghệ An",
    "area_code": "02",
    "area_name": "Miền Trung",
    "full_name": "Huyện Quỳnh Lưu, Tỉnh Nghệ An, Miền Trung"
  },
  {
    "code": "422",
    "name": "Huyện Con Cuông",
    "unit": "Huyện",
    "province_code": "40",
    "province_name": "Tỉnh Nghệ An",
    "area_code": "02",
    "area_name": "Miền Trung",
    "full_name": "Huyện Con Cuông, Tỉnh Nghệ An, Miền Trung"
  },
  {
    "code": "423",
    "name": "Huyện Tân Kỳ",
    "unit": "Huyện",
    "province_code": "40",
    "province_name": "Tỉnh Nghệ An",
    "area_code": "02",
    "area_name": "Miền Trung",
    "full_name": "Huyện Tân Kỳ, Tỉnh Nghệ An, Miền Trung"
  },
  {
    "code": "424",
    "name": "Huyện Anh Sơn",
    "unit": "Huyện",
    "province_code": "40",
    "province_name": "Tỉnh Nghệ An",
    "area_code": "02",
    "area_name": "Miền Trung",
    "full_name": "Huyện Anh Sơn, Tỉnh Nghệ An, Miền Trung"
  },
  {
    "code": "425",
    "name": "Huyện Diễn Châu",
    "unit": "Huyện",
    "province_code": "40",
    "province_name": "Tỉnh Nghệ An",
    "area_code": "02",
    "area_name": "Miền Trung",
    "full_name": "Huyện Diễn Châu, Tỉnh Nghệ An, Miền Trung"
  },
  {
    "code": "426",
    "name": "Huyện Yên Thành",
    "unit": "Huyện",
    "province_code": "40",
    "province_name": "Tỉnh Nghệ An",
    "area_code": "02",
    "area_name": "Miền Trung",
    "full_name": "Huyện Yên Thành, Tỉnh Nghệ An, Miền Trung"
  },
  {
    "code": "427",
    "name": "Huyện Đô Lương",
    "unit": "Huyện",
    "province_code": "40",
    "province_name": "Tỉnh Nghệ An",
    "area_code": "02",
    "area_name": "Miền Trung",
    "full_name": "Huyện Đô Lương, Tỉnh Nghệ An, Miền Trung"
  },
  {
    "code": "428",
    "name": "Huyện Thanh Chương",
    "unit": "Huyện",
    "province_code": "40",
    "province_name": "Tỉnh Nghệ An",
    "area_code": "02",
    "area_name": "Miền Trung",
    "full_name": "Huyện Thanh Chương, Tỉnh Nghệ An, Miền Trung"
  },
  {
    "code": "429",
    "name": "Huyện Nghi Lộc",
    "unit": "Huyện",
    "province_code": "40",
    "province_name": "Tỉnh Nghệ An",
    "area_code": "02",
    "area_name": "Miền Trung",
    "full_name": "Huyện Nghi Lộc, Tỉnh Nghệ An, Miền Trung"
  },
  {
    "code": "430",
    "name": "Huyện Nam Đàn",
    "unit": "Huyện",
    "province_code": "40",
    "province_name": "Tỉnh Nghệ An",
    "area_code": "02",
    "area_name": "Miền Trung",
    "full_name": "Huyện Nam Đàn, Tỉnh Nghệ An, Miền Trung"
  },
  {
    "code": "431",
    "name": "Huyện Hưng Nguyên",
    "unit": "Huyện",
    "province_code": "40",
    "province_name": "Tỉnh Nghệ An",
    "area_code": "02",
    "area_name": "Miền Trung",
    "full_name": "Huyện Hưng Nguyên, Tỉnh Nghệ An, Miền Trung"
  },
  {
    "code": "432",
    "name": "Thị xã Hoàng Mai",
    "unit": "Thị xã",
    "province_code": "40",
    "province_name": "Tỉnh Nghệ An",
    "area_code": "02",
    "area_name": "Miền Trung",
    "full_name": "Thị xã Hoàng Mai, Tỉnh Nghệ An, Miền Trung"
  },
  {
    "code": "436",
    "name": "Thành phố Hà Tĩnh",
    "unit": "Thành phố",
    "province_code": "42",
    "province_name": "Tỉnh Hà Tĩnh",
    "area_code": "02",
    "area_name": "Miền Trung",
    "full_name": "Thành phố Hà Tĩnh, Tỉnh Hà Tĩnh, Miền Trung"
  },
  {
    "code": "437",
    "name": "Thị xã Hồng Lĩnh",
    "unit": "Thị xã",
    "province_code": "42",
    "province_name": "Tỉnh Hà Tĩnh",
    "area_code": "02",
    "area_name": "Miền Trung",
    "full_name": "Thị xã Hồng Lĩnh, Tỉnh Hà Tĩnh, Miền Trung"
  },
  {
    "code": "439",
    "name": "Huyện Hương Sơn",
    "unit": "Huyện",
    "province_code": "42",
    "province_name": "Tỉnh Hà Tĩnh",
    "area_code": "02",
    "area_name": "Miền Trung",
    "full_name": "Huyện Hương Sơn, Tỉnh Hà Tĩnh, Miền Trung"
  },
  {
    "code": "440",
    "name": "Huyện Đức Thọ",
    "unit": "Huyện",
    "province_code": "42",
    "province_name": "Tỉnh Hà Tĩnh",
    "area_code": "02",
    "area_name": "Miền Trung",
    "full_name": "Huyện Đức Thọ, Tỉnh Hà Tĩnh, Miền Trung"
  },
  {
    "code": "441",
    "name": "Huyện Vũ Quang",
    "unit": "Huyện",
    "province_code": "42",
    "province_name": "Tỉnh Hà Tĩnh",
    "area_code": "02",
    "area_name": "Miền Trung",
    "full_name": "Huyện Vũ Quang, Tỉnh Hà Tĩnh, Miền Trung"
  },
  {
    "code": "442",
    "name": "Huyện Nghi Xuân",
    "unit": "Huyện",
    "province_code": "42",
    "province_name": "Tỉnh Hà Tĩnh",
    "area_code": "02",
    "area_name": "Miền Trung",
    "full_name": "Huyện Nghi Xuân, Tỉnh Hà Tĩnh, Miền Trung"
  },
  {
    "code": "443",
    "name": "Huyện Can Lộc",
    "unit": "Huyện",
    "province_code": "42",
    "province_name": "Tỉnh Hà Tĩnh",
    "area_code": "02",
    "area_name": "Miền Trung",
    "full_name": "Huyện Can Lộc, Tỉnh Hà Tĩnh, Miền Trung"
  },
  {
    "code": "444",
    "name": "Huyện Hương Khê",
    "unit": "Huyện",
    "province_code": "42",
    "province_name": "Tỉnh Hà Tĩnh",
    "area_code": "02",
    "area_name": "Miền Trung",
    "full_name": "Huyện Hương Khê, Tỉnh Hà Tĩnh, Miền Trung"
  },
  {
    "code": "445",
    "name": "Huyện Thạch Hà",
    "unit": "Huyện",
    "province_code": "42",
    "province_name": "Tỉnh Hà Tĩnh",
    "area_code": "02",
    "area_name": "Miền Trung",
    "full_name": "Huyện Thạch Hà, Tỉnh Hà Tĩnh, Miền Trung"
  },
  {
    "code": "446",
    "name": "Huyện Cẩm Xuyên",
    "unit": "Huyện",
    "province_code": "42",
    "province_name": "Tỉnh Hà Tĩnh",
    "area_code": "02",
    "area_name": "Miền Trung",
    "full_name": "Huyện Cẩm Xuyên, Tỉnh Hà Tĩnh, Miền Trung"
  },
  {
    "code": "447",
    "name": "Huyện Kỳ Anh",
    "unit": "Huyện",
    "province_code": "42",
    "province_name": "Tỉnh Hà Tĩnh",
    "area_code": "02",
    "area_name": "Miền Trung",
    "full_name": "Huyện Kỳ Anh, Tỉnh Hà Tĩnh, Miền Trung"
  },
  {
    "code": "448",
    "name": "Huyện Lộc Hà",
    "unit": "Huyện",
    "province_code": "42",
    "province_name": "Tỉnh Hà Tĩnh",
    "area_code": "02",
    "area_name": "Miền Trung",
    "full_name": "Huyện Lộc Hà, Tỉnh Hà Tĩnh, Miền Trung"
  },
  {
    "code": "449",
    "name": "Thị xã Kỳ Anh",
    "unit": "Thị xã",
    "province_code": "42",
    "province_name": "Tỉnh Hà Tĩnh",
    "area_code": "02",
    "area_name": "Miền Trung",
    "full_name": "Thị xã Kỳ Anh, Tỉnh Hà Tĩnh, Miền Trung"
  },
  {
    "code": "450",
    "name": "Thành Phố Đồng Hới",
    "unit": "Thành phố",
    "province_code": "44",
    "province_name": "Tỉnh Quảng Bình",
    "area_code": "02",
    "area_name": "Miền Trung",
    "full_name": "Thành Phố Đồng Hới, Tỉnh Quảng Bình, Miền Trung"
  },
  {
    "code": "452",
    "name": "Huyện Minh Hóa",
    "unit": "Huyện",
    "province_code": "44",
    "province_name": "Tỉnh Quảng Bình",
    "area_code": "02",
    "area_name": "Miền Trung",
    "full_name": "Huyện Minh Hóa, Tỉnh Quảng Bình, Miền Trung"
  },
  {
    "code": "453",
    "name": "Huyện Tuyên Hóa",
    "unit": "Huyện",
    "province_code": "44",
    "province_name": "Tỉnh Quảng Bình",
    "area_code": "02",
    "area_name": "Miền Trung",
    "full_name": "Huyện Tuyên Hóa, Tỉnh Quảng Bình, Miền Trung"
  },
  {
    "code": "454",
    "name": "Huyện Quảng Trạch",
    "unit": "Thị xã",
    "province_code": "44",
    "province_name": "Tỉnh Quảng Bình",
    "area_code": "02",
    "area_name": "Miền Trung",
    "full_name": "Huyện Quảng Trạch, Tỉnh Quảng Bình, Miền Trung"
  },
  {
    "code": "455",
    "name": "Huyện Bố Trạch",
    "unit": "Huyện",
    "province_code": "44",
    "province_name": "Tỉnh Quảng Bình",
    "area_code": "02",
    "area_name": "Miền Trung",
    "full_name": "Huyện Bố Trạch, Tỉnh Quảng Bình, Miền Trung"
  },
  {
    "code": "456",
    "name": "Huyện Quảng Ninh",
    "unit": "Huyện",
    "province_code": "44",
    "province_name": "Tỉnh Quảng Bình",
    "area_code": "02",
    "area_name": "Miền Trung",
    "full_name": "Huyện Quảng Ninh, Tỉnh Quảng Bình, Miền Trung"
  },
  {
    "code": "457",
    "name": "Huyện Lệ Thủy",
    "unit": "Huyện",
    "province_code": "44",
    "province_name": "Tỉnh Quảng Bình",
    "area_code": "02",
    "area_name": "Miền Trung",
    "full_name": "Huyện Lệ Thủy, Tỉnh Quảng Bình, Miền Trung"
  },
  {
    "code": "458",
    "name": "Thị xã Ba Đồn",
    "unit": "Huyện",
    "province_code": "44",
    "province_name": "Tỉnh Quảng Bình",
    "area_code": "02",
    "area_name": "Miền Trung",
    "full_name": "Thị xã Ba Đồn, Tỉnh Quảng Bình, Miền Trung"
  },
  {
    "code": "461",
    "name": "Thành phố Đông Hà",
    "unit": "Thành phố",
    "province_code": "45",
    "province_name": "Tỉnh Quảng Trị",
    "area_code": "02",
    "area_name": "Miền Trung",
    "full_name": "Thành phố Đông Hà, Tỉnh Quảng Trị, Miền Trung"
  },
  {
    "code": "462",
    "name": "Thị xã Quảng Trị",
    "unit": "Thị xã",
    "province_code": "45",
    "province_name": "Tỉnh Quảng Trị",
    "area_code": "02",
    "area_name": "Miền Trung",
    "full_name": "Thị xã Quảng Trị, Tỉnh Quảng Trị, Miền Trung"
  },
  {
    "code": "464",
    "name": "Huyện Vĩnh Linh",
    "unit": "Huyện",
    "province_code": "45",
    "province_name": "Tỉnh Quảng Trị",
    "area_code": "02",
    "area_name": "Miền Trung",
    "full_name": "Huyện Vĩnh Linh, Tỉnh Quảng Trị, Miền Trung"
  },
  {
    "code": "465",
    "name": "Huyện Hướng Hóa",
    "unit": "Huyện",
    "province_code": "45",
    "province_name": "Tỉnh Quảng Trị",
    "area_code": "02",
    "area_name": "Miền Trung",
    "full_name": "Huyện Hướng Hóa, Tỉnh Quảng Trị, Miền Trung"
  },
  {
    "code": "466",
    "name": "Huyện Gio Linh",
    "unit": "Huyện",
    "province_code": "45",
    "province_name": "Tỉnh Quảng Trị",
    "area_code": "02",
    "area_name": "Miền Trung",
    "full_name": "Huyện Gio Linh, Tỉnh Quảng Trị, Miền Trung"
  },
  {
    "code": "467",
    "name": "Huyện Đa Krông",
    "unit": "Huyện",
    "province_code": "45",
    "province_name": "Tỉnh Quảng Trị",
    "area_code": "02",
    "area_name": "Miền Trung",
    "full_name": "Huyện Đa Krông, Tỉnh Quảng Trị, Miền Trung"
  },
  {
    "code": "468",
    "name": "Huyện Cam Lộ",
    "unit": "Huyện",
    "province_code": "45",
    "province_name": "Tỉnh Quảng Trị",
    "area_code": "02",
    "area_name": "Miền Trung",
    "full_name": "Huyện Cam Lộ, Tỉnh Quảng Trị, Miền Trung"
  },
  {
    "code": "469",
    "name": "Huyện Triệu Phong",
    "unit": "Huyện",
    "province_code": "45",
    "province_name": "Tỉnh Quảng Trị",
    "area_code": "02",
    "area_name": "Miền Trung",
    "full_name": "Huyện Triệu Phong, Tỉnh Quảng Trị, Miền Trung"
  },
  {
    "code": "470",
    "name": "Huyện Hải Lăng",
    "unit": "Huyện",
    "province_code": "45",
    "province_name": "Tỉnh Quảng Trị",
    "area_code": "02",
    "area_name": "Miền Trung",
    "full_name": "Huyện Hải Lăng, Tỉnh Quảng Trị, Miền Trung"
  },
  {
    "code": "471",
    "name": "Huyện Cồn Cỏ",
    "unit": "Huyện",
    "province_code": "45",
    "province_name": "Tỉnh Quảng Trị",
    "area_code": "02",
    "area_name": "Miền Trung",
    "full_name": "Huyện Cồn Cỏ, Tỉnh Quảng Trị, Miền Trung"
  },
  {
    "code": "474",
    "name": "Thành phố Huế",
    "unit": "Thành phố",
    "province_code": "46",
    "province_name": "Tỉnh Thừa Thiên Huế",
    "area_code": "02",
    "area_name": "Miền Trung",
    "full_name": "Thành phố Huế, Tỉnh Thừa Thiên Huế, Miền Trung"
  },
  {
    "code": "476",
    "name": "Huyện Phong Điền",
    "unit": "Huyện",
    "province_code": "46",
    "province_name": "Tỉnh Thừa Thiên Huế",
    "area_code": "02",
    "area_name": "Miền Trung",
    "full_name": "Huyện Phong Điền, Tỉnh Thừa Thiên Huế, Miền Trung"
  },
  {
    "code": "477",
    "name": "Huyện Quảng Điền",
    "unit": "Huyện",
    "province_code": "46",
    "province_name": "Tỉnh Thừa Thiên Huế",
    "area_code": "02",
    "area_name": "Miền Trung",
    "full_name": "Huyện Quảng Điền, Tỉnh Thừa Thiên Huế, Miền Trung"
  },
  {
    "code": "478",
    "name": "Huyện Phú Vang",
    "unit": "Huyện",
    "province_code": "46",
    "province_name": "Tỉnh Thừa Thiên Huế",
    "area_code": "02",
    "area_name": "Miền Trung",
    "full_name": "Huyện Phú Vang, Tỉnh Thừa Thiên Huế, Miền Trung"
  },
  {
    "code": "479",
    "name": "Thị xã Hương Thủy",
    "unit": "Thị xã",
    "province_code": "46",
    "province_name": "Tỉnh Thừa Thiên Huế",
    "area_code": "02",
    "area_name": "Miền Trung",
    "full_name": "Thị xã Hương Thủy, Tỉnh Thừa Thiên Huế, Miền Trung"
  },
  {
    "code": "480",
    "name": "Thị xã Hương Trà",
    "unit": "Thị xã",
    "province_code": "46",
    "province_name": "Tỉnh Thừa Thiên Huế",
    "area_code": "02",
    "area_name": "Miền Trung",
    "full_name": "Thị xã Hương Trà, Tỉnh Thừa Thiên Huế, Miền Trung"
  },
  {
    "code": "481",
    "name": "Huyện A Lưới",
    "unit": "Huyện",
    "province_code": "46",
    "province_name": "Tỉnh Thừa Thiên Huế",
    "area_code": "02",
    "area_name": "Miền Trung",
    "full_name": "Huyện A Lưới, Tỉnh Thừa Thiên Huế, Miền Trung"
  },
  {
    "code": "482",
    "name": "Huyện Phú Lộc",
    "unit": "Huyện",
    "province_code": "46",
    "province_name": "Tỉnh Thừa Thiên Huế",
    "area_code": "02",
    "area_name": "Miền Trung",
    "full_name": "Huyện Phú Lộc, Tỉnh Thừa Thiên Huế, Miền Trung"
  },
  {
    "code": "483",
    "name": "Huyện Nam Đông",
    "unit": "Huyện",
    "province_code": "46",
    "province_name": "Tỉnh Thừa Thiên Huế",
    "area_code": "02",
    "area_name": "Miền Trung",
    "full_name": "Huyện Nam Đông, Tỉnh Thừa Thiên Huế, Miền Trung"
  },
  {
    "code": "490",
    "name": "Quận Liên Chiểu",
    "unit": "Quận",
    "province_code": "48",
    "province_name": "Thành phố Đà Nẵng",
    "area_code": "02",
    "area_name": "Miền Trung",
    "full_name": "Quận Liên Chiểu, Thành phố Đà Nẵng, Miền Trung"
  },
  {
    "code": "491",
    "name": "Quận Thanh Khê",
    "unit": "Quận",
    "province_code": "48",
    "province_name": "Thành phố Đà Nẵng",
    "area_code": "02",
    "area_name": "Miền Trung",
    "full_name": "Quận Thanh Khê, Thành phố Đà Nẵng, Miền Trung"
  },
  {
    "code": "492",
    "name": "Quận Hải Châu",
    "unit": "Quận",
    "province_code": "48",
    "province_name": "Thành phố Đà Nẵng",
    "area_code": "02",
    "area_name": "Miền Trung",
    "full_name": "Quận Hải Châu, Thành phố Đà Nẵng, Miền Trung"
  },
  {
    "code": "493",
    "name": "Quận Sơn Trà",
    "unit": "Quận",
    "province_code": "48",
    "province_name": "Thành phố Đà Nẵng",
    "area_code": "02",
    "area_name": "Miền Trung",
    "full_name": "Quận Sơn Trà, Thành phố Đà Nẵng, Miền Trung"
  },
  {
    "code": "494",
    "name": "Quận Ngũ Hành Sơn",
    "unit": "Quận",
    "province_code": "48",
    "province_name": "Thành phố Đà Nẵng",
    "area_code": "02",
    "area_name": "Miền Trung",
    "full_name": "Quận Ngũ Hành Sơn, Thành phố Đà Nẵng, Miền Trung"
  },
  {
    "code": "495",
    "name": "Quận Cẩm Lệ",
    "unit": "Quận",
    "province_code": "48",
    "province_name": "Thành phố Đà Nẵng",
    "area_code": "02",
    "area_name": "Miền Trung",
    "full_name": "Quận Cẩm Lệ, Thành phố Đà Nẵng, Miền Trung"
  },
  {
    "code": "497",
    "name": "Huyện Hòa Vang",
    "unit": "Huyện",
    "province_code": "48",
    "province_name": "Thành phố Đà Nẵng",
    "area_code": "02",
    "area_name": "Miền Trung",
    "full_name": "Huyện Hòa Vang, Thành phố Đà Nẵng, Miền Trung"
  },
  {
    "code": "498",
    "name": "Huyện Hoàng Sa",
    "unit": "Huyện",
    "province_code": "48",
    "province_name": "Thành phố Đà Nẵng",
    "area_code": "02",
    "area_name": "Miền Trung",
    "full_name": "Huyện Hoàng Sa, Thành phố Đà Nẵng, Miền Trung"
  },
  {
    "code": "502",
    "name": "Thành phố Tam Kỳ",
    "unit": "Thành phố",
    "province_code": "49",
    "province_name": "Tỉnh Quảng Nam",
    "area_code": "02",
    "area_name": "Miền Trung",
    "full_name": "Thành phố Tam Kỳ, Tỉnh Quảng Nam, Miền Trung"
  },
  {
    "code": "503",
    "name": "Thành phố Hội An",
    "unit": "Thành phố",
    "province_code": "49",
    "province_name": "Tỉnh Quảng Nam",
    "area_code": "02",
    "area_name": "Miền Trung",
    "full_name": "Thành phố Hội An, Tỉnh Quảng Nam, Miền Trung"
  },
  {
    "code": "504",
    "name": "Huyện Tây Giang",
    "unit": "Huyện",
    "province_code": "49",
    "province_name": "Tỉnh Quảng Nam",
    "area_code": "02",
    "area_name": "Miền Trung",
    "full_name": "Huyện Tây Giang, Tỉnh Quảng Nam, Miền Trung"
  },
  {
    "code": "505",
    "name": "Huyện Đông Giang",
    "unit": "Huyện",
    "province_code": "49",
    "province_name": "Tỉnh Quảng Nam",
    "area_code": "02",
    "area_name": "Miền Trung",
    "full_name": "Huyện Đông Giang, Tỉnh Quảng Nam, Miền Trung"
  },
  {
    "code": "506",
    "name": "Huyện Đại Lộc",
    "unit": "Huyện",
    "province_code": "49",
    "province_name": "Tỉnh Quảng Nam",
    "area_code": "02",
    "area_name": "Miền Trung",
    "full_name": "Huyện Đại Lộc, Tỉnh Quảng Nam, Miền Trung"
  },
  {
    "code": "507",
    "name": "Thị xã Điện Bàn",
    "unit": "Thị xã",
    "province_code": "49",
    "province_name": "Tỉnh Quảng Nam",
    "area_code": "02",
    "area_name": "Miền Trung",
    "full_name": "Thị xã Điện Bàn, Tỉnh Quảng Nam, Miền Trung"
  },
  {
    "code": "508",
    "name": "Huyện Duy Xuyên",
    "unit": "Huyện",
    "province_code": "49",
    "province_name": "Tỉnh Quảng Nam",
    "area_code": "02",
    "area_name": "Miền Trung",
    "full_name": "Huyện Duy Xuyên, Tỉnh Quảng Nam, Miền Trung"
  },
  {
    "code": "509",
    "name": "Huyện Quế Sơn",
    "unit": "Huyện",
    "province_code": "49",
    "province_name": "Tỉnh Quảng Nam",
    "area_code": "02",
    "area_name": "Miền Trung",
    "full_name": "Huyện Quế Sơn, Tỉnh Quảng Nam, Miền Trung"
  },
  {
    "code": "510",
    "name": "Huyện Nam Giang",
    "unit": "Huyện",
    "province_code": "49",
    "province_name": "Tỉnh Quảng Nam",
    "area_code": "02",
    "area_name": "Miền Trung",
    "full_name": "Huyện Nam Giang, Tỉnh Quảng Nam, Miền Trung"
  },
  {
    "code": "511",
    "name": "Huyện Phước Sơn",
    "unit": "Huyện",
    "province_code": "49",
    "province_name": "Tỉnh Quảng Nam",
    "area_code": "02",
    "area_name": "Miền Trung",
    "full_name": "Huyện Phước Sơn, Tỉnh Quảng Nam, Miền Trung"
  },
  {
    "code": "512",
    "name": "Huyện Hiệp Đức",
    "unit": "Huyện",
    "province_code": "49",
    "province_name": "Tỉnh Quảng Nam",
    "area_code": "02",
    "area_name": "Miền Trung",
    "full_name": "Huyện Hiệp Đức, Tỉnh Quảng Nam, Miền Trung"
  },
  {
    "code": "513",
    "name": "Huyện Thăng Bình",
    "unit": "Huyện",
    "province_code": "49",
    "province_name": "Tỉnh Quảng Nam",
    "area_code": "02",
    "area_name": "Miền Trung",
    "full_name": "Huyện Thăng Bình, Tỉnh Quảng Nam, Miền Trung"
  },
  {
    "code": "514",
    "name": "Huyện Tiên Phước",
    "unit": "Huyện",
    "province_code": "49",
    "province_name": "Tỉnh Quảng Nam",
    "area_code": "02",
    "area_name": "Miền Trung",
    "full_name": "Huyện Tiên Phước, Tỉnh Quảng Nam, Miền Trung"
  },
  {
    "code": "515",
    "name": "Huyện Bắc Trà My",
    "unit": "Huyện",
    "province_code": "49",
    "province_name": "Tỉnh Quảng Nam",
    "area_code": "02",
    "area_name": "Miền Trung",
    "full_name": "Huyện Bắc Trà My, Tỉnh Quảng Nam, Miền Trung"
  },
  {
    "code": "516",
    "name": "Huyện Nam Trà My",
    "unit": "Huyện",
    "province_code": "49",
    "province_name": "Tỉnh Quảng Nam",
    "area_code": "02",
    "area_name": "Miền Trung",
    "full_name": "Huyện Nam Trà My, Tỉnh Quảng Nam, Miền Trung"
  },
  {
    "code": "517",
    "name": "Huyện Núi Thành",
    "unit": "Huyện",
    "province_code": "49",
    "province_name": "Tỉnh Quảng Nam",
    "area_code": "02",
    "area_name": "Miền Trung",
    "full_name": "Huyện Núi Thành, Tỉnh Quảng Nam, Miền Trung"
  },
  {
    "code": "518",
    "name": "Huyện Phú Ninh",
    "unit": "Huyện",
    "province_code": "49",
    "province_name": "Tỉnh Quảng Nam",
    "area_code": "02",
    "area_name": "Miền Trung",
    "full_name": "Huyện Phú Ninh, Tỉnh Quảng Nam, Miền Trung"
  },
  {
    "code": "519",
    "name": "Huyện Nông Sơn",
    "unit": "Huyện",
    "province_code": "49",
    "province_name": "Tỉnh Quảng Nam",
    "area_code": "02",
    "area_name": "Miền Trung",
    "full_name": "Huyện Nông Sơn, Tỉnh Quảng Nam, Miền Trung"
  },
  {
    "code": "522",
    "name": "Thành phố Quảng Ngãi",
    "unit": "Thành phố",
    "province_code": "51",
    "province_name": "Tỉnh Quảng Ngãi",
    "area_code": "02",
    "area_name": "Miền Trung",
    "full_name": "Thành phố Quảng Ngãi, Tỉnh Quảng Ngãi, Miền Trung"
  },
  {
    "code": "524",
    "name": "Huyện Bình Sơn",
    "unit": "Huyện",
    "province_code": "51",
    "province_name": "Tỉnh Quảng Ngãi",
    "area_code": "02",
    "area_name": "Miền Trung",
    "full_name": "Huyện Bình Sơn, Tỉnh Quảng Ngãi, Miền Trung"
  },
  {
    "code": "525",
    "name": "Huyện Trà Bồng",
    "unit": "Huyện",
    "province_code": "51",
    "province_name": "Tỉnh Quảng Ngãi",
    "area_code": "02",
    "area_name": "Miền Trung",
    "full_name": "Huyện Trà Bồng, Tỉnh Quảng Ngãi, Miền Trung"
  },
  {
    "code": "526",
    "name": "Huyện Tây Trà",
    "unit": "Huyện",
    "province_code": "51",
    "province_name": "Tỉnh Quảng Ngãi",
    "area_code": "02",
    "area_name": "Miền Trung",
    "full_name": "Huyện Tây Trà, Tỉnh Quảng Ngãi, Miền Trung"
  },
  {
    "code": "527",
    "name": "Huyện Sơn Tịnh",
    "unit": "Huyện",
    "province_code": "51",
    "province_name": "Tỉnh Quảng Ngãi",
    "area_code": "02",
    "area_name": "Miền Trung",
    "full_name": "Huyện Sơn Tịnh, Tỉnh Quảng Ngãi, Miền Trung"
  },
  {
    "code": "528",
    "name": "Huyện Tư Nghĩa",
    "unit": "Huyện",
    "province_code": "51",
    "province_name": "Tỉnh Quảng Ngãi",
    "area_code": "02",
    "area_name": "Miền Trung",
    "full_name": "Huyện Tư Nghĩa, Tỉnh Quảng Ngãi, Miền Trung"
  },
  {
    "code": "529",
    "name": "Huyện Sơn Hà",
    "unit": "Huyện",
    "province_code": "51",
    "province_name": "Tỉnh Quảng Ngãi",
    "area_code": "02",
    "area_name": "Miền Trung",
    "full_name": "Huyện Sơn Hà, Tỉnh Quảng Ngãi, Miền Trung"
  },
  {
    "code": "530",
    "name": "Huyện Sơn Tây",
    "unit": "Huyện",
    "province_code": "51",
    "province_name": "Tỉnh Quảng Ngãi",
    "area_code": "02",
    "area_name": "Miền Trung",
    "full_name": "Huyện Sơn Tây, Tỉnh Quảng Ngãi, Miền Trung"
  },
  {
    "code": "531",
    "name": "Huyện Minh Long",
    "unit": "Huyện",
    "province_code": "51",
    "province_name": "Tỉnh Quảng Ngãi",
    "area_code": "02",
    "area_name": "Miền Trung",
    "full_name": "Huyện Minh Long, Tỉnh Quảng Ngãi, Miền Trung"
  },
  {
    "code": "532",
    "name": "Huyện Nghĩa Hành",
    "unit": "Huyện",
    "province_code": "51",
    "province_name": "Tỉnh Quảng Ngãi",
    "area_code": "02",
    "area_name": "Miền Trung",
    "full_name": "Huyện Nghĩa Hành, Tỉnh Quảng Ngãi, Miền Trung"
  },
  {
    "code": "533",
    "name": "Huyện Mộ Đức",
    "unit": "Huyện",
    "province_code": "51",
    "province_name": "Tỉnh Quảng Ngãi",
    "area_code": "02",
    "area_name": "Miền Trung",
    "full_name": "Huyện Mộ Đức, Tỉnh Quảng Ngãi, Miền Trung"
  },
  {
    "code": "534",
    "name": "Huyện Đức Phổ",
    "unit": "Huyện",
    "province_code": "51",
    "province_name": "Tỉnh Quảng Ngãi",
    "area_code": "02",
    "area_name": "Miền Trung",
    "full_name": "Huyện Đức Phổ, Tỉnh Quảng Ngãi, Miền Trung"
  },
  {
    "code": "535",
    "name": "Huyện Ba Tơ",
    "unit": "Huyện",
    "province_code": "51",
    "province_name": "Tỉnh Quảng Ngãi",
    "area_code": "02",
    "area_name": "Miền Trung",
    "full_name": "Huyện Ba Tơ, Tỉnh Quảng Ngãi, Miền Trung"
  },
  {
    "code": "536",
    "name": "Huyện Lý Sơn",
    "unit": "Huyện",
    "province_code": "51",
    "province_name": "Tỉnh Quảng Ngãi",
    "area_code": "02",
    "area_name": "Miền Trung",
    "full_name": "Huyện Lý Sơn, Tỉnh Quảng Ngãi, Miền Trung"
  },
  {
    "code": "540",
    "name": "Thành phố Qui Nhơn",
    "unit": "Thành phố",
    "province_code": "52",
    "province_name": "Tỉnh Bình Định",
    "area_code": "02",
    "area_name": "Miền Trung",
    "full_name": "Thành phố Qui Nhơn, Tỉnh Bình Định, Miền Trung"
  },
  {
    "code": "542",
    "name": "Huyện An Lão",
    "unit": "Huyện",
    "province_code": "52",
    "province_name": "Tỉnh Bình Định",
    "area_code": "02",
    "area_name": "Miền Trung",
    "full_name": "Huyện An Lão, Tỉnh Bình Định, Miền Trung"
  },
  {
    "code": "543",
    "name": "Huyện Hoài Nhơn",
    "unit": "Huyện",
    "province_code": "52",
    "province_name": "Tỉnh Bình Định",
    "area_code": "02",
    "area_name": "Miền Trung",
    "full_name": "Huyện Hoài Nhơn, Tỉnh Bình Định, Miền Trung"
  },
  {
    "code": "544",
    "name": "Huyện Hoài Ân",
    "unit": "Huyện",
    "province_code": "52",
    "province_name": "Tỉnh Bình Định",
    "area_code": "02",
    "area_name": "Miền Trung",
    "full_name": "Huyện Hoài Ân, Tỉnh Bình Định, Miền Trung"
  },
  {
    "code": "545",
    "name": "Huyện Phù Mỹ",
    "unit": "Huyện",
    "province_code": "52",
    "province_name": "Tỉnh Bình Định",
    "area_code": "02",
    "area_name": "Miền Trung",
    "full_name": "Huyện Phù Mỹ, Tỉnh Bình Định, Miền Trung"
  },
  {
    "code": "546",
    "name": "Huyện Vĩnh Thạnh",
    "unit": "Huyện",
    "province_code": "52",
    "province_name": "Tỉnh Bình Định",
    "area_code": "02",
    "area_name": "Miền Trung",
    "full_name": "Huyện Vĩnh Thạnh, Tỉnh Bình Định, Miền Trung"
  },
  {
    "code": "547",
    "name": "Huyện Tây Sơn",
    "unit": "Huyện",
    "province_code": "52",
    "province_name": "Tỉnh Bình Định",
    "area_code": "02",
    "area_name": "Miền Trung",
    "full_name": "Huyện Tây Sơn, Tỉnh Bình Định, Miền Trung"
  },
  {
    "code": "548",
    "name": "Huyện Phù Cát",
    "unit": "Huyện",
    "province_code": "52",
    "province_name": "Tỉnh Bình Định",
    "area_code": "02",
    "area_name": "Miền Trung",
    "full_name": "Huyện Phù Cát, Tỉnh Bình Định, Miền Trung"
  },
  {
    "code": "549",
    "name": "Thị xã An Nhơn",
    "unit": "Thị xã",
    "province_code": "52",
    "province_name": "Tỉnh Bình Định",
    "area_code": "02",
    "area_name": "Miền Trung",
    "full_name": "Thị xã An Nhơn, Tỉnh Bình Định, Miền Trung"
  },
  {
    "code": "550",
    "name": "Huyện Tuy Phước",
    "unit": "Huyện",
    "province_code": "52",
    "province_name": "Tỉnh Bình Định",
    "area_code": "02",
    "area_name": "Miền Trung",
    "full_name": "Huyện Tuy Phước, Tỉnh Bình Định, Miền Trung"
  },
  {
    "code": "551",
    "name": "Huyện Vân Canh",
    "unit": "Huyện",
    "province_code": "52",
    "province_name": "Tỉnh Bình Định",
    "area_code": "02",
    "area_name": "Miền Trung",
    "full_name": "Huyện Vân Canh, Tỉnh Bình Định, Miền Trung"
  },
  {
    "code": "555",
    "name": "Thành phố Tuy Hoà",
    "unit": "Thành phố",
    "province_code": "54",
    "province_name": "Tỉnh Phú Yên",
    "area_code": "02",
    "area_name": "Miền Trung",
    "full_name": "Thành phố Tuy Hoà, Tỉnh Phú Yên, Miền Trung"
  },
  {
    "code": "557",
    "name": "Thị xã Sông Cầu",
    "unit": "Thị xã",
    "province_code": "54",
    "province_name": "Tỉnh Phú Yên",
    "area_code": "02",
    "area_name": "Miền Trung",
    "full_name": "Thị xã Sông Cầu, Tỉnh Phú Yên, Miền Trung"
  },
  {
    "code": "558",
    "name": "Huyện Đồng Xuân",
    "unit": "Huyện",
    "province_code": "54",
    "province_name": "Tỉnh Phú Yên",
    "area_code": "02",
    "area_name": "Miền Trung",
    "full_name": "Huyện Đồng Xuân, Tỉnh Phú Yên, Miền Trung"
  },
  {
    "code": "559",
    "name": "Huyện Tuy An",
    "unit": "Huyện",
    "province_code": "54",
    "province_name": "Tỉnh Phú Yên",
    "area_code": "02",
    "area_name": "Miền Trung",
    "full_name": "Huyện Tuy An, Tỉnh Phú Yên, Miền Trung"
  },
  {
    "code": "560",
    "name": "Huyện Sơn Hòa",
    "unit": "Huyện",
    "province_code": "54",
    "province_name": "Tỉnh Phú Yên",
    "area_code": "02",
    "area_name": "Miền Trung",
    "full_name": "Huyện Sơn Hòa, Tỉnh Phú Yên, Miền Trung"
  },
  {
    "code": "561",
    "name": "Huyện Sông Hinh",
    "unit": "Huyện",
    "province_code": "54",
    "province_name": "Tỉnh Phú Yên",
    "area_code": "02",
    "area_name": "Miền Trung",
    "full_name": "Huyện Sông Hinh, Tỉnh Phú Yên, Miền Trung"
  },
  {
    "code": "562",
    "name": "Huyện Tây Hoà",
    "unit": "Huyện",
    "province_code": "54",
    "province_name": "Tỉnh Phú Yên",
    "area_code": "02",
    "area_name": "Miền Trung",
    "full_name": "Huyện Tây Hoà, Tỉnh Phú Yên, Miền Trung"
  },
  {
    "code": "563",
    "name": "Huyện Phú Hoà",
    "unit": "Huyện",
    "province_code": "54",
    "province_name": "Tỉnh Phú Yên",
    "area_code": "02",
    "area_name": "Miền Trung",
    "full_name": "Huyện Phú Hoà, Tỉnh Phú Yên, Miền Trung"
  },
  {
    "code": "564",
    "name": "Huyện Đông Hòa",
    "unit": "Huyện",
    "province_code": "54",
    "province_name": "Tỉnh Phú Yên",
    "area_code": "02",
    "area_name": "Miền Trung",
    "full_name": "Huyện Đông Hòa, Tỉnh Phú Yên, Miền Trung"
  },
  {
    "code": "568",
    "name": "Thành phố Nha Trang",
    "unit": "Thành phố",
    "province_code": "56",
    "province_name": "Tỉnh Khánh Hòa",
    "area_code": "02",
    "area_name": "Miền Trung",
    "full_name": "Thành phố Nha Trang, Tỉnh Khánh Hòa, Miền Trung"
  },
  {
    "code": "569",
    "name": "Thành phố Cam Ranh",
    "unit": "Thành phố",
    "province_code": "56",
    "province_name": "Tỉnh Khánh Hòa",
    "area_code": "02",
    "area_name": "Miền Trung",
    "full_name": "Thành phố Cam Ranh, Tỉnh Khánh Hòa, Miền Trung"
  },
  {
    "code": "570",
    "name": "Huyện Cam Lâm",
    "unit": "Huyện",
    "province_code": "56",
    "province_name": "Tỉnh Khánh Hòa",
    "area_code": "02",
    "area_name": "Miền Trung",
    "full_name": "Huyện Cam Lâm, Tỉnh Khánh Hòa, Miền Trung"
  },
  {
    "code": "571",
    "name": "Huyện Vạn Ninh",
    "unit": "Huyện",
    "province_code": "56",
    "province_name": "Tỉnh Khánh Hòa",
    "area_code": "02",
    "area_name": "Miền Trung",
    "full_name": "Huyện Vạn Ninh, Tỉnh Khánh Hòa, Miền Trung"
  },
  {
    "code": "572",
    "name": "Thị xã Ninh Hòa",
    "unit": "Thị xã",
    "province_code": "56",
    "province_name": "Tỉnh Khánh Hòa",
    "area_code": "02",
    "area_name": "Miền Trung",
    "full_name": "Thị xã Ninh Hòa, Tỉnh Khánh Hòa, Miền Trung"
  },
  {
    "code": "573",
    "name": "Huyện Khánh Vĩnh",
    "unit": "Huyện",
    "province_code": "56",
    "province_name": "Tỉnh Khánh Hòa",
    "area_code": "02",
    "area_name": "Miền Trung",
    "full_name": "Huyện Khánh Vĩnh, Tỉnh Khánh Hòa, Miền Trung"
  },
  {
    "code": "574",
    "name": "Huyện Diên Khánh",
    "unit": "Huyện",
    "province_code": "56",
    "province_name": "Tỉnh Khánh Hòa",
    "area_code": "02",
    "area_name": "Miền Trung",
    "full_name": "Huyện Diên Khánh, Tỉnh Khánh Hòa, Miền Trung"
  },
  {
    "code": "575",
    "name": "Huyện Khánh Sơn",
    "unit": "Huyện",
    "province_code": "56",
    "province_name": "Tỉnh Khánh Hòa",
    "area_code": "02",
    "area_name": "Miền Trung",
    "full_name": "Huyện Khánh Sơn, Tỉnh Khánh Hòa, Miền Trung"
  },
  {
    "code": "576",
    "name": "Huyện Trường Sa",
    "unit": "Huyện",
    "province_code": "56",
    "province_name": "Tỉnh Khánh Hòa",
    "area_code": "02",
    "area_name": "Miền Trung",
    "full_name": "Huyện Trường Sa, Tỉnh Khánh Hòa, Miền Trung"
  },
  {
    "code": "582",
    "name": "Thành phố Phan Rang-Tháp Chàm",
    "unit": "Thành phố",
    "province_code": "58",
    "province_name": "Tỉnh Ninh Thuận",
    "area_code": "02",
    "area_name": "Miền Trung",
    "full_name": "Thành phố Phan Rang-Tháp Chàm, Tỉnh Ninh Thuận, Miền Trung"
  },
  {
    "code": "584",
    "name": "Huyện Bác Ái",
    "unit": "Huyện",
    "province_code": "58",
    "province_name": "Tỉnh Ninh Thuận",
    "area_code": "02",
    "area_name": "Miền Trung",
    "full_name": "Huyện Bác Ái, Tỉnh Ninh Thuận, Miền Trung"
  },
  {
    "code": "585",
    "name": "Huyện Ninh Sơn",
    "unit": "Huyện",
    "province_code": "58",
    "province_name": "Tỉnh Ninh Thuận",
    "area_code": "02",
    "area_name": "Miền Trung",
    "full_name": "Huyện Ninh Sơn, Tỉnh Ninh Thuận, Miền Trung"
  },
  {
    "code": "586",
    "name": "Huyện Ninh Hải",
    "unit": "Huyện",
    "province_code": "58",
    "province_name": "Tỉnh Ninh Thuận",
    "area_code": "02",
    "area_name": "Miền Trung",
    "full_name": "Huyện Ninh Hải, Tỉnh Ninh Thuận, Miền Trung"
  },
  {
    "code": "587",
    "name": "Huyện Ninh Phước",
    "unit": "Huyện",
    "province_code": "58",
    "province_name": "Tỉnh Ninh Thuận",
    "area_code": "02",
    "area_name": "Miền Trung",
    "full_name": "Huyện Ninh Phước, Tỉnh Ninh Thuận, Miền Trung"
  },
  {
    "code": "588",
    "name": "Huyện Thuận Bắc",
    "unit": "Huyện",
    "province_code": "58",
    "province_name": "Tỉnh Ninh Thuận",
    "area_code": "02",
    "area_name": "Miền Trung",
    "full_name": "Huyện Thuận Bắc, Tỉnh Ninh Thuận, Miền Trung"
  },
  {
    "code": "589",
    "name": "Huyện Thuận Nam",
    "unit": "Huyện",
    "province_code": "58",
    "province_name": "Tỉnh Ninh Thuận",
    "area_code": "02",
    "area_name": "Miền Trung",
    "full_name": "Huyện Thuận Nam, Tỉnh Ninh Thuận, Miền Trung"
  },
  {
    "code": "593",
    "name": "Thành phố Phan Thiết",
    "unit": "Thành phố",
    "province_code": "60",
    "province_name": "Tỉnh Bình Thuận",
    "area_code": "02",
    "area_name": "Miền Trung",
    "full_name": "Thành phố Phan Thiết, Tỉnh Bình Thuận, Miền Trung"
  },
  {
    "code": "594",
    "name": "Thị xã La Gi",
    "unit": "Thị xã",
    "province_code": "60",
    "province_name": "Tỉnh Bình Thuận",
    "area_code": "02",
    "area_name": "Miền Trung",
    "full_name": "Thị xã La Gi, Tỉnh Bình Thuận, Miền Trung"
  },
  {
    "code": "595",
    "name": "Huyện Tuy Phong",
    "unit": "Huyện",
    "province_code": "60",
    "province_name": "Tỉnh Bình Thuận",
    "area_code": "02",
    "area_name": "Miền Trung",
    "full_name": "Huyện Tuy Phong, Tỉnh Bình Thuận, Miền Trung"
  },
  {
    "code": "596",
    "name": "Huyện Bắc Bình",
    "unit": "Huyện",
    "province_code": "60",
    "province_name": "Tỉnh Bình Thuận",
    "area_code": "02",
    "area_name": "Miền Trung",
    "full_name": "Huyện Bắc Bình, Tỉnh Bình Thuận, Miền Trung"
  },
  {
    "code": "597",
    "name": "Huyện Hàm Thuận Bắc",
    "unit": "Huyện",
    "province_code": "60",
    "province_name": "Tỉnh Bình Thuận",
    "area_code": "02",
    "area_name": "Miền Trung",
    "full_name": "Huyện Hàm Thuận Bắc, Tỉnh Bình Thuận, Miền Trung"
  },
  {
    "code": "598",
    "name": "Huyện Hàm Thuận Nam",
    "unit": "Huyện",
    "province_code": "60",
    "province_name": "Tỉnh Bình Thuận",
    "area_code": "02",
    "area_name": "Miền Trung",
    "full_name": "Huyện Hàm Thuận Nam, Tỉnh Bình Thuận, Miền Trung"
  },
  {
    "code": "599",
    "name": "Huyện Tánh Linh",
    "unit": "Huyện",
    "province_code": "60",
    "province_name": "Tỉnh Bình Thuận",
    "area_code": "02",
    "area_name": "Miền Trung",
    "full_name": "Huyện Tánh Linh, Tỉnh Bình Thuận, Miền Trung"
  },
  {
    "code": "600",
    "name": "Huyện Đức Linh",
    "unit": "Huyện",
    "province_code": "60",
    "province_name": "Tỉnh Bình Thuận",
    "area_code": "02",
    "area_name": "Miền Trung",
    "full_name": "Huyện Đức Linh, Tỉnh Bình Thuận, Miền Trung"
  },
  {
    "code": "601",
    "name": "Huyện Hàm Tân",
    "unit": "Huyện",
    "province_code": "60",
    "province_name": "Tỉnh Bình Thuận",
    "area_code": "02",
    "area_name": "Miền Trung",
    "full_name": "Huyện Hàm Tân, Tỉnh Bình Thuận, Miền Trung"
  },
  {
    "code": "602",
    "name": "Huyện Phú Quí",
    "unit": "Huyện",
    "province_code": "60",
    "province_name": "Tỉnh Bình Thuận",
    "area_code": "02",
    "area_name": "Miền Trung",
    "full_name": "Huyện Phú Quí, Tỉnh Bình Thuận, Miền Trung"
  },
  {
    "code": "608",
    "name": "Thành phố Kon Tum",
    "unit": "Thành phố",
    "province_code": "62",
    "province_name": "Tỉnh Kon Tum",
    "area_code": "02",
    "area_name": "Miền Trung",
    "full_name": "Thành phố Kon Tum, Tỉnh Kon Tum, Miền Trung"
  },
  {
    "code": "610",
    "name": "Huyện Đắk Glei",
    "unit": "Huyện",
    "province_code": "62",
    "province_name": "Tỉnh Kon Tum",
    "area_code": "02",
    "area_name": "Miền Trung",
    "full_name": "Huyện Đắk Glei, Tỉnh Kon Tum, Miền Trung"
  },
  {
    "code": "611",
    "name": "Huyện Ngọc Hồi",
    "unit": "Huyện",
    "province_code": "62",
    "province_name": "Tỉnh Kon Tum",
    "area_code": "02",
    "area_name": "Miền Trung",
    "full_name": "Huyện Ngọc Hồi, Tỉnh Kon Tum, Miền Trung"
  },
  {
    "code": "612",
    "name": "Huyện Đắk Tô",
    "unit": "Huyện",
    "province_code": "62",
    "province_name": "Tỉnh Kon Tum",
    "area_code": "02",
    "area_name": "Miền Trung",
    "full_name": "Huyện Đắk Tô, Tỉnh Kon Tum, Miền Trung"
  },
  {
    "code": "613",
    "name": "Huyện Kon Plông",
    "unit": "Huyện",
    "province_code": "62",
    "province_name": "Tỉnh Kon Tum",
    "area_code": "02",
    "area_name": "Miền Trung",
    "full_name": "Huyện Kon Plông, Tỉnh Kon Tum, Miền Trung"
  },
  {
    "code": "614",
    "name": "Huyện Kon Rẫy",
    "unit": "Huyện",
    "province_code": "62",
    "province_name": "Tỉnh Kon Tum",
    "area_code": "02",
    "area_name": "Miền Trung",
    "full_name": "Huyện Kon Rẫy, Tỉnh Kon Tum, Miền Trung"
  },
  {
    "code": "615",
    "name": "Huyện Đắk Hà",
    "unit": "Huyện",
    "province_code": "62",
    "province_name": "Tỉnh Kon Tum",
    "area_code": "02",
    "area_name": "Miền Trung",
    "full_name": "Huyện Đắk Hà, Tỉnh Kon Tum, Miền Trung"
  },
  {
    "code": "616",
    "name": "Huyện Sa Thầy",
    "unit": "Huyện",
    "province_code": "62",
    "province_name": "Tỉnh Kon Tum",
    "area_code": "02",
    "area_name": "Miền Trung",
    "full_name": "Huyện Sa Thầy, Tỉnh Kon Tum, Miền Trung"
  },
  {
    "code": "617",
    "name": "Huyện Tu Mơ Rông",
    "unit": "Huyện",
    "province_code": "62",
    "province_name": "Tỉnh Kon Tum",
    "area_code": "02",
    "area_name": "Miền Trung",
    "full_name": "Huyện Tu Mơ Rông, Tỉnh Kon Tum, Miền Trung"
  },
  {
    "code": "618",
    "name": "Huyện Ia H' Drai",
    "unit": "Huyện",
    "province_code": "62",
    "province_name": "Tỉnh Kon Tum",
    "area_code": "02",
    "area_name": "Miền Trung",
    "full_name": "Huyện Ia H' Drai, Tỉnh Kon Tum, Miền Trung"
  },
  {
    "code": "622",
    "name": "Thành phố Pleiku",
    "unit": "Thành phố",
    "province_code": "64",
    "province_name": "Tỉnh Gia Lai",
    "area_code": "02",
    "area_name": "Miền Trung",
    "full_name": "Thành phố Pleiku, Tỉnh Gia Lai, Miền Trung"
  },
  {
    "code": "623",
    "name": "Thị xã An Khê",
    "unit": "Thị xã",
    "province_code": "64",
    "province_name": "Tỉnh Gia Lai",
    "area_code": "02",
    "area_name": "Miền Trung",
    "full_name": "Thị xã An Khê, Tỉnh Gia Lai, Miền Trung"
  },
  {
    "code": "624",
    "name": "Thị xã Ayun Pa",
    "unit": "Thị xã",
    "province_code": "64",
    "province_name": "Tỉnh Gia Lai",
    "area_code": "02",
    "area_name": "Miền Trung",
    "full_name": "Thị xã Ayun Pa, Tỉnh Gia Lai, Miền Trung"
  },
  {
    "code": "625",
    "name": "Huyện KBang",
    "unit": "Huyện",
    "province_code": "64",
    "province_name": "Tỉnh Gia Lai",
    "area_code": "02",
    "area_name": "Miền Trung",
    "full_name": "Huyện KBang, Tỉnh Gia Lai, Miền Trung"
  },
  {
    "code": "626",
    "name": "Huyện Đăk Đoa",
    "unit": "Huyện",
    "province_code": "64",
    "province_name": "Tỉnh Gia Lai",
    "area_code": "02",
    "area_name": "Miền Trung",
    "full_name": "Huyện Đăk Đoa, Tỉnh Gia Lai, Miền Trung"
  },
  {
    "code": "627",
    "name": "Huyện Chư Păh",
    "unit": "Huyện",
    "province_code": "64",
    "province_name": "Tỉnh Gia Lai",
    "area_code": "02",
    "area_name": "Miền Trung",
    "full_name": "Huyện Chư Păh, Tỉnh Gia Lai, Miền Trung"
  },
  {
    "code": "628",
    "name": "Huyện Ia Grai",
    "unit": "Huyện",
    "province_code": "64",
    "province_name": "Tỉnh Gia Lai",
    "area_code": "02",
    "area_name": "Miền Trung",
    "full_name": "Huyện Ia Grai, Tỉnh Gia Lai, Miền Trung"
  },
  {
    "code": "629",
    "name": "Huyện Mang Yang",
    "unit": "Huyện",
    "province_code": "64",
    "province_name": "Tỉnh Gia Lai",
    "area_code": "02",
    "area_name": "Miền Trung",
    "full_name": "Huyện Mang Yang, Tỉnh Gia Lai, Miền Trung"
  },
  {
    "code": "630",
    "name": "Huyện Kông Chro",
    "unit": "Huyện",
    "province_code": "64",
    "province_name": "Tỉnh Gia Lai",
    "area_code": "02",
    "area_name": "Miền Trung",
    "full_name": "Huyện Kông Chro, Tỉnh Gia Lai, Miền Trung"
  },
  {
    "code": "631",
    "name": "Huyện Đức Cơ",
    "unit": "Huyện",
    "province_code": "64",
    "province_name": "Tỉnh Gia Lai",
    "area_code": "02",
    "area_name": "Miền Trung",
    "full_name": "Huyện Đức Cơ, Tỉnh Gia Lai, Miền Trung"
  },
  {
    "code": "632",
    "name": "Huyện Chư Prông",
    "unit": "Huyện",
    "province_code": "64",
    "province_name": "Tỉnh Gia Lai",
    "area_code": "02",
    "area_name": "Miền Trung",
    "full_name": "Huyện Chư Prông, Tỉnh Gia Lai, Miền Trung"
  },
  {
    "code": "633",
    "name": "Huyện Chư Sê",
    "unit": "Huyện",
    "province_code": "64",
    "province_name": "Tỉnh Gia Lai",
    "area_code": "02",
    "area_name": "Miền Trung",
    "full_name": "Huyện Chư Sê, Tỉnh Gia Lai, Miền Trung"
  },
  {
    "code": "634",
    "name": "Huyện Đăk Pơ",
    "unit": "Huyện",
    "province_code": "64",
    "province_name": "Tỉnh Gia Lai",
    "area_code": "02",
    "area_name": "Miền Trung",
    "full_name": "Huyện Đăk Pơ, Tỉnh Gia Lai, Miền Trung"
  },
  {
    "code": "635",
    "name": "Huyện Ia Pa",
    "unit": "Huyện",
    "province_code": "64",
    "province_name": "Tỉnh Gia Lai",
    "area_code": "02",
    "area_name": "Miền Trung",
    "full_name": "Huyện Ia Pa, Tỉnh Gia Lai, Miền Trung"
  },
  {
    "code": "637",
    "name": "Huyện Krông Pa",
    "unit": "Huyện",
    "province_code": "64",
    "province_name": "Tỉnh Gia Lai",
    "area_code": "02",
    "area_name": "Miền Trung",
    "full_name": "Huyện Krông Pa, Tỉnh Gia Lai, Miền Trung"
  },
  {
    "code": "638",
    "name": "Huyện Phú Thiện",
    "unit": "Huyện",
    "province_code": "64",
    "province_name": "Tỉnh Gia Lai",
    "area_code": "02",
    "area_name": "Miền Trung",
    "full_name": "Huyện Phú Thiện, Tỉnh Gia Lai, Miền Trung"
  },
  {
    "code": "639",
    "name": "Huyện Chư Pưh",
    "unit": "Huyện",
    "province_code": "64",
    "province_name": "Tỉnh Gia Lai",
    "area_code": "02",
    "area_name": "Miền Trung",
    "full_name": "Huyện Chư Pưh, Tỉnh Gia Lai, Miền Trung"
  },
  {
    "code": "643",
    "name": "Thành phố Buôn Ma Thuột",
    "unit": "Thành phố",
    "province_code": "66",
    "province_name": "Tỉnh Đắk Lắk",
    "area_code": "02",
    "area_name": "Miền Trung",
    "full_name": "Thành phố Buôn Ma Thuột, Tỉnh Đắk Lắk, Miền Trung"
  },
  {
    "code": "644",
    "name": "Thị Xã Buôn Hồ",
    "unit": "Thị xã",
    "province_code": "66",
    "province_name": "Tỉnh Đắk Lắk",
    "area_code": "02",
    "area_name": "Miền Trung",
    "full_name": "Thị Xã Buôn Hồ, Tỉnh Đắk Lắk, Miền Trung"
  },
  {
    "code": "645",
    "name": "Huyện Ea H'leo",
    "unit": "Huyện",
    "province_code": "66",
    "province_name": "Tỉnh Đắk Lắk",
    "area_code": "02",
    "area_name": "Miền Trung",
    "full_name": "Huyện Ea H'leo, Tỉnh Đắk Lắk, Miền Trung"
  },
  {
    "code": "646",
    "name": "Huyện Ea Súp",
    "unit": "Huyện",
    "province_code": "66",
    "province_name": "Tỉnh Đắk Lắk",
    "area_code": "02",
    "area_name": "Miền Trung",
    "full_name": "Huyện Ea Súp, Tỉnh Đắk Lắk, Miền Trung"
  },
  {
    "code": "647",
    "name": "Huyện Buôn Đôn",
    "unit": "Huyện",
    "province_code": "66",
    "province_name": "Tỉnh Đắk Lắk",
    "area_code": "02",
    "area_name": "Miền Trung",
    "full_name": "Huyện Buôn Đôn, Tỉnh Đắk Lắk, Miền Trung"
  },
  {
    "code": "648",
    "name": "Huyện Cư M'gar",
    "unit": "Huyện",
    "province_code": "66",
    "province_name": "Tỉnh Đắk Lắk",
    "area_code": "02",
    "area_name": "Miền Trung",
    "full_name": "Huyện Cư M'gar, Tỉnh Đắk Lắk, Miền Trung"
  },
  {
    "code": "649",
    "name": "Huyện Krông Búk",
    "unit": "Huyện",
    "province_code": "66",
    "province_name": "Tỉnh Đắk Lắk",
    "area_code": "02",
    "area_name": "Miền Trung",
    "full_name": "Huyện Krông Búk, Tỉnh Đắk Lắk, Miền Trung"
  },
  {
    "code": "650",
    "name": "Huyện Krông Năng",
    "unit": "Huyện",
    "province_code": "66",
    "province_name": "Tỉnh Đắk Lắk",
    "area_code": "02",
    "area_name": "Miền Trung",
    "full_name": "Huyện Krông Năng, Tỉnh Đắk Lắk, Miền Trung"
  },
  {
    "code": "651",
    "name": "Huyện Ea Kar",
    "unit": "Huyện",
    "province_code": "66",
    "province_name": "Tỉnh Đắk Lắk",
    "area_code": "02",
    "area_name": "Miền Trung",
    "full_name": "Huyện Ea Kar, Tỉnh Đắk Lắk, Miền Trung"
  },
  {
    "code": "652",
    "name": "Huyện M'Đrắk",
    "unit": "Huyện",
    "province_code": "66",
    "province_name": "Tỉnh Đắk Lắk",
    "area_code": "02",
    "area_name": "Miền Trung",
    "full_name": "Huyện M'Đrắk, Tỉnh Đắk Lắk, Miền Trung"
  },
  {
    "code": "653",
    "name": "Huyện Krông Bông",
    "unit": "Huyện",
    "province_code": "66",
    "province_name": "Tỉnh Đắk Lắk",
    "area_code": "02",
    "area_name": "Miền Trung",
    "full_name": "Huyện Krông Bông, Tỉnh Đắk Lắk, Miền Trung"
  },
  {
    "code": "654",
    "name": "Huyện Krông Pắc",
    "unit": "Huyện",
    "province_code": "66",
    "province_name": "Tỉnh Đắk Lắk",
    "area_code": "02",
    "area_name": "Miền Trung",
    "full_name": "Huyện Krông Pắc, Tỉnh Đắk Lắk, Miền Trung"
  },
  {
    "code": "655",
    "name": "Huyện Krông A Na",
    "unit": "Huyện",
    "province_code": "66",
    "province_name": "Tỉnh Đắk Lắk",
    "area_code": "02",
    "area_name": "Miền Trung",
    "full_name": "Huyện Krông A Na, Tỉnh Đắk Lắk, Miền Trung"
  },
  {
    "code": "656",
    "name": "Huyện Lắk",
    "unit": "Huyện",
    "province_code": "66",
    "province_name": "Tỉnh Đắk Lắk",
    "area_code": "02",
    "area_name": "Miền Trung",
    "full_name": "Huyện Lắk, Tỉnh Đắk Lắk, Miền Trung"
  },
  {
    "code": "657",
    "name": "Huyện Cư Kuin",
    "unit": "Huyện",
    "province_code": "66",
    "province_name": "Tỉnh Đắk Lắk",
    "area_code": "02",
    "area_name": "Miền Trung",
    "full_name": "Huyện Cư Kuin, Tỉnh Đắk Lắk, Miền Trung"
  },
  {
    "code": "660",
    "name": "Thị xã Gia Nghĩa",
    "unit": "Thị xã",
    "province_code": "67",
    "province_name": "Tỉnh Đắk Nông",
    "area_code": "02",
    "area_name": "Miền Trung",
    "full_name": "Thị xã Gia Nghĩa, Tỉnh Đắk Nông, Miền Trung"
  },
  {
    "code": "661",
    "name": "Huyện Đăk Glong",
    "unit": "Huyện",
    "province_code": "67",
    "province_name": "Tỉnh Đắk Nông",
    "area_code": "02",
    "area_name": "Miền Trung",
    "full_name": "Huyện Đăk Glong, Tỉnh Đắk Nông, Miền Trung"
  },
  {
    "code": "662",
    "name": "Huyện Cư Jút",
    "unit": "Huyện",
    "province_code": "67",
    "province_name": "Tỉnh Đắk Nông",
    "area_code": "02",
    "area_name": "Miền Trung",
    "full_name": "Huyện Cư Jút, Tỉnh Đắk Nông, Miền Trung"
  },
  {
    "code": "663",
    "name": "Huyện Đắk Mil",
    "unit": "Huyện",
    "province_code": "67",
    "province_name": "Tỉnh Đắk Nông",
    "area_code": "02",
    "area_name": "Miền Trung",
    "full_name": "Huyện Đắk Mil, Tỉnh Đắk Nông, Miền Trung"
  },
  {
    "code": "664",
    "name": "Huyện Krông Nô",
    "unit": "Huyện",
    "province_code": "67",
    "province_name": "Tỉnh Đắk Nông",
    "area_code": "02",
    "area_name": "Miền Trung",
    "full_name": "Huyện Krông Nô, Tỉnh Đắk Nông, Miền Trung"
  },
  {
    "code": "665",
    "name": "Huyện Đắk Song",
    "unit": "Huyện",
    "province_code": "67",
    "province_name": "Tỉnh Đắk Nông",
    "area_code": "02",
    "area_name": "Miền Trung",
    "full_name": "Huyện Đắk Song, Tỉnh Đắk Nông, Miền Trung"
  },
  {
    "code": "666",
    "name": "Huyện Đắk R'Lấp",
    "unit": "Huyện",
    "province_code": "67",
    "province_name": "Tỉnh Đắk Nông",
    "area_code": "02",
    "area_name": "Miền Trung",
    "full_name": "Huyện Đắk R'Lấp, Tỉnh Đắk Nông, Miền Trung"
  },
  {
    "code": "667",
    "name": "Huyện Tuy Đức",
    "unit": "Huyện",
    "province_code": "67",
    "province_name": "Tỉnh Đắk Nông",
    "area_code": "02",
    "area_name": "Miền Trung",
    "full_name": "Huyện Tuy Đức, Tỉnh Đắk Nông, Miền Trung"
  },
  {
    "code": "672",
    "name": "Thành phố Đà Lạt",
    "unit": "Thành phố",
    "province_code": "68",
    "province_name": "Tỉnh Lâm Đồng",
    "area_code": "02",
    "area_name": "Miền Trung",
    "full_name": "Thành phố Đà Lạt, Tỉnh Lâm Đồng, Miền Trung"
  },
  {
    "code": "673",
    "name": "Thành phố Bảo Lộc",
    "unit": "Thành phố",
    "province_code": "68",
    "province_name": "Tỉnh Lâm Đồng",
    "area_code": "02",
    "area_name": "Miền Trung",
    "full_name": "Thành phố Bảo Lộc, Tỉnh Lâm Đồng, Miền Trung"
  },
  {
    "code": "674",
    "name": "Huyện Đam Rông",
    "unit": "Huyện",
    "province_code": "68",
    "province_name": "Tỉnh Lâm Đồng",
    "area_code": "02",
    "area_name": "Miền Trung",
    "full_name": "Huyện Đam Rông, Tỉnh Lâm Đồng, Miền Trung"
  },
  {
    "code": "675",
    "name": "Huyện Lạc Dương",
    "unit": "Huyện",
    "province_code": "68",
    "province_name": "Tỉnh Lâm Đồng",
    "area_code": "02",
    "area_name": "Miền Trung",
    "full_name": "Huyện Lạc Dương, Tỉnh Lâm Đồng, Miền Trung"
  },
  {
    "code": "676",
    "name": "Huyện Lâm Hà",
    "unit": "Huyện",
    "province_code": "68",
    "province_name": "Tỉnh Lâm Đồng",
    "area_code": "02",
    "area_name": "Miền Trung",
    "full_name": "Huyện Lâm Hà, Tỉnh Lâm Đồng, Miền Trung"
  },
  {
    "code": "677",
    "name": "Huyện Đơn Dương",
    "unit": "Huyện",
    "province_code": "68",
    "province_name": "Tỉnh Lâm Đồng",
    "area_code": "02",
    "area_name": "Miền Trung",
    "full_name": "Huyện Đơn Dương, Tỉnh Lâm Đồng, Miền Trung"
  },
  {
    "code": "678",
    "name": "Huyện Đức Trọng",
    "unit": "Huyện",
    "province_code": "68",
    "province_name": "Tỉnh Lâm Đồng",
    "area_code": "02",
    "area_name": "Miền Trung",
    "full_name": "Huyện Đức Trọng, Tỉnh Lâm Đồng, Miền Trung"
  },
  {
    "code": "679",
    "name": "Huyện Di Linh",
    "unit": "Huyện",
    "province_code": "68",
    "province_name": "Tỉnh Lâm Đồng",
    "area_code": "02",
    "area_name": "Miền Trung",
    "full_name": "Huyện Di Linh, Tỉnh Lâm Đồng, Miền Trung"
  },
  {
    "code": "680",
    "name": "Huyện Bảo Lâm",
    "unit": "Huyện",
    "province_code": "68",
    "province_name": "Tỉnh Lâm Đồng",
    "area_code": "02",
    "area_name": "Miền Trung",
    "full_name": "Huyện Bảo Lâm, Tỉnh Lâm Đồng, Miền Trung"
  },
  {
    "code": "681",
    "name": "Huyện Đạ Huoai",
    "unit": "Huyện",
    "province_code": "68",
    "province_name": "Tỉnh Lâm Đồng",
    "area_code": "02",
    "area_name": "Miền Trung",
    "full_name": "Huyện Đạ Huoai, Tỉnh Lâm Đồng, Miền Trung"
  },
  {
    "code": "682",
    "name": "Huyện Đạ Tẻh",
    "unit": "Huyện",
    "province_code": "68",
    "province_name": "Tỉnh Lâm Đồng",
    "area_code": "02",
    "area_name": "Miền Trung",
    "full_name": "Huyện Đạ Tẻh, Tỉnh Lâm Đồng, Miền Trung"
  },
  {
    "code": "683",
    "name": "Huyện Cát Tiên",
    "unit": "Huyện",
    "province_code": "68",
    "province_name": "Tỉnh Lâm Đồng",
    "area_code": "02",
    "area_name": "Miền Trung",
    "full_name": "Huyện Cát Tiên, Tỉnh Lâm Đồng, Miền Trung"
  },
  {
    "code": "688",
    "name": "Thị xã Phước Long",
    "unit": "Thị xã",
    "province_code": "70",
    "province_name": "Tỉnh Bình Phước",
    "area_code": "03",
    "area_name": "Miền Nam",
    "full_name": "Thị xã Phước Long, Tỉnh Bình Phước, Miền Nam"
  },
  {
    "code": "689",
    "name": "Thành phố Đồng Xoài",
    "unit": "Thành phố",
    "province_code": "70",
    "province_name": "Tỉnh Bình Phước",
    "area_code": "03",
    "area_name": "Miền Nam",
    "full_name": "Thành phố Đồng Xoài, Tỉnh Bình Phước, Miền Nam"
  },
  {
    "code": "690",
    "name": "Thị xã Bình Long",
    "unit": "Thị xã",
    "province_code": "70",
    "province_name": "Tỉnh Bình Phước",
    "area_code": "03",
    "area_name": "Miền Nam",
    "full_name": "Thị xã Bình Long, Tỉnh Bình Phước, Miền Nam"
  },
  {
    "code": "691",
    "name": "Huyện Bù Gia Mập",
    "unit": "Huyện",
    "province_code": "70",
    "province_name": "Tỉnh Bình Phước",
    "area_code": "03",
    "area_name": "Miền Nam",
    "full_name": "Huyện Bù Gia Mập, Tỉnh Bình Phước, Miền Nam"
  },
  {
    "code": "692",
    "name": "Huyện Lộc Ninh",
    "unit": "Huyện",
    "province_code": "70",
    "province_name": "Tỉnh Bình Phước",
    "area_code": "03",
    "area_name": "Miền Nam",
    "full_name": "Huyện Lộc Ninh, Tỉnh Bình Phước, Miền Nam"
  },
  {
    "code": "693",
    "name": "Huyện Bù Đốp",
    "unit": "Huyện",
    "province_code": "70",
    "province_name": "Tỉnh Bình Phước",
    "area_code": "03",
    "area_name": "Miền Nam",
    "full_name": "Huyện Bù Đốp, Tỉnh Bình Phước, Miền Nam"
  },
  {
    "code": "694",
    "name": "Huyện Hớn Quản",
    "unit": "Huyện",
    "province_code": "70",
    "province_name": "Tỉnh Bình Phước",
    "area_code": "03",
    "area_name": "Miền Nam",
    "full_name": "Huyện Hớn Quản, Tỉnh Bình Phước, Miền Nam"
  },
  {
    "code": "695",
    "name": "Huyện Đồng Phú",
    "unit": "Huyện",
    "province_code": "70",
    "province_name": "Tỉnh Bình Phước",
    "area_code": "03",
    "area_name": "Miền Nam",
    "full_name": "Huyện Đồng Phú, Tỉnh Bình Phước, Miền Nam"
  },
  {
    "code": "696",
    "name": "Huyện Bù Đăng",
    "unit": "Huyện",
    "province_code": "70",
    "province_name": "Tỉnh Bình Phước",
    "area_code": "03",
    "area_name": "Miền Nam",
    "full_name": "Huyện Bù Đăng, Tỉnh Bình Phước, Miền Nam"
  },
  {
    "code": "697",
    "name": "Huyện Chơn Thành",
    "unit": "Huyện",
    "province_code": "70",
    "province_name": "Tỉnh Bình Phước",
    "area_code": "03",
    "area_name": "Miền Nam",
    "full_name": "Huyện Chơn Thành, Tỉnh Bình Phước, Miền Nam"
  },
  {
    "code": "698",
    "name": "Huyện Phú Riềng",
    "unit": "Huyện",
    "province_code": "70",
    "province_name": "Tỉnh Bình Phước",
    "area_code": "03",
    "area_name": "Miền Nam",
    "full_name": "Huyện Phú Riềng, Tỉnh Bình Phước, Miền Nam"
  },
  {
    "code": "703",
    "name": "Thành phố Tây Ninh",
    "unit": "Thành phố",
    "province_code": "72",
    "province_name": "Tỉnh Tây Ninh",
    "area_code": "03",
    "area_name": "Miền Nam",
    "full_name": "Thành phố Tây Ninh, Tỉnh Tây Ninh, Miền Nam"
  },
  {
    "code": "705",
    "name": "Huyện Tân Biên",
    "unit": "Huyện",
    "province_code": "72",
    "province_name": "Tỉnh Tây Ninh",
    "area_code": "03",
    "area_name": "Miền Nam",
    "full_name": "Huyện Tân Biên, Tỉnh Tây Ninh, Miền Nam"
  },
  {
    "code": "706",
    "name": "Huyện Tân Châu",
    "unit": "Huyện",
    "province_code": "72",
    "province_name": "Tỉnh Tây Ninh",
    "area_code": "03",
    "area_name": "Miền Nam",
    "full_name": "Huyện Tân Châu, Tỉnh Tây Ninh, Miền Nam"
  },
  {
    "code": "707",
    "name": "Huyện Dương Minh Châu",
    "unit": "Huyện",
    "province_code": "72",
    "province_name": "Tỉnh Tây Ninh",
    "area_code": "03",
    "area_name": "Miền Nam",
    "full_name": "Huyện Dương Minh Châu, Tỉnh Tây Ninh, Miền Nam"
  },
  {
    "code": "708",
    "name": "Huyện Châu Thành",
    "unit": "Huyện",
    "province_code": "72",
    "province_name": "Tỉnh Tây Ninh",
    "area_code": "03",
    "area_name": "Miền Nam",
    "full_name": "Huyện Châu Thành, Tỉnh Tây Ninh, Miền Nam"
  },
  {
    "code": "709",
    "name": "Huyện Hòa Thành",
    "unit": "Huyện",
    "province_code": "72",
    "province_name": "Tỉnh Tây Ninh",
    "area_code": "03",
    "area_name": "Miền Nam",
    "full_name": "Huyện Hòa Thành, Tỉnh Tây Ninh, Miền Nam"
  },
  {
    "code": "710",
    "name": "Huyện Gò Dầu",
    "unit": "Huyện",
    "province_code": "72",
    "province_name": "Tỉnh Tây Ninh",
    "area_code": "03",
    "area_name": "Miền Nam",
    "full_name": "Huyện Gò Dầu, Tỉnh Tây Ninh, Miền Nam"
  },
  {
    "code": "711",
    "name": "Huyện Bến Cầu",
    "unit": "Huyện",
    "province_code": "72",
    "province_name": "Tỉnh Tây Ninh",
    "area_code": "03",
    "area_name": "Miền Nam",
    "full_name": "Huyện Bến Cầu, Tỉnh Tây Ninh, Miền Nam"
  },
  {
    "code": "712",
    "name": "Huyện Trảng Bàng",
    "unit": "Huyện",
    "province_code": "72",
    "province_name": "Tỉnh Tây Ninh",
    "area_code": "03",
    "area_name": "Miền Nam",
    "full_name": "Huyện Trảng Bàng, Tỉnh Tây Ninh, Miền Nam"
  },
  {
    "code": "718",
    "name": "Thành phố Thủ Dầu Một",
    "unit": "Thành phố",
    "province_code": "74",
    "province_name": "Tỉnh Bình Dương",
    "area_code": "03",
    "area_name": "Miền Nam",
    "full_name": "Thành phố Thủ Dầu Một, Tỉnh Bình Dương, Miền Nam"
  },
  {
    "code": "719",
    "name": "Huyện Bàu Bàng",
    "unit": "Huyện",
    "province_code": "74",
    "province_name": "Tỉnh Bình Dương",
    "area_code": "03",
    "area_name": "Miền Nam",
    "full_name": "Huyện Bàu Bàng, Tỉnh Bình Dương, Miền Nam"
  },
  {
    "code": "720",
    "name": "Huyện Dầu Tiếng",
    "unit": "Huyện",
    "province_code": "74",
    "province_name": "Tỉnh Bình Dương",
    "area_code": "03",
    "area_name": "Miền Nam",
    "full_name": "Huyện Dầu Tiếng, Tỉnh Bình Dương, Miền Nam"
  },
  {
    "code": "721",
    "name": "Thị xã Bến Cát",
    "unit": "Thị xã",
    "province_code": "74",
    "province_name": "Tỉnh Bình Dương",
    "area_code": "03",
    "area_name": "Miền Nam",
    "full_name": "Thị xã Bến Cát, Tỉnh Bình Dương, Miền Nam"
  },
  {
    "code": "722",
    "name": "Huyện Phú Giáo",
    "unit": "Huyện",
    "province_code": "74",
    "province_name": "Tỉnh Bình Dương",
    "area_code": "03",
    "area_name": "Miền Nam",
    "full_name": "Huyện Phú Giáo, Tỉnh Bình Dương, Miền Nam"
  },
  {
    "code": "723",
    "name": "Thị xã Tân Uyên",
    "unit": "Thị xã",
    "province_code": "74",
    "province_name": "Tỉnh Bình Dương",
    "area_code": "03",
    "area_name": "Miền Nam",
    "full_name": "Thị xã Tân Uyên, Tỉnh Bình Dương, Miền Nam"
  },
  {
    "code": "724",
    "name": "Thị xã Dĩ An",
    "unit": "Thị xã",
    "province_code": "74",
    "province_name": "Tỉnh Bình Dương",
    "area_code": "03",
    "area_name": "Miền Nam",
    "full_name": "Thị xã Dĩ An, Tỉnh Bình Dương, Miền Nam"
  },
  {
    "code": "725",
    "name": "Thị xã Thuận An",
    "unit": "Thị xã",
    "province_code": "74",
    "province_name": "Tỉnh Bình Dương",
    "area_code": "03",
    "area_name": "Miền Nam",
    "full_name": "Thị xã Thuận An, Tỉnh Bình Dương, Miền Nam"
  },
  {
    "code": "726",
    "name": "Huyện Bắc Tân Uyên",
    "unit": "Huyện",
    "province_code": "74",
    "province_name": "Tỉnh Bình Dương",
    "area_code": "03",
    "area_name": "Miền Nam",
    "full_name": "Huyện Bắc Tân Uyên, Tỉnh Bình Dương, Miền Nam"
  },
  {
    "code": "731",
    "name": "Thành phố Biên Hòa",
    "unit": "Thành phố",
    "province_code": "75",
    "province_name": "Tỉnh Đồng Nai",
    "area_code": "03",
    "area_name": "Miền Nam",
    "full_name": "Thành phố Biên Hòa, Tỉnh Đồng Nai, Miền Nam"
  },
  {
    "code": "732",
    "name": "Thành phố Long Khánh",
    "unit": "Thành phố",
    "province_code": "75",
    "province_name": "Tỉnh Đồng Nai",
    "area_code": "03",
    "area_name": "Miền Nam",
    "full_name": "Thành phố Long Khánh, Tỉnh Đồng Nai, Miền Nam"
  },
  {
    "code": "734",
    "name": "Huyện Tân Phú",
    "unit": "Huyện",
    "province_code": "75",
    "province_name": "Tỉnh Đồng Nai",
    "area_code": "03",
    "area_name": "Miền Nam",
    "full_name": "Huyện Tân Phú, Tỉnh Đồng Nai, Miền Nam"
  },
  {
    "code": "735",
    "name": "Huyện Vĩnh Cửu",
    "unit": "Huyện",
    "province_code": "75",
    "province_name": "Tỉnh Đồng Nai",
    "area_code": "03",
    "area_name": "Miền Nam",
    "full_name": "Huyện Vĩnh Cửu, Tỉnh Đồng Nai, Miền Nam"
  },
  {
    "code": "736",
    "name": "Huyện Định Quán",
    "unit": "Huyện",
    "province_code": "75",
    "province_name": "Tỉnh Đồng Nai",
    "area_code": "03",
    "area_name": "Miền Nam",
    "full_name": "Huyện Định Quán, Tỉnh Đồng Nai, Miền Nam"
  },
  {
    "code": "737",
    "name": "Huyện Trảng Bom",
    "unit": "Huyện",
    "province_code": "75",
    "province_name": "Tỉnh Đồng Nai",
    "area_code": "03",
    "area_name": "Miền Nam",
    "full_name": "Huyện Trảng Bom, Tỉnh Đồng Nai, Miền Nam"
  },
  {
    "code": "738",
    "name": "Huyện Thống Nhất",
    "unit": "Huyện",
    "province_code": "75",
    "province_name": "Tỉnh Đồng Nai",
    "area_code": "03",
    "area_name": "Miền Nam",
    "full_name": "Huyện Thống Nhất, Tỉnh Đồng Nai, Miền Nam"
  },
  {
    "code": "739",
    "name": "Huyện Cẩm Mỹ",
    "unit": "Huyện",
    "province_code": "75",
    "province_name": "Tỉnh Đồng Nai",
    "area_code": "03",
    "area_name": "Miền Nam",
    "full_name": "Huyện Cẩm Mỹ, Tỉnh Đồng Nai, Miền Nam"
  },
  {
    "code": "740",
    "name": "Huyện Long Thành",
    "unit": "Huyện",
    "province_code": "75",
    "province_name": "Tỉnh Đồng Nai",
    "area_code": "03",
    "area_name": "Miền Nam",
    "full_name": "Huyện Long Thành, Tỉnh Đồng Nai, Miền Nam"
  },
  {
    "code": "741",
    "name": "Huyện Xuân Lộc",
    "unit": "Huyện",
    "province_code": "75",
    "province_name": "Tỉnh Đồng Nai",
    "area_code": "03",
    "area_name": "Miền Nam",
    "full_name": "Huyện Xuân Lộc, Tỉnh Đồng Nai, Miền Nam"
  },
  {
    "code": "742",
    "name": "Huyện Nhơn Trạch",
    "unit": "Huyện",
    "province_code": "75",
    "province_name": "Tỉnh Đồng Nai",
    "area_code": "03",
    "area_name": "Miền Nam",
    "full_name": "Huyện Nhơn Trạch, Tỉnh Đồng Nai, Miền Nam"
  },
  {
    "code": "747",
    "name": "Thành phố Vũng Tàu",
    "unit": "Thành phố",
    "province_code": "77",
    "province_name": "Tỉnh Bà Rịa - Vũng Tàu",
    "area_code": "03",
    "area_name": "Miền Nam",
    "full_name": "Thành phố Vũng Tàu, Tỉnh Bà Rịa - Vũng Tàu, Miền Nam"
  },
  {
    "code": "748",
    "name": "Thành phố Bà Rịa",
    "unit": "Thành phố",
    "province_code": "77",
    "province_name": "Tỉnh Bà Rịa - Vũng Tàu",
    "area_code": "03",
    "area_name": "Miền Nam",
    "full_name": "Thành phố Bà Rịa, Tỉnh Bà Rịa - Vũng Tàu, Miền Nam"
  },
  {
    "code": "750",
    "name": "Huyện Châu Đức",
    "unit": "Huyện",
    "province_code": "77",
    "province_name": "Tỉnh Bà Rịa - Vũng Tàu",
    "area_code": "03",
    "area_name": "Miền Nam",
    "full_name": "Huyện Châu Đức, Tỉnh Bà Rịa - Vũng Tàu, Miền Nam"
  },
  {
    "code": "751",
    "name": "Huyện Xuyên Mộc",
    "unit": "Huyện",
    "province_code": "77",
    "province_name": "Tỉnh Bà Rịa - Vũng Tàu",
    "area_code": "03",
    "area_name": "Miền Nam",
    "full_name": "Huyện Xuyên Mộc, Tỉnh Bà Rịa - Vũng Tàu, Miền Nam"
  },
  {
    "code": "752",
    "name": "Huyện Long Điền",
    "unit": "Huyện",
    "province_code": "77",
    "province_name": "Tỉnh Bà Rịa - Vũng Tàu",
    "area_code": "03",
    "area_name": "Miền Nam",
    "full_name": "Huyện Long Điền, Tỉnh Bà Rịa - Vũng Tàu, Miền Nam"
  },
  {
    "code": "753",
    "name": "Huyện Đất Đỏ",
    "unit": "Huyện",
    "province_code": "77",
    "province_name": "Tỉnh Bà Rịa - Vũng Tàu",
    "area_code": "03",
    "area_name": "Miền Nam",
    "full_name": "Huyện Đất Đỏ, Tỉnh Bà Rịa - Vũng Tàu, Miền Nam"
  },
  {
    "code": "754",
    "name": "Thị xã Phú Mỹ",
    "unit": "Thị xã",
    "province_code": "77",
    "province_name": "Tỉnh Bà Rịa - Vũng Tàu",
    "area_code": "03",
    "area_name": "Miền Nam",
    "full_name": "Thị xã Phú Mỹ, Tỉnh Bà Rịa - Vũng Tàu, Miền Nam"
  },
  {
    "code": "755",
    "name": "Huyện Côn Đảo",
    "unit": "Huyện",
    "province_code": "77",
    "province_name": "Tỉnh Bà Rịa - Vũng Tàu",
    "area_code": "03",
    "area_name": "Miền Nam",
    "full_name": "Huyện Côn Đảo, Tỉnh Bà Rịa - Vũng Tàu, Miền Nam"
  },
  {
    "code": "760",
    "name": "Quận 1",
    "unit": "Quận",
    "province_code": "79",
    "province_name": "Thành phố Hồ Chí Minh",
    "area_code": "03",
    "area_name": "Miền Nam",
    "full_name": "Quận 1, Thành phố Hồ Chí Minh, Miền Nam"
  },
  {
    "code": "761",
    "name": "Quận 12",
    "unit": "Quận",
    "province_code": "79",
    "province_name": "Thành phố Hồ Chí Minh",
    "area_code": "03",
    "area_name": "Miền Nam",
    "full_name": "Quận 12, Thành phố Hồ Chí Minh, Miền Nam"
  },
  {
    "code": "762",
    "name": "Quận Thủ Đức",
    "unit": "Quận",
    "province_code": "79",
    "province_name": "Thành phố Hồ Chí Minh",
    "area_code": "03",
    "area_name": "Miền Nam",
    "full_name": "Quận Thủ Đức, Thành phố Hồ Chí Minh, Miền Nam"
  },
  {
    "code": "763",
    "name": "Quận 9",
    "unit": "Quận",
    "province_code": "79",
    "province_name": "Thành phố Hồ Chí Minh",
    "area_code": "03",
    "area_name": "Miền Nam",
    "full_name": "Quận 9, Thành phố Hồ Chí Minh, Miền Nam"
  },
  {
    "code": "764",
    "name": "Quận Gò Vấp",
    "unit": "Quận",
    "province_code": "79",
    "province_name": "Thành phố Hồ Chí Minh",
    "area_code": "03",
    "area_name": "Miền Nam",
    "full_name": "Quận Gò Vấp, Thành phố Hồ Chí Minh, Miền Nam"
  },
  {
    "code": "765",
    "name": "Quận Bình Thạnh",
    "unit": "Quận",
    "province_code": "79",
    "province_name": "Thành phố Hồ Chí Minh",
    "area_code": "03",
    "area_name": "Miền Nam",
    "full_name": "Quận Bình Thạnh, Thành phố Hồ Chí Minh, Miền Nam"
  },
  {
    "code": "766",
    "name": "Quận Tân Bình",
    "unit": "Quận",
    "province_code": "79",
    "province_name": "Thành phố Hồ Chí Minh",
    "area_code": "03",
    "area_name": "Miền Nam",
    "full_name": "Quận Tân Bình, Thành phố Hồ Chí Minh, Miền Nam"
  },
  {
    "code": "767",
    "name": "Quận Tân Phú",
    "unit": "Quận",
    "province_code": "79",
    "province_name": "Thành phố Hồ Chí Minh",
    "area_code": "03",
    "area_name": "Miền Nam",
    "full_name": "Quận Tân Phú, Thành phố Hồ Chí Minh, Miền Nam"
  },
  {
    "code": "768",
    "name": "Quận Phú Nhuận",
    "unit": "Quận",
    "province_code": "79",
    "province_name": "Thành phố Hồ Chí Minh",
    "area_code": "03",
    "area_name": "Miền Nam",
    "full_name": "Quận Phú Nhuận, Thành phố Hồ Chí Minh, Miền Nam"
  },
  {
    "code": "769",
    "name": "Quận 2",
    "unit": "Quận",
    "province_code": "79",
    "province_name": "Thành phố Hồ Chí Minh",
    "area_code": "03",
    "area_name": "Miền Nam",
    "full_name": "Quận 2, Thành phố Hồ Chí Minh, Miền Nam"
  },
  {
    "code": "770",
    "name": "Quận 3",
    "unit": "Quận",
    "province_code": "79",
    "province_name": "Thành phố Hồ Chí Minh",
    "area_code": "03",
    "area_name": "Miền Nam",
    "full_name": "Quận 3, Thành phố Hồ Chí Minh, Miền Nam"
  },
  {
    "code": "771",
    "name": "Quận 10",
    "unit": "Quận",
    "province_code": "79",
    "province_name": "Thành phố Hồ Chí Minh",
    "area_code": "03",
    "area_name": "Miền Nam",
    "full_name": "Quận 10, Thành phố Hồ Chí Minh, Miền Nam"
  },
  {
    "code": "772",
    "name": "Quận 11",
    "unit": "Quận",
    "province_code": "79",
    "province_name": "Thành phố Hồ Chí Minh",
    "area_code": "03",
    "area_name": "Miền Nam",
    "full_name": "Quận 11, Thành phố Hồ Chí Minh, Miền Nam"
  },
  {
    "code": "773",
    "name": "Quận 4",
    "unit": "Quận",
    "province_code": "79",
    "province_name": "Thành phố Hồ Chí Minh",
    "area_code": "03",
    "area_name": "Miền Nam",
    "full_name": "Quận 4, Thành phố Hồ Chí Minh, Miền Nam"
  },
  {
    "code": "774",
    "name": "Quận 5",
    "unit": "Quận",
    "province_code": "79",
    "province_name": "Thành phố Hồ Chí Minh",
    "area_code": "03",
    "area_name": "Miền Nam",
    "full_name": "Quận 5, Thành phố Hồ Chí Minh, Miền Nam"
  },
  {
    "code": "775",
    "name": "Quận 6",
    "unit": "Quận",
    "province_code": "79",
    "province_name": "Thành phố Hồ Chí Minh",
    "area_code": "03",
    "area_name": "Miền Nam",
    "full_name": "Quận 6, Thành phố Hồ Chí Minh, Miền Nam"
  },
  {
    "code": "776",
    "name": "Quận 8",
    "unit": "Quận",
    "province_code": "79",
    "province_name": "Thành phố Hồ Chí Minh",
    "area_code": "03",
    "area_name": "Miền Nam",
    "full_name": "Quận 8, Thành phố Hồ Chí Minh, Miền Nam"
  },
  {
    "code": "777",
    "name": "Quận Bình Tân",
    "unit": "Quận",
    "province_code": "79",
    "province_name": "Thành phố Hồ Chí Minh",
    "area_code": "03",
    "area_name": "Miền Nam",
    "full_name": "Quận Bình Tân, Thành phố Hồ Chí Minh, Miền Nam"
  },
  {
    "code": "778",
    "name": "Quận 7",
    "unit": "Quận",
    "province_code": "79",
    "province_name": "Thành phố Hồ Chí Minh",
    "area_code": "03",
    "area_name": "Miền Nam",
    "full_name": "Quận 7, Thành phố Hồ Chí Minh, Miền Nam"
  },
  {
    "code": "783",
    "name": "Huyện Củ Chi",
    "unit": "Huyện",
    "province_code": "79",
    "province_name": "Thành phố Hồ Chí Minh",
    "area_code": "03",
    "area_name": "Miền Nam",
    "full_name": "Huyện Củ Chi, Thành phố Hồ Chí Minh, Miền Nam"
  },
  {
    "code": "784",
    "name": "Huyện Hóc Môn",
    "unit": "Huyện",
    "province_code": "79",
    "province_name": "Thành phố Hồ Chí Minh",
    "area_code": "03",
    "area_name": "Miền Nam",
    "full_name": "Huyện Hóc Môn, Thành phố Hồ Chí Minh, Miền Nam"
  },
  {
    "code": "785",
    "name": "Huyện Bình Chánh",
    "unit": "Huyện",
    "province_code": "79",
    "province_name": "Thành phố Hồ Chí Minh",
    "area_code": "03",
    "area_name": "Miền Nam",
    "full_name": "Huyện Bình Chánh, Thành phố Hồ Chí Minh, Miền Nam"
  },
  {
    "code": "786",
    "name": "Huyện Nhà Bè",
    "unit": "Huyện",
    "province_code": "79",
    "province_name": "Thành phố Hồ Chí Minh",
    "area_code": "03",
    "area_name": "Miền Nam",
    "full_name": "Huyện Nhà Bè, Thành phố Hồ Chí Minh, Miền Nam"
  },
  {
    "code": "787",
    "name": "Huyện Cần Giờ",
    "unit": "Huyện",
    "province_code": "79",
    "province_name": "Thành phố Hồ Chí Minh",
    "area_code": "03",
    "area_name": "Miền Nam",
    "full_name": "Huyện Cần Giờ, Thành phố Hồ Chí Minh, Miền Nam"
  },
  {
    "code": "794",
    "name": "Thành phố Tân An",
    "unit": "Thành phố",
    "province_code": "80",
    "province_name": "Tỉnh Long An",
    "area_code": "03",
    "area_name": "Miền Nam",
    "full_name": "Thành phố Tân An, Tỉnh Long An, Miền Nam"
  },
  {
    "code": "795",
    "name": "Thị xã Kiến Tường",
    "unit": "Thị xã",
    "province_code": "80",
    "province_name": "Tỉnh Long An",
    "area_code": "03",
    "area_name": "Miền Nam",
    "full_name": "Thị xã Kiến Tường, Tỉnh Long An, Miền Nam"
  },
  {
    "code": "796",
    "name": "Huyện Tân Hưng",
    "unit": "Huyện",
    "province_code": "80",
    "province_name": "Tỉnh Long An",
    "area_code": "03",
    "area_name": "Miền Nam",
    "full_name": "Huyện Tân Hưng, Tỉnh Long An, Miền Nam"
  },
  {
    "code": "797",
    "name": "Huyện Vĩnh Hưng",
    "unit": "Huyện",
    "province_code": "80",
    "province_name": "Tỉnh Long An",
    "area_code": "03",
    "area_name": "Miền Nam",
    "full_name": "Huyện Vĩnh Hưng, Tỉnh Long An, Miền Nam"
  },
  {
    "code": "798",
    "name": "Huyện Mộc Hóa",
    "unit": "Huyện",
    "province_code": "80",
    "province_name": "Tỉnh Long An",
    "area_code": "03",
    "area_name": "Miền Nam",
    "full_name": "Huyện Mộc Hóa, Tỉnh Long An, Miền Nam"
  },
  {
    "code": "799",
    "name": "Huyện Tân Thạnh",
    "unit": "Huyện",
    "province_code": "80",
    "province_name": "Tỉnh Long An",
    "area_code": "03",
    "area_name": "Miền Nam",
    "full_name": "Huyện Tân Thạnh, Tỉnh Long An, Miền Nam"
  },
  {
    "code": "800",
    "name": "Huyện Thạnh Hóa",
    "unit": "Huyện",
    "province_code": "80",
    "province_name": "Tỉnh Long An",
    "area_code": "03",
    "area_name": "Miền Nam",
    "full_name": "Huyện Thạnh Hóa, Tỉnh Long An, Miền Nam"
  },
  {
    "code": "801",
    "name": "Huyện Đức Huệ",
    "unit": "Huyện",
    "province_code": "80",
    "province_name": "Tỉnh Long An",
    "area_code": "03",
    "area_name": "Miền Nam",
    "full_name": "Huyện Đức Huệ, Tỉnh Long An, Miền Nam"
  },
  {
    "code": "802",
    "name": "Huyện Đức Hòa",
    "unit": "Huyện",
    "province_code": "80",
    "province_name": "Tỉnh Long An",
    "area_code": "03",
    "area_name": "Miền Nam",
    "full_name": "Huyện Đức Hòa, Tỉnh Long An, Miền Nam"
  },
  {
    "code": "803",
    "name": "Huyện Bến Lức",
    "unit": "Huyện",
    "province_code": "80",
    "province_name": "Tỉnh Long An",
    "area_code": "03",
    "area_name": "Miền Nam",
    "full_name": "Huyện Bến Lức, Tỉnh Long An, Miền Nam"
  },
  {
    "code": "804",
    "name": "Huyện Thủ Thừa",
    "unit": "Huyện",
    "province_code": "80",
    "province_name": "Tỉnh Long An",
    "area_code": "03",
    "area_name": "Miền Nam",
    "full_name": "Huyện Thủ Thừa, Tỉnh Long An, Miền Nam"
  },
  {
    "code": "805",
    "name": "Huyện Tân Trụ",
    "unit": "Huyện",
    "province_code": "80",
    "province_name": "Tỉnh Long An",
    "area_code": "03",
    "area_name": "Miền Nam",
    "full_name": "Huyện Tân Trụ, Tỉnh Long An, Miền Nam"
  },
  {
    "code": "806",
    "name": "Huyện Cần Đước",
    "unit": "Huyện",
    "province_code": "80",
    "province_name": "Tỉnh Long An",
    "area_code": "03",
    "area_name": "Miền Nam",
    "full_name": "Huyện Cần Đước, Tỉnh Long An, Miền Nam"
  },
  {
    "code": "807",
    "name": "Huyện Cần Giuộc",
    "unit": "Huyện",
    "province_code": "80",
    "province_name": "Tỉnh Long An",
    "area_code": "03",
    "area_name": "Miền Nam",
    "full_name": "Huyện Cần Giuộc, Tỉnh Long An, Miền Nam"
  },
  {
    "code": "808",
    "name": "Huyện Châu Thành",
    "unit": "Huyện",
    "province_code": "80",
    "province_name": "Tỉnh Long An",
    "area_code": "03",
    "area_name": "Miền Nam",
    "full_name": "Huyện Châu Thành, Tỉnh Long An, Miền Nam"
  },
  {
    "code": "815",
    "name": "Thành phố Mỹ Tho",
    "unit": "Thành phố",
    "province_code": "82",
    "province_name": "Tỉnh Tiền Giang",
    "area_code": "03",
    "area_name": "Miền Nam",
    "full_name": "Thành phố Mỹ Tho, Tỉnh Tiền Giang, Miền Nam"
  },
  {
    "code": "816",
    "name": "Thị xã Gò Công",
    "unit": "Thị xã",
    "province_code": "82",
    "province_name": "Tỉnh Tiền Giang",
    "area_code": "03",
    "area_name": "Miền Nam",
    "full_name": "Thị xã Gò Công, Tỉnh Tiền Giang, Miền Nam"
  },
  {
    "code": "817",
    "name": "Thị xã Cai Lậy",
    "unit": "Huyện",
    "province_code": "82",
    "province_name": "Tỉnh Tiền Giang",
    "area_code": "03",
    "area_name": "Miền Nam",
    "full_name": "Thị xã Cai Lậy, Tỉnh Tiền Giang, Miền Nam"
  },
  {
    "code": "818",
    "name": "Huyện Tân Phước",
    "unit": "Huyện",
    "province_code": "82",
    "province_name": "Tỉnh Tiền Giang",
    "area_code": "03",
    "area_name": "Miền Nam",
    "full_name": "Huyện Tân Phước, Tỉnh Tiền Giang, Miền Nam"
  },
  {
    "code": "819",
    "name": "Huyện Cái Bè",
    "unit": "Huyện",
    "province_code": "82",
    "province_name": "Tỉnh Tiền Giang",
    "area_code": "03",
    "area_name": "Miền Nam",
    "full_name": "Huyện Cái Bè, Tỉnh Tiền Giang, Miền Nam"
  },
  {
    "code": "820",
    "name": "Huyện Cai Lậy",
    "unit": "Thị xã",
    "province_code": "82",
    "province_name": "Tỉnh Tiền Giang",
    "area_code": "03",
    "area_name": "Miền Nam",
    "full_name": "Huyện Cai Lậy, Tỉnh Tiền Giang, Miền Nam"
  },
  {
    "code": "821",
    "name": "Huyện Châu Thành",
    "unit": "Huyện",
    "province_code": "82",
    "province_name": "Tỉnh Tiền Giang",
    "area_code": "03",
    "area_name": "Miền Nam",
    "full_name": "Huyện Châu Thành, Tỉnh Tiền Giang, Miền Nam"
  },
  {
    "code": "822",
    "name": "Huyện Chợ Gạo",
    "unit": "Huyện",
    "province_code": "82",
    "province_name": "Tỉnh Tiền Giang",
    "area_code": "03",
    "area_name": "Miền Nam",
    "full_name": "Huyện Chợ Gạo, Tỉnh Tiền Giang, Miền Nam"
  },
  {
    "code": "823",
    "name": "Huyện Gò Công Tây",
    "unit": "Huyện",
    "province_code": "82",
    "province_name": "Tỉnh Tiền Giang",
    "area_code": "03",
    "area_name": "Miền Nam",
    "full_name": "Huyện Gò Công Tây, Tỉnh Tiền Giang, Miền Nam"
  },
  {
    "code": "824",
    "name": "Huyện Gò Công Đông",
    "unit": "Huyện",
    "province_code": "82",
    "province_name": "Tỉnh Tiền Giang",
    "area_code": "03",
    "area_name": "Miền Nam",
    "full_name": "Huyện Gò Công Đông, Tỉnh Tiền Giang, Miền Nam"
  },
  {
    "code": "825",
    "name": "Huyện Tân Phú Đông",
    "unit": "Huyện",
    "province_code": "82",
    "province_name": "Tỉnh Tiền Giang",
    "area_code": "03",
    "area_name": "Miền Nam",
    "full_name": "Huyện Tân Phú Đông, Tỉnh Tiền Giang, Miền Nam"
  },
  {
    "code": "829",
    "name": "Thành phố Bến Tre",
    "unit": "Thành phố",
    "province_code": "83",
    "province_name": "Tỉnh Bến Tre",
    "area_code": "03",
    "area_name": "Miền Nam",
    "full_name": "Thành phố Bến Tre, Tỉnh Bến Tre, Miền Nam"
  },
  {
    "code": "831",
    "name": "Huyện Châu Thành",
    "unit": "Huyện",
    "province_code": "83",
    "province_name": "Tỉnh Bến Tre",
    "area_code": "03",
    "area_name": "Miền Nam",
    "full_name": "Huyện Châu Thành, Tỉnh Bến Tre, Miền Nam"
  },
  {
    "code": "832",
    "name": "Huyện Chợ Lách",
    "unit": "Huyện",
    "province_code": "83",
    "province_name": "Tỉnh Bến Tre",
    "area_code": "03",
    "area_name": "Miền Nam",
    "full_name": "Huyện Chợ Lách, Tỉnh Bến Tre, Miền Nam"
  },
  {
    "code": "833",
    "name": "Huyện Mỏ Cày Nam",
    "unit": "Huyện",
    "province_code": "83",
    "province_name": "Tỉnh Bến Tre",
    "area_code": "03",
    "area_name": "Miền Nam",
    "full_name": "Huyện Mỏ Cày Nam, Tỉnh Bến Tre, Miền Nam"
  },
  {
    "code": "834",
    "name": "Huyện Giồng Trôm",
    "unit": "Huyện",
    "province_code": "83",
    "province_name": "Tỉnh Bến Tre",
    "area_code": "03",
    "area_name": "Miền Nam",
    "full_name": "Huyện Giồng Trôm, Tỉnh Bến Tre, Miền Nam"
  },
  {
    "code": "835",
    "name": "Huyện Bình Đại",
    "unit": "Huyện",
    "province_code": "83",
    "province_name": "Tỉnh Bến Tre",
    "area_code": "03",
    "area_name": "Miền Nam",
    "full_name": "Huyện Bình Đại, Tỉnh Bến Tre, Miền Nam"
  },
  {
    "code": "836",
    "name": "Huyện Ba Tri",
    "unit": "Huyện",
    "province_code": "83",
    "province_name": "Tỉnh Bến Tre",
    "area_code": "03",
    "area_name": "Miền Nam",
    "full_name": "Huyện Ba Tri, Tỉnh Bến Tre, Miền Nam"
  },
  {
    "code": "837",
    "name": "Huyện Thạnh Phú",
    "unit": "Huyện",
    "province_code": "83",
    "province_name": "Tỉnh Bến Tre",
    "area_code": "03",
    "area_name": "Miền Nam",
    "full_name": "Huyện Thạnh Phú, Tỉnh Bến Tre, Miền Nam"
  },
  {
    "code": "838",
    "name": "Huyện Mỏ Cày Bắc",
    "unit": "Huyện",
    "province_code": "83",
    "province_name": "Tỉnh Bến Tre",
    "area_code": "03",
    "area_name": "Miền Nam",
    "full_name": "Huyện Mỏ Cày Bắc, Tỉnh Bến Tre, Miền Nam"
  },
  {
    "code": "842",
    "name": "Thành phố Trà Vinh",
    "unit": "Thành phố",
    "province_code": "84",
    "province_name": "Tỉnh Trà Vinh",
    "area_code": "03",
    "area_name": "Miền Nam",
    "full_name": "Thành phố Trà Vinh, Tỉnh Trà Vinh, Miền Nam"
  },
  {
    "code": "844",
    "name": "Huyện Càng Long",
    "unit": "Huyện",
    "province_code": "84",
    "province_name": "Tỉnh Trà Vinh",
    "area_code": "03",
    "area_name": "Miền Nam",
    "full_name": "Huyện Càng Long, Tỉnh Trà Vinh, Miền Nam"
  },
  {
    "code": "845",
    "name": "Huyện Cầu Kè",
    "unit": "Huyện",
    "province_code": "84",
    "province_name": "Tỉnh Trà Vinh",
    "area_code": "03",
    "area_name": "Miền Nam",
    "full_name": "Huyện Cầu Kè, Tỉnh Trà Vinh, Miền Nam"
  },
  {
    "code": "846",
    "name": "Huyện Tiểu Cần",
    "unit": "Huyện",
    "province_code": "84",
    "province_name": "Tỉnh Trà Vinh",
    "area_code": "03",
    "area_name": "Miền Nam",
    "full_name": "Huyện Tiểu Cần, Tỉnh Trà Vinh, Miền Nam"
  },
  {
    "code": "847",
    "name": "Huyện Châu Thành",
    "unit": "Huyện",
    "province_code": "84",
    "province_name": "Tỉnh Trà Vinh",
    "area_code": "03",
    "area_name": "Miền Nam",
    "full_name": "Huyện Châu Thành, Tỉnh Trà Vinh, Miền Nam"
  },
  {
    "code": "848",
    "name": "Huyện Cầu Ngang",
    "unit": "Huyện",
    "province_code": "84",
    "province_name": "Tỉnh Trà Vinh",
    "area_code": "03",
    "area_name": "Miền Nam",
    "full_name": "Huyện Cầu Ngang, Tỉnh Trà Vinh, Miền Nam"
  },
  {
    "code": "849",
    "name": "Huyện Trà Cú",
    "unit": "Huyện",
    "province_code": "84",
    "province_name": "Tỉnh Trà Vinh",
    "area_code": "03",
    "area_name": "Miền Nam",
    "full_name": "Huyện Trà Cú, Tỉnh Trà Vinh, Miền Nam"
  },
  {
    "code": "850",
    "name": "Huyện Duyên Hải",
    "unit": "Huyện",
    "province_code": "84",
    "province_name": "Tỉnh Trà Vinh",
    "area_code": "03",
    "area_name": "Miền Nam",
    "full_name": "Huyện Duyên Hải, Tỉnh Trà Vinh, Miền Nam"
  },
  {
    "code": "851",
    "name": "Thị xã Duyên Hải",
    "unit": "Thị xã",
    "province_code": "84",
    "province_name": "Tỉnh Trà Vinh",
    "area_code": "03",
    "area_name": "Miền Nam",
    "full_name": "Thị xã Duyên Hải, Tỉnh Trà Vinh, Miền Nam"
  },
  {
    "code": "855",
    "name": "Thành phố Vĩnh Long",
    "unit": "Thành phố",
    "province_code": "86",
    "province_name": "Tỉnh Vĩnh Long",
    "area_code": "03",
    "area_name": "Miền Nam",
    "full_name": "Thành phố Vĩnh Long, Tỉnh Vĩnh Long, Miền Nam"
  },
  {
    "code": "857",
    "name": "Huyện Long Hồ",
    "unit": "Huyện",
    "province_code": "86",
    "province_name": "Tỉnh Vĩnh Long",
    "area_code": "03",
    "area_name": "Miền Nam",
    "full_name": "Huyện Long Hồ, Tỉnh Vĩnh Long, Miền Nam"
  },
  {
    "code": "858",
    "name": "Huyện Mang Thít",
    "unit": "Huyện",
    "province_code": "86",
    "province_name": "Tỉnh Vĩnh Long",
    "area_code": "03",
    "area_name": "Miền Nam",
    "full_name": "Huyện Mang Thít, Tỉnh Vĩnh Long, Miền Nam"
  },
  {
    "code": "859",
    "name": "Huyện  Vũng Liêm",
    "unit": "Huyện",
    "province_code": "86",
    "province_name": "Tỉnh Vĩnh Long",
    "area_code": "03",
    "area_name": "Miền Nam",
    "full_name": "Huyện  Vũng Liêm, Tỉnh Vĩnh Long, Miền Nam"
  },
  {
    "code": "860",
    "name": "Huyện Tam Bình",
    "unit": "Huyện",
    "province_code": "86",
    "province_name": "Tỉnh Vĩnh Long",
    "area_code": "03",
    "area_name": "Miền Nam",
    "full_name": "Huyện Tam Bình, Tỉnh Vĩnh Long, Miền Nam"
  },
  {
    "code": "861",
    "name": "Thị xã Bình Minh",
    "unit": "Thị xã",
    "province_code": "86",
    "province_name": "Tỉnh Vĩnh Long",
    "area_code": "03",
    "area_name": "Miền Nam",
    "full_name": "Thị xã Bình Minh, Tỉnh Vĩnh Long, Miền Nam"
  },
  {
    "code": "862",
    "name": "Huyện Trà Ôn",
    "unit": "Huyện",
    "province_code": "86",
    "province_name": "Tỉnh Vĩnh Long",
    "area_code": "03",
    "area_name": "Miền Nam",
    "full_name": "Huyện Trà Ôn, Tỉnh Vĩnh Long, Miền Nam"
  },
  {
    "code": "863",
    "name": "Huyện Bình Tân",
    "unit": "Huyện",
    "province_code": "86",
    "province_name": "Tỉnh Vĩnh Long",
    "area_code": "03",
    "area_name": "Miền Nam",
    "full_name": "Huyện Bình Tân, Tỉnh Vĩnh Long, Miền Nam"
  },
  {
    "code": "866",
    "name": "Thành phố Cao Lãnh",
    "unit": "Thành phố",
    "province_code": "87",
    "province_name": "Tỉnh Đồng Tháp",
    "area_code": "03",
    "area_name": "Miền Nam",
    "full_name": "Thành phố Cao Lãnh, Tỉnh Đồng Tháp, Miền Nam"
  },
  {
    "code": "867",
    "name": "Thành phố Sa Đéc",
    "unit": "Thành phố",
    "province_code": "87",
    "province_name": "Tỉnh Đồng Tháp",
    "area_code": "03",
    "area_name": "Miền Nam",
    "full_name": "Thành phố Sa Đéc, Tỉnh Đồng Tháp, Miền Nam"
  },
  {
    "code": "868",
    "name": "Thị xã Hồng Ngự",
    "unit": "Thị xã",
    "province_code": "87",
    "province_name": "Tỉnh Đồng Tháp",
    "area_code": "03",
    "area_name": "Miền Nam",
    "full_name": "Thị xã Hồng Ngự, Tỉnh Đồng Tháp, Miền Nam"
  },
  {
    "code": "869",
    "name": "Huyện Tân Hồng",
    "unit": "Huyện",
    "province_code": "87",
    "province_name": "Tỉnh Đồng Tháp",
    "area_code": "03",
    "area_name": "Miền Nam",
    "full_name": "Huyện Tân Hồng, Tỉnh Đồng Tháp, Miền Nam"
  },
  {
    "code": "870",
    "name": "Huyện Hồng Ngự",
    "unit": "Huyện",
    "province_code": "87",
    "province_name": "Tỉnh Đồng Tháp",
    "area_code": "03",
    "area_name": "Miền Nam",
    "full_name": "Huyện Hồng Ngự, Tỉnh Đồng Tháp, Miền Nam"
  },
  {
    "code": "871",
    "name": "Huyện Tam Nông",
    "unit": "Huyện",
    "province_code": "87",
    "province_name": "Tỉnh Đồng Tháp",
    "area_code": "03",
    "area_name": "Miền Nam",
    "full_name": "Huyện Tam Nông, Tỉnh Đồng Tháp, Miền Nam"
  },
  {
    "code": "872",
    "name": "Huyện Tháp Mười",
    "unit": "Huyện",
    "province_code": "87",
    "province_name": "Tỉnh Đồng Tháp",
    "area_code": "03",
    "area_name": "Miền Nam",
    "full_name": "Huyện Tháp Mười, Tỉnh Đồng Tháp, Miền Nam"
  },
  {
    "code": "873",
    "name": "Huyện Cao Lãnh",
    "unit": "Huyện",
    "province_code": "87",
    "province_name": "Tỉnh Đồng Tháp",
    "area_code": "03",
    "area_name": "Miền Nam",
    "full_name": "Huyện Cao Lãnh, Tỉnh Đồng Tháp, Miền Nam"
  },
  {
    "code": "874",
    "name": "Huyện Thanh Bình",
    "unit": "Huyện",
    "province_code": "87",
    "province_name": "Tỉnh Đồng Tháp",
    "area_code": "03",
    "area_name": "Miền Nam",
    "full_name": "Huyện Thanh Bình, Tỉnh Đồng Tháp, Miền Nam"
  },
  {
    "code": "875",
    "name": "Huyện Lấp Vò",
    "unit": "Huyện",
    "province_code": "87",
    "province_name": "Tỉnh Đồng Tháp",
    "area_code": "03",
    "area_name": "Miền Nam",
    "full_name": "Huyện Lấp Vò, Tỉnh Đồng Tháp, Miền Nam"
  },
  {
    "code": "876",
    "name": "Huyện Lai Vung",
    "unit": "Huyện",
    "province_code": "87",
    "province_name": "Tỉnh Đồng Tháp",
    "area_code": "03",
    "area_name": "Miền Nam",
    "full_name": "Huyện Lai Vung, Tỉnh Đồng Tháp, Miền Nam"
  },
  {
    "code": "877",
    "name": "Huyện Châu Thành",
    "unit": "Huyện",
    "province_code": "87",
    "province_name": "Tỉnh Đồng Tháp",
    "area_code": "03",
    "area_name": "Miền Nam",
    "full_name": "Huyện Châu Thành, Tỉnh Đồng Tháp, Miền Nam"
  },
  {
    "code": "883",
    "name": "Thành phố Long Xuyên",
    "unit": "Thành phố",
    "province_code": "89",
    "province_name": "Tỉnh An Giang",
    "area_code": "03",
    "area_name": "Miền Nam",
    "full_name": "Thành phố Long Xuyên, Tỉnh An Giang, Miền Nam"
  },
  {
    "code": "884",
    "name": "Thành phố Châu Đốc",
    "unit": "Thành phố",
    "province_code": "89",
    "province_name": "Tỉnh An Giang",
    "area_code": "03",
    "area_name": "Miền Nam",
    "full_name": "Thành phố Châu Đốc, Tỉnh An Giang, Miền Nam"
  },
  {
    "code": "886",
    "name": "Huyện An Phú",
    "unit": "Huyện",
    "province_code": "89",
    "province_name": "Tỉnh An Giang",
    "area_code": "03",
    "area_name": "Miền Nam",
    "full_name": "Huyện An Phú, Tỉnh An Giang, Miền Nam"
  },
  {
    "code": "887",
    "name": "Thị xã Tân Châu",
    "unit": "Thị xã",
    "province_code": "89",
    "province_name": "Tỉnh An Giang",
    "area_code": "03",
    "area_name": "Miền Nam",
    "full_name": "Thị xã Tân Châu, Tỉnh An Giang, Miền Nam"
  },
  {
    "code": "888",
    "name": "Huyện Phú Tân",
    "unit": "Huyện",
    "province_code": "89",
    "province_name": "Tỉnh An Giang",
    "area_code": "03",
    "area_name": "Miền Nam",
    "full_name": "Huyện Phú Tân, Tỉnh An Giang, Miền Nam"
  },
  {
    "code": "889",
    "name": "Huyện Châu Phú",
    "unit": "Huyện",
    "province_code": "89",
    "province_name": "Tỉnh An Giang",
    "area_code": "03",
    "area_name": "Miền Nam",
    "full_name": "Huyện Châu Phú, Tỉnh An Giang, Miền Nam"
  },
  {
    "code": "890",
    "name": "Huyện Tịnh Biên",
    "unit": "Huyện",
    "province_code": "89",
    "province_name": "Tỉnh An Giang",
    "area_code": "03",
    "area_name": "Miền Nam",
    "full_name": "Huyện Tịnh Biên, Tỉnh An Giang, Miền Nam"
  },
  {
    "code": "891",
    "name": "Huyện Tri Tôn",
    "unit": "Huyện",
    "province_code": "89",
    "province_name": "Tỉnh An Giang",
    "area_code": "03",
    "area_name": "Miền Nam",
    "full_name": "Huyện Tri Tôn, Tỉnh An Giang, Miền Nam"
  },
  {
    "code": "892",
    "name": "Huyện Châu Thành",
    "unit": "Huyện",
    "province_code": "89",
    "province_name": "Tỉnh An Giang",
    "area_code": "03",
    "area_name": "Miền Nam",
    "full_name": "Huyện Châu Thành, Tỉnh An Giang, Miền Nam"
  },
  {
    "code": "893",
    "name": "Huyện Chợ Mới",
    "unit": "Huyện",
    "province_code": "89",
    "province_name": "Tỉnh An Giang",
    "area_code": "03",
    "area_name": "Miền Nam",
    "full_name": "Huyện Chợ Mới, Tỉnh An Giang, Miền Nam"
  },
  {
    "code": "894",
    "name": "Huyện Thoại Sơn",
    "unit": "Huyện",
    "province_code": "89",
    "province_name": "Tỉnh An Giang",
    "area_code": "03",
    "area_name": "Miền Nam",
    "full_name": "Huyện Thoại Sơn, Tỉnh An Giang, Miền Nam"
  },
  {
    "code": "899",
    "name": "Thành phố Rạch Giá",
    "unit": "Thành phố",
    "province_code": "91",
    "province_name": "Tỉnh Kiên Giang",
    "area_code": "03",
    "area_name": "Miền Nam",
    "full_name": "Thành phố Rạch Giá, Tỉnh Kiên Giang, Miền Nam"
  },
  {
    "code": "900",
    "name": "Thành phố Hà Tiên",
    "unit": "Thành phố",
    "province_code": "91",
    "province_name": "Tỉnh Kiên Giang",
    "area_code": "03",
    "area_name": "Miền Nam",
    "full_name": "Thành phố Hà Tiên, Tỉnh Kiên Giang, Miền Nam"
  },
  {
    "code": "902",
    "name": "Huyện Kiên Lương",
    "unit": "Huyện",
    "province_code": "91",
    "province_name": "Tỉnh Kiên Giang",
    "area_code": "03",
    "area_name": "Miền Nam",
    "full_name": "Huyện Kiên Lương, Tỉnh Kiên Giang, Miền Nam"
  },
  {
    "code": "903",
    "name": "Huyện Hòn Đất",
    "unit": "Huyện",
    "province_code": "91",
    "province_name": "Tỉnh Kiên Giang",
    "area_code": "03",
    "area_name": "Miền Nam",
    "full_name": "Huyện Hòn Đất, Tỉnh Kiên Giang, Miền Nam"
  },
  {
    "code": "904",
    "name": "Huyện Tân Hiệp",
    "unit": "Huyện",
    "province_code": "91",
    "province_name": "Tỉnh Kiên Giang",
    "area_code": "03",
    "area_name": "Miền Nam",
    "full_name": "Huyện Tân Hiệp, Tỉnh Kiên Giang, Miền Nam"
  },
  {
    "code": "905",
    "name": "Huyện Châu Thành",
    "unit": "Huyện",
    "province_code": "91",
    "province_name": "Tỉnh Kiên Giang",
    "area_code": "03",
    "area_name": "Miền Nam",
    "full_name": "Huyện Châu Thành, Tỉnh Kiên Giang, Miền Nam"
  },
  {
    "code": "906",
    "name": "Huyện Giồng Riềng",
    "unit": "Huyện",
    "province_code": "91",
    "province_name": "Tỉnh Kiên Giang",
    "area_code": "03",
    "area_name": "Miền Nam",
    "full_name": "Huyện Giồng Riềng, Tỉnh Kiên Giang, Miền Nam"
  },
  {
    "code": "907",
    "name": "Huyện Gò Quao",
    "unit": "Huyện",
    "province_code": "91",
    "province_name": "Tỉnh Kiên Giang",
    "area_code": "03",
    "area_name": "Miền Nam",
    "full_name": "Huyện Gò Quao, Tỉnh Kiên Giang, Miền Nam"
  },
  {
    "code": "908",
    "name": "Huyện An Biên",
    "unit": "Huyện",
    "province_code": "91",
    "province_name": "Tỉnh Kiên Giang",
    "area_code": "03",
    "area_name": "Miền Nam",
    "full_name": "Huyện An Biên, Tỉnh Kiên Giang, Miền Nam"
  },
  {
    "code": "909",
    "name": "Huyện An Minh",
    "unit": "Huyện",
    "province_code": "91",
    "province_name": "Tỉnh Kiên Giang",
    "area_code": "03",
    "area_name": "Miền Nam",
    "full_name": "Huyện An Minh, Tỉnh Kiên Giang, Miền Nam"
  },
  {
    "code": "910",
    "name": "Huyện Vĩnh Thuận",
    "unit": "Huyện",
    "province_code": "91",
    "province_name": "Tỉnh Kiên Giang",
    "area_code": "03",
    "area_name": "Miền Nam",
    "full_name": "Huyện Vĩnh Thuận, Tỉnh Kiên Giang, Miền Nam"
  },
  {
    "code": "911",
    "name": "Huyện Phú Quốc",
    "unit": "Huyện",
    "province_code": "91",
    "province_name": "Tỉnh Kiên Giang",
    "area_code": "03",
    "area_name": "Miền Nam",
    "full_name": "Huyện Phú Quốc, Tỉnh Kiên Giang, Miền Nam"
  },
  {
    "code": "912",
    "name": "Huyện Kiên Hải",
    "unit": "Huyện",
    "province_code": "91",
    "province_name": "Tỉnh Kiên Giang",
    "area_code": "03",
    "area_name": "Miền Nam",
    "full_name": "Huyện Kiên Hải, Tỉnh Kiên Giang, Miền Nam"
  },
  {
    "code": "913",
    "name": "Huyện U Minh Thượng",
    "unit": "Huyện",
    "province_code": "91",
    "province_name": "Tỉnh Kiên Giang",
    "area_code": "03",
    "area_name": "Miền Nam",
    "full_name": "Huyện U Minh Thượng, Tỉnh Kiên Giang, Miền Nam"
  },
  {
    "code": "914",
    "name": "Huyện Giang Thành",
    "unit": "Huyện",
    "province_code": "91",
    "province_name": "Tỉnh Kiên Giang",
    "area_code": "03",
    "area_name": "Miền Nam",
    "full_name": "Huyện Giang Thành, Tỉnh Kiên Giang, Miền Nam"
  },
  {
    "code": "916",
    "name": "Quận Ninh Kiều",
    "unit": "Quận",
    "province_code": "92",
    "province_name": "Thành phố Cần Thơ",
    "area_code": "03",
    "area_name": "Miền Nam",
    "full_name": "Quận Ninh Kiều, Thành phố Cần Thơ, Miền Nam"
  },
  {
    "code": "917",
    "name": "Quận Ô Môn",
    "unit": "Quận",
    "province_code": "92",
    "province_name": "Thành phố Cần Thơ",
    "area_code": "03",
    "area_name": "Miền Nam",
    "full_name": "Quận Ô Môn, Thành phố Cần Thơ, Miền Nam"
  },
  {
    "code": "918",
    "name": "Quận Bình Thuỷ",
    "unit": "Quận",
    "province_code": "92",
    "province_name": "Thành phố Cần Thơ",
    "area_code": "03",
    "area_name": "Miền Nam",
    "full_name": "Quận Bình Thuỷ, Thành phố Cần Thơ, Miền Nam"
  },
  {
    "code": "919",
    "name": "Quận Cái Răng",
    "unit": "Quận",
    "province_code": "92",
    "province_name": "Thành phố Cần Thơ",
    "area_code": "03",
    "area_name": "Miền Nam",
    "full_name": "Quận Cái Răng, Thành phố Cần Thơ, Miền Nam"
  },
  {
    "code": "923",
    "name": "Quận Thốt Nốt",
    "unit": "Quận",
    "province_code": "92",
    "province_name": "Thành phố Cần Thơ",
    "area_code": "03",
    "area_name": "Miền Nam",
    "full_name": "Quận Thốt Nốt, Thành phố Cần Thơ, Miền Nam"
  },
  {
    "code": "924",
    "name": "Huyện Vĩnh Thạnh",
    "unit": "Huyện",
    "province_code": "92",
    "province_name": "Thành phố Cần Thơ",
    "area_code": "03",
    "area_name": "Miền Nam",
    "full_name": "Huyện Vĩnh Thạnh, Thành phố Cần Thơ, Miền Nam"
  },
  {
    "code": "925",
    "name": "Huyện Cờ Đỏ",
    "unit": "Huyện",
    "province_code": "92",
    "province_name": "Thành phố Cần Thơ",
    "area_code": "03",
    "area_name": "Miền Nam",
    "full_name": "Huyện Cờ Đỏ, Thành phố Cần Thơ, Miền Nam"
  },
  {
    "code": "926",
    "name": "Huyện Phong Điền",
    "unit": "Huyện",
    "province_code": "92",
    "province_name": "Thành phố Cần Thơ",
    "area_code": "03",
    "area_name": "Miền Nam",
    "full_name": "Huyện Phong Điền, Thành phố Cần Thơ, Miền Nam"
  },
  {
    "code": "927",
    "name": "Huyện Thới Lai",
    "unit": "Huyện",
    "province_code": "92",
    "province_name": "Thành phố Cần Thơ",
    "area_code": "03",
    "area_name": "Miền Nam",
    "full_name": "Huyện Thới Lai, Thành phố Cần Thơ, Miền Nam"
  },
  {
    "code": "930",
    "name": "Thành phố Vị Thanh",
    "unit": "Thành phố",
    "province_code": "93",
    "province_name": "Tỉnh Hậu Giang",
    "area_code": "03",
    "area_name": "Miền Nam",
    "full_name": "Thành phố Vị Thanh, Tỉnh Hậu Giang, Miền Nam"
  },
  {
    "code": "931",
    "name": "Thị xã Ngã Bảy",
    "unit": "Thị xã",
    "province_code": "93",
    "province_name": "Tỉnh Hậu Giang",
    "area_code": "03",
    "area_name": "Miền Nam",
    "full_name": "Thị xã Ngã Bảy, Tỉnh Hậu Giang, Miền Nam"
  },
  {
    "code": "932",
    "name": "Huyện Châu Thành A",
    "unit": "Huyện",
    "province_code": "93",
    "province_name": "Tỉnh Hậu Giang",
    "area_code": "03",
    "area_name": "Miền Nam",
    "full_name": "Huyện Châu Thành A, Tỉnh Hậu Giang, Miền Nam"
  },
  {
    "code": "933",
    "name": "Huyện Châu Thành",
    "unit": "Huyện",
    "province_code": "93",
    "province_name": "Tỉnh Hậu Giang",
    "area_code": "03",
    "area_name": "Miền Nam",
    "full_name": "Huyện Châu Thành, Tỉnh Hậu Giang, Miền Nam"
  },
  {
    "code": "934",
    "name": "Huyện Phụng Hiệp",
    "unit": "Huyện",
    "province_code": "93",
    "province_name": "Tỉnh Hậu Giang",
    "area_code": "03",
    "area_name": "Miền Nam",
    "full_name": "Huyện Phụng Hiệp, Tỉnh Hậu Giang, Miền Nam"
  },
  {
    "code": "935",
    "name": "Huyện Vị Thuỷ",
    "unit": "Huyện",
    "province_code": "93",
    "province_name": "Tỉnh Hậu Giang",
    "area_code": "03",
    "area_name": "Miền Nam",
    "full_name": "Huyện Vị Thuỷ, Tỉnh Hậu Giang, Miền Nam"
  },
  {
    "code": "936",
    "name": "Huyện Long Mỹ",
    "unit": "Huyện",
    "province_code": "93",
    "province_name": "Tỉnh Hậu Giang",
    "area_code": "03",
    "area_name": "Miền Nam",
    "full_name": "Huyện Long Mỹ, Tỉnh Hậu Giang, Miền Nam"
  },
  {
    "code": "937",
    "name": "Thị xã Long Mỹ",
    "unit": "Thị xã",
    "province_code": "93",
    "province_name": "Tỉnh Hậu Giang",
    "area_code": "03",
    "area_name": "Miền Nam",
    "full_name": "Thị xã Long Mỹ, Tỉnh Hậu Giang, Miền Nam"
  },
  {
    "code": "941",
    "name": "Thành phố Sóc Trăng",
    "unit": "Thành phố",
    "province_code": "94",
    "province_name": "Tỉnh Sóc Trăng",
    "area_code": "03",
    "area_name": "Miền Nam",
    "full_name": "Thành phố Sóc Trăng, Tỉnh Sóc Trăng, Miền Nam"
  },
  {
    "code": "942",
    "name": "Huyện Châu Thành",
    "unit": "Huyện",
    "province_code": "94",
    "province_name": "Tỉnh Sóc Trăng",
    "area_code": "03",
    "area_name": "Miền Nam",
    "full_name": "Huyện Châu Thành, Tỉnh Sóc Trăng, Miền Nam"
  },
  {
    "code": "943",
    "name": "Huyện Kế Sách",
    "unit": "Huyện",
    "province_code": "94",
    "province_name": "Tỉnh Sóc Trăng",
    "area_code": "03",
    "area_name": "Miền Nam",
    "full_name": "Huyện Kế Sách, Tỉnh Sóc Trăng, Miền Nam"
  },
  {
    "code": "944",
    "name": "Huyện Mỹ Tú",
    "unit": "Huyện",
    "province_code": "94",
    "province_name": "Tỉnh Sóc Trăng",
    "area_code": "03",
    "area_name": "Miền Nam",
    "full_name": "Huyện Mỹ Tú, Tỉnh Sóc Trăng, Miền Nam"
  },
  {
    "code": "945",
    "name": "Huyện Cù Lao Dung",
    "unit": "Huyện",
    "province_code": "94",
    "province_name": "Tỉnh Sóc Trăng",
    "area_code": "03",
    "area_name": "Miền Nam",
    "full_name": "Huyện Cù Lao Dung, Tỉnh Sóc Trăng, Miền Nam"
  },
  {
    "code": "946",
    "name": "Huyện Long Phú",
    "unit": "Huyện",
    "province_code": "94",
    "province_name": "Tỉnh Sóc Trăng",
    "area_code": "03",
    "area_name": "Miền Nam",
    "full_name": "Huyện Long Phú, Tỉnh Sóc Trăng, Miền Nam"
  },
  {
    "code": "947",
    "name": "Huyện Mỹ Xuyên",
    "unit": "Huyện",
    "province_code": "94",
    "province_name": "Tỉnh Sóc Trăng",
    "area_code": "03",
    "area_name": "Miền Nam",
    "full_name": "Huyện Mỹ Xuyên, Tỉnh Sóc Trăng, Miền Nam"
  },
  {
    "code": "948",
    "name": "Thị xã Ngã Năm",
    "unit": "Thị xã",
    "province_code": "94",
    "province_name": "Tỉnh Sóc Trăng",
    "area_code": "03",
    "area_name": "Miền Nam",
    "full_name": "Thị xã Ngã Năm, Tỉnh Sóc Trăng, Miền Nam"
  },
  {
    "code": "949",
    "name": "Huyện Thạnh Trị",
    "unit": "Huyện",
    "province_code": "94",
    "province_name": "Tỉnh Sóc Trăng",
    "area_code": "03",
    "area_name": "Miền Nam",
    "full_name": "Huyện Thạnh Trị, Tỉnh Sóc Trăng, Miền Nam"
  },
  {
    "code": "950",
    "name": "Thị xã Vĩnh Châu",
    "unit": "Thị xã",
    "province_code": "94",
    "province_name": "Tỉnh Sóc Trăng",
    "area_code": "03",
    "area_name": "Miền Nam",
    "full_name": "Thị xã Vĩnh Châu, Tỉnh Sóc Trăng, Miền Nam"
  },
  {
    "code": "951",
    "name": "Huyện Trần Đề",
    "unit": "Huyện",
    "province_code": "94",
    "province_name": "Tỉnh Sóc Trăng",
    "area_code": "03",
    "area_name": "Miền Nam",
    "full_name": "Huyện Trần Đề, Tỉnh Sóc Trăng, Miền Nam"
  },
  {
    "code": "954",
    "name": "Thành phố Bạc Liêu",
    "unit": "Thành phố",
    "province_code": "95",
    "province_name": "Tỉnh Bạc Liêu",
    "area_code": "03",
    "area_name": "Miền Nam",
    "full_name": "Thành phố Bạc Liêu, Tỉnh Bạc Liêu, Miền Nam"
  },
  {
    "code": "956",
    "name": "Huyện Hồng Dân",
    "unit": "Huyện",
    "province_code": "95",
    "province_name": "Tỉnh Bạc Liêu",
    "area_code": "03",
    "area_name": "Miền Nam",
    "full_name": "Huyện Hồng Dân, Tỉnh Bạc Liêu, Miền Nam"
  },
  {
    "code": "957",
    "name": "Huyện Phước Long",
    "unit": "Huyện",
    "province_code": "95",
    "province_name": "Tỉnh Bạc Liêu",
    "area_code": "03",
    "area_name": "Miền Nam",
    "full_name": "Huyện Phước Long, Tỉnh Bạc Liêu, Miền Nam"
  },
  {
    "code": "958",
    "name": "Huyện Vĩnh Lợi",
    "unit": "Huyện",
    "province_code": "95",
    "province_name": "Tỉnh Bạc Liêu",
    "area_code": "03",
    "area_name": "Miền Nam",
    "full_name": "Huyện Vĩnh Lợi, Tỉnh Bạc Liêu, Miền Nam"
  },
  {
    "code": "959",
    "name": "Thị xã Giá Rai",
    "unit": "Thị xã",
    "province_code": "95",
    "province_name": "Tỉnh Bạc Liêu",
    "area_code": "03",
    "area_name": "Miền Nam",
    "full_name": "Thị xã Giá Rai, Tỉnh Bạc Liêu, Miền Nam"
  },
  {
    "code": "960",
    "name": "Huyện Đông Hải",
    "unit": "Huyện",
    "province_code": "95",
    "province_name": "Tỉnh Bạc Liêu",
    "area_code": "03",
    "area_name": "Miền Nam",
    "full_name": "Huyện Đông Hải, Tỉnh Bạc Liêu, Miền Nam"
  },
  {
    "code": "961",
    "name": "Huyện Hoà Bình",
    "unit": "Huyện",
    "province_code": "95",
    "province_name": "Tỉnh Bạc Liêu",
    "area_code": "03",
    "area_name": "Miền Nam",
    "full_name": "Huyện Hoà Bình, Tỉnh Bạc Liêu, Miền Nam"
  },
  {
    "code": "964",
    "name": "Thành phố Cà Mau",
    "unit": "Thành phố",
    "province_code": "96",
    "province_name": "Tỉnh Cà Mau",
    "area_code": "03",
    "area_name": "Miền Nam",
    "full_name": "Thành phố Cà Mau, Tỉnh Cà Mau, Miền Nam"
  },
  {
    "code": "966",
    "name": "Huyện U Minh",
    "unit": "Huyện",
    "province_code": "96",
    "province_name": "Tỉnh Cà Mau",
    "area_code": "03",
    "area_name": "Miền Nam",
    "full_name": "Huyện U Minh, Tỉnh Cà Mau, Miền Nam"
  },
  {
    "code": "967",
    "name": "Huyện Thới Bình",
    "unit": "Huyện",
    "province_code": "96",
    "province_name": "Tỉnh Cà Mau",
    "area_code": "03",
    "area_name": "Miền Nam",
    "full_name": "Huyện Thới Bình, Tỉnh Cà Mau, Miền Nam"
  },
  {
    "code": "968",
    "name": "Huyện Trần Văn Thời",
    "unit": "Huyện",
    "province_code": "96",
    "province_name": "Tỉnh Cà Mau",
    "area_code": "03",
    "area_name": "Miền Nam",
    "full_name": "Huyện Trần Văn Thời, Tỉnh Cà Mau, Miền Nam"
  },
  {
    "code": "969",
    "name": "Huyện Cái Nước",
    "unit": "Huyện",
    "province_code": "96",
    "province_name": "Tỉnh Cà Mau",
    "area_code": "03",
    "area_name": "Miền Nam",
    "full_name": "Huyện Cái Nước, Tỉnh Cà Mau, Miền Nam"
  },
  {
    "code": "970",
    "name": "Huyện Đầm Dơi",
    "unit": "Huyện",
    "province_code": "96",
    "province_name": "Tỉnh Cà Mau",
    "area_code": "03",
    "area_name": "Miền Nam",
    "full_name": "Huyện Đầm Dơi, Tỉnh Cà Mau, Miền Nam"
  },
  {
    "code": "971",
    "name": "Huyện Năm Căn",
    "unit": "Huyện",
    "province_code": "96",
    "province_name": "Tỉnh Cà Mau",
    "area_code": "03",
    "area_name": "Miền Nam",
    "full_name": "Huyện Năm Căn, Tỉnh Cà Mau, Miền Nam"
  },
  {
    "code": "972",
    "name": "Huyện Phú Tân",
    "unit": "Huyện",
    "province_code": "96",
    "province_name": "Tỉnh Cà Mau",
    "area_code": "03",
    "area_name": "Miền Nam",
    "full_name": "Huyện Phú Tân, Tỉnh Cà Mau, Miền Nam"
  },
  {
    "code": "973",
    "name": "Huyện Ngọc Hiển",
    "unit": "Huyện",
    "province_code": "96",
    "province_name": "Tỉnh Cà Mau",
    "area_code": "03",
    "area_name": "Miền Nam",
    "full_name": "Huyện Ngọc Hiển, Tỉnh Cà Mau, Miền Nam"
  }
]